{
"type": "FeatureCollection",
"name": "geo_23_認知症対応型通所介護",
"crs": { "type": "name", "properties": { "name": "urn:ogc:def:crs:OGC:1.3:CRS84" } },
"features": [
{ "type": "Feature", "properties": { "内容": "グループホーム吹上の杜【認知症対応型通所介護】名古屋市千種区小松町7丁目14番地-1", "url": "https://www.kaigokensaku.mhlw.go.jp/23/index.php?action_kouhyou_detail_004_kani=true&JigyosyoCd=2390100069-00&ServiceCd=720&Type=search", "url2": "http://www.group-home.co.jp" }, "geometry": { "type": "Point", "coordinates": [ 136.93665139999996, 35.1574205 ] } },
{ "type": "Feature", "properties": { "内容": "ファミリーハウス「とんと」【認知症対応型通所介護】愛知県名古屋市千種区茶屋坂通２丁目１４番地", "url": "https://www.kaigokensaku.mhlw.go.jp/23/index.php?action_kouhyou_detail_004_kani=true&JigyosyoCd=2370100618-00&ServiceCd=720&Type=search", "url2": "http://mohs.co.jp" }, "geometry": { "type": "Point", "coordinates": [ 136.95676549999996, 35.1828846 ] } },
{ "type": "Feature", "properties": { "内容": "ファミリーハウス「とんと」猪子石【認知症対応型通所介護】愛知県名古屋市千種区新西二丁目２番１８号", "url": "https://www.kaigokensaku.mhlw.go.jp/23/index.php?action_kouhyou_detail_004_kani=true&JigyosyoCd=2390100341-00&ServiceCd=720&Type=search", "url2": "http://www.mohs.co.jp/" }, "geometry": { "type": "Point", "coordinates": [ 136.986913099999981, 35.1903277 ] } },
{ "type": "Feature", "properties": { "内容": "デイサービスらしく自由ヶ丘【認知症対応型通所介護】愛知県名古屋市千種区自由ヶ丘1-7-18", "url": "https://www.kaigokensaku.mhlw.go.jp/23/index.php?action_kouhyou_detail_004_kani=true&JigyosyoCd=2390100317-00&ServiceCd=720&Type=search", "url2": "ra-shi-ku.com" }, "geometry": { "type": "Point", "coordinates": [ 136.961626600000045, 35.1723723 ] } },
{ "type": "Feature", "properties": { "内容": "グループホーム　水草【認知症対応型通所介護】愛知県名古屋市北区水草町一丁目４６番地グル―ホーム　水草", "url": "https://www.kaigokensaku.mhlw.go.jp/23/index.php?action_kouhyou_detail_004_kani=true&JigyosyoCd=2390300214-00&ServiceCd=720&Type=search", "url2": "gh-mizukusa@nifty.com" }, "geometry": { "type": "Point", "coordinates": [ 136.908636099999967, 35.206293 ] } },
{ "type": "Feature", "properties": { "内容": "デイサービスふたば【認知症対応型通所介護】愛知県名古屋市北区楠三丁目811-1", "url": "https://www.kaigokensaku.mhlw.go.jp/23/index.php?action_kouhyou_detail_004_kani=true&JigyosyoCd=2370301653-00&ServiceCd=720&Type=search", "url2": "http://wch.co.jp" }, "geometry": { "type": "Point", "coordinates": [ 136.923040699999973, 35.227578 ] } },
{ "type": "Feature", "properties": { "内容": "アットホームあいり【認知症対応型通所介護】玉池町２５５番地", "url": "https://www.kaigokensaku.mhlw.go.jp/23/index.php?action_kouhyou_detail_004_kani=true&JigyosyoCd=2390400154-00&ServiceCd=720&Type=search", "url2": "http://www.at-inc.co.jp" }, "geometry": { "type": "Point", "coordinates": [ 136.8886288, 35.2293512 ] } },
{ "type": "Feature", "properties": { "内容": "デイサービスわかば【認知症対応型通所介護】愛知県名古屋市西区枇杷島四丁目10番5号", "url": "https://www.kaigokensaku.mhlw.go.jp/23/index.php?action_kouhyou_detail_004_kani=true&JigyosyoCd=2370401040-00&ServiceCd=720&Type=search", "url2": "https://wch.co.jp/" }, "geometry": { "type": "Point", "coordinates": [ 136.875606299999987, 35.1930558 ] } },
{ "type": "Feature", "properties": { "内容": "グループホームこころ比良【認知症対応型通所介護】比良4-287", "url": "https://www.kaigokensaku.mhlw.go.jp/23/index.php?action_kouhyou_detail_004_kani=true&JigyosyoCd=2390400436-00&ServiceCd=720&Type=search", "url2": "http://a-lifesupport.co.jp/kakusisetu/kokorohira/" }, "geometry": { "type": "Point", "coordinates": [ 136.8991995, 35.2300065 ] } },
{ "type": "Feature", "properties": { "内容": "デイホーム　中小田井【認知症対応型通所介護】愛知県名古屋市西区中小田井五丁目240番地", "url": "https://www.kaigokensaku.mhlw.go.jp/23/index.php?action_kouhyou_detail_004_kani=true&JigyosyoCd=2390400048-00&ServiceCd=720&Type=search", "url2": "www.aiseihukusikai.jp" }, "geometry": { "type": "Point", "coordinates": [ 136.874192099999959, 35.2174074 ] } },
{ "type": "Feature", "properties": { "内容": "グループホーム浄心の杜【認知症対応型通所介護】名古屋市西区上名古屋三四丁目1番22号", "url": "https://www.kaigokensaku.mhlw.go.jp/23/index.php?action_kouhyou_detail_004_kani=true&JigyosyoCd=2390400097-00&ServiceCd=720&Type=search", "url2": null }, "geometry": { "type": "Point", "coordinates": [ 136.898864078953068, 35.195254353881154 ] } },
{ "type": "Feature", "properties": { "内容": "丸八デイサービス千成【認知症対応型通所介護】愛知県名古屋市中村区日ノ宮町2丁目129", "url": "https://www.kaigokensaku.mhlw.go.jp/23/index.php?action_kouhyou_detail_004_kani=true&JigyosyoCd=2370501377-00&ServiceCd=720&Type=search", "url2": "maru8kaigo.com/DS-sennari.html" }, "geometry": { "type": "Point", "coordinates": [ 136.8592557, 35.1607967 ] } },
{ "type": "Feature", "properties": { "内容": "「とんと」ＯＨＡＮＡ【認知症対応型通所介護】丸の内三丁目9番13号EASTSIDE丸の内2F", "url": "https://www.kaigokensaku.mhlw.go.jp/23/index.php?action_kouhyou_detail_004_kani=true&JigyosyoCd=2390600175-00&ServiceCd=720&Type=search", "url2": "http://www.human-ast.co.jp" }, "geometry": { "type": "Point", "coordinates": [ 136.904709300000036, 35.175780400000022 ] } },
{ "type": "Feature", "properties": { "内容": "ケアネットホーム白金【認知症対応型通所介護】愛知県名古屋市昭和区白金1-20-3", "url": "https://www.kaigokensaku.mhlw.go.jp/23/index.php?action_kouhyou_detail_004_kani=true&JigyosyoCd=2390700165-00&ServiceCd=720&Type=search", "url2": "http:/carenet-japan.co.jp/" }, "geometry": { "type": "Point", "coordinates": [ 136.914487, 35.1477736 ] } },
{ "type": "Feature", "properties": { "内容": "デイサービスらしく昭和【認知症対応型通所介護】愛知県名古屋市昭和区戸田町３－１０戸田マンション１－Ａ", "url": "https://www.kaigokensaku.mhlw.go.jp/23/index.php?action_kouhyou_detail_004_kani=true&JigyosyoCd=2390700264-00&ServiceCd=720&Type=search", "url2": "http://ra-shi-ku.com" }, "geometry": { "type": "Point", "coordinates": [ 136.9409968, 35.1421427 ] } },
{ "type": "Feature", "properties": { "内容": "和みの家デイサービス【認知症対応型通所介護】愛知県名古屋市昭和区荒田町4丁目26番地", "url": "https://www.kaigokensaku.mhlw.go.jp/23/index.php?action_kouhyou_detail_004_kani=true&JigyosyoCd=2390700181-00&ServiceCd=720&Type=search", "url2": null }, "geometry": { "type": "Point", "coordinates": [ 136.942234598147593, 35.14010603368736 ] } },
{ "type": "Feature", "properties": { "内容": "デイサービスセンターたのしいデイ瑞穂【認知症対応型通所介護】愛知県名古屋市瑞穂区惣作町三丁目55-1", "url": "https://www.kaigokensaku.mhlw.go.jp/23/index.php?action_kouhyou_detail_004_kani=true&JigyosyoCd=2390800403-00&ServiceCd=720&Type=search", "url2": null }, "geometry": { "type": "Point", "coordinates": [ 136.9287448, 35.1209041 ] } },
{ "type": "Feature", "properties": { "内容": "堀田デイサービスセンター【認知症対応型通所介護】名古屋市瑞穂区堀田通五丁目6番地1", "url": "https://www.kaigokensaku.mhlw.go.jp/23/index.php?action_kouhyou_detail_004_kani=true&JigyosyoCd=2390800031-00&ServiceCd=720&Type=search", "url2": "http://www.horita-ds.com/" }, "geometry": { "type": "Point", "coordinates": [ 136.920056499999987, 35.1293762 ] } },
{ "type": "Feature", "properties": { "内容": "たのしい家金山【認知症対応型通所介護】池内町2-3", "url": "https://www.kaigokensaku.mhlw.go.jp/23/index.php?action_kouhyou_detail_004_kani=true&JigyosyoCd=2390900138-00&ServiceCd=720&Type=search", "url2": "http://care21.co.jp" }, "geometry": { "type": "Point", "coordinates": [ 136.911893, 35.1394969 ] } },
{ "type": "Feature", "properties": { "内容": "ささゆりデイサービス熱田【認知症対応型通所介護】名古屋市熱田区一番二丁目７番２号ブロア白鳥庭園１F", "url": "https://www.kaigokensaku.mhlw.go.jp/23/index.php?action_kouhyou_detail_004_kani=true&JigyosyoCd=2390900013-00&ServiceCd=720&Type=search", "url2": "https://sasayuri.jp/" }, "geometry": { "type": "Point", "coordinates": [ 136.899467100000038, 35.1237038 ] } },
{ "type": "Feature", "properties": { "内容": "リビングデイサービスやすらぎの里　中野新町【認知症対応型通所介護】愛知県名古屋市中川区中野新町三丁目５１番地", "url": "https://www.kaigokensaku.mhlw.go.jp/23/index.php?action_kouhyou_detail_004_kani=true&JigyosyoCd=2391000227-00&ServiceCd=720&Type=search", "url2": null }, "geometry": { "type": "Point", "coordinates": [ 136.872356, 35.1273718 ] } },
{ "type": "Feature", "properties": { "内容": "デイサービス　荒子の郷【認知症対応型通所介護】名古屋市中川区上流町2丁目20番地", "url": "https://www.kaigokensaku.mhlw.go.jp/23/index.php?action_kouhyou_detail_004_kani=true&JigyosyoCd=2391000508-00&ServiceCd=720&Type=search", "url2": "www.yattokame.com/arakonosato" }, "geometry": { "type": "Point", "coordinates": [ 136.863643200000013, 35.1328188 ] } },
{ "type": "Feature", "properties": { "内容": "デイサービスセンターまつかげ【認知症対応型通所介護】名古屋市中川区打出２丁目２５０番地", "url": "https://www.kaigokensaku.mhlw.go.jp/23/index.php?action_kouhyou_detail_004_kani=true&JigyosyoCd=2391000128-00&ServiceCd=720&Type=search", "url2": "http://www.seiseikai.com/" }, "geometry": { "type": "Point", "coordinates": [ 136.840690504096187, 35.13445469238966 ] } },
{ "type": "Feature", "properties": { "内容": "デイサービスセンター松の庵【認知症対応型通所介護】愛知県名古屋市中川区打出二丁目１０８番地", "url": "https://www.kaigokensaku.mhlw.go.jp/23/index.php?action_kouhyou_detail_004_kani=true&JigyosyoCd=2391000326-00&ServiceCd=720&Type=search", "url2": "http://www.seiseikai.com/" }, "geometry": { "type": "Point", "coordinates": [ 136.840587199999959, 35.1343341 ] } },
{ "type": "Feature", "properties": { "内容": "デイサービス千音寺【認知症対応型通所介護】愛知県名古屋市中川区千音寺五丁目104番地", "url": "https://www.kaigokensaku.mhlw.go.jp/23/index.php?action_kouhyou_detail_004_kani=true&JigyosyoCd=2391000037-00&ServiceCd=720&Type=search", "url2": "http://www.nishiguchi-hp.jp/" }, "geometry": { "type": "Point", "coordinates": [ 136.81345876448745, 35.15748613026431 ] } },
{ "type": "Feature", "properties": { "内容": "癒しデイサービス　和愛【認知症対応型通所介護】愛知県名古屋市中川区大当郎三丁目２０１２番地の２", "url": "https://www.kaigokensaku.mhlw.go.jp/23/index.php?action_kouhyou_detail_004_kani=true&JigyosyoCd=2391000581-00&ServiceCd=720&Type=search", "url2": "https://tazoe-g.com/" }, "geometry": { "type": "Point", "coordinates": [ 136.832688599999983, 35.131046700000034 ] } },
{ "type": "Feature", "properties": { "内容": "デイサービスグリーンハウス【認知症対応型通所介護】名古屋市中川区前田西町二丁目912番地グループホーム　グリーンハウス内", "url": "https://www.kaigokensaku.mhlw.go.jp/23/index.php?action_kouhyou_detail_004_kani=true&JigyosyoCd=2391000169-00&ServiceCd=720&Type=search", "url2": "www.yamaichi-family.co.jp" }, "geometry": { "type": "Point", "coordinates": [ 136.830491, 35.1371448 ] } },
{ "type": "Feature", "properties": { "内容": "ささゆりデイサービス中川【認知症対応型通所介護】愛知県名古屋市中川区二女子町6丁目3番地FCCビル1F", "url": "https://www.kaigokensaku.mhlw.go.jp/23/index.php?action_kouhyou_detail_004_kani=true&JigyosyoCd=2391000599-00&ServiceCd=720&Type=search", "url2": "https://sasayuri.jp/" }, "geometry": { "type": "Point", "coordinates": [ 136.8810751, 35.143021 ] } },
{ "type": "Feature", "properties": { "内容": "グループホーム　フレンズハウス七反野【認知症対応型通所介護】名古屋市港区七反野一丁目９０４番地", "url": "https://www.kaigokensaku.mhlw.go.jp/23/index.php?action_kouhyou_detail_004_kani=true&JigyosyoCd=2371100948-00&ServiceCd=720&Type=search", "url2": "http://www15.plala.or.jp/furenzu-hao/" }, "geometry": { "type": "Point", "coordinates": [ 136.820534322090111, 35.114098494903949 ] } },
{ "type": "Feature", "properties": { "内容": "ささゆりデイサービス港【認知症対応型通所介護】名古屋市港区港明一丁目１番２号港明ビル２A", "url": "https://www.kaigokensaku.mhlw.go.jp/23/index.php?action_kouhyou_detail_004_kani=true&JigyosyoCd=2391100068-00&ServiceCd=720&Type=search", "url2": "https://sasayuri.jp/" }, "geometry": { "type": "Point", "coordinates": [ 136.892549499999973, 35.1105007 ] } },
{ "type": "Feature", "properties": { "内容": "認知症対応型デイサービスセンター　寿楽の家【認知症対応型通所介護】愛知県名古屋市港区寛政町6丁目10番地特別養護老人ホーム　港寿楽苑4階", "url": "https://www.kaigokensaku.mhlw.go.jp/23/index.php?action_kouhyou_detail_004_kani=true&JigyosyoCd=2391100191-00&ServiceCd=720&Type=search", "url2": "http://www.shoumei.or.jp" }, "geometry": { "type": "Point", "coordinates": [ 136.8595338, 35.106388400000014 ] } },
{ "type": "Feature", "properties": { "内容": "デイサービスセンター　ほっとひと生き【認知症対応型通所介護】名古屋市港区小碓一丁目232番地", "url": "https://www.kaigokensaku.mhlw.go.jp/23/index.php?action_kouhyou_detail_004_kani=true&JigyosyoCd=2391100027-00&ServiceCd=720&Type=search", "url2": "http://care-net.biz/23/hotutohitoiki/company.php" }, "geometry": { "type": "Point", "coordinates": [ 136.854130899999973, 35.1192252 ] } },
{ "type": "Feature", "properties": { "内容": "グループホームなも【認知症対応型通所介護】愛知県名古屋市南区鳴尾1-284", "url": "https://www.kaigokensaku.mhlw.go.jp/23/index.php?action_kouhyou_detail_004_kani=true&JigyosyoCd=2391200314-00&ServiceCd=720&Type=search", "url2": "http://www.minami.or.jp" }, "geometry": { "type": "Point", "coordinates": [ 136.935878099999968, 35.0767515 ] } },
{ "type": "Feature", "properties": { "内容": "ささゆりデイサービス南【認知症対応型通所介護】名古屋市南区北頭町一丁目１４番地北頭ビル１F", "url": "https://www.kaigokensaku.mhlw.go.jp/23/index.php?action_kouhyou_detail_004_kani=true&JigyosyoCd=2391200108-00&ServiceCd=720&Type=search", "url2": "https://sasayuri.jp/" }, "geometry": { "type": "Point", "coordinates": [ 136.915746799999965, 35.089808 ] } },
{ "type": "Feature", "properties": { "内容": "ささゆりデイサービス豊【認知症対応型通所介護】愛知県名古屋市南区豊三丁目１９番７号", "url": "https://www.kaigokensaku.mhlw.go.jp/23/index.php?action_kouhyou_detail_004_kani=true&JigyosyoCd=2391200405-00&ServiceCd=720&Type=search", "url2": "https://sasayuri.jp/" }, "geometry": { "type": "Point", "coordinates": [ 136.915763100000049, 35.1107918 ] } },
{ "type": "Feature", "properties": { "内容": "ささゆりデイサービス呼続【認知症対応型通所介護】名古屋市南区呼続三丁目21番20号", "url": "https://www.kaigokensaku.mhlw.go.jp/23/index.php?action_kouhyou_detail_004_kani=true&JigyosyoCd=2391200173-00&ServiceCd=720&Type=search", "url2": "https://sasayuri.jp/" }, "geometry": { "type": "Point", "coordinates": [ 136.931558900000027, 35.1083065 ] } },
{ "type": "Feature", "properties": { "内容": "デイサービスセンターはくすいリンク【認知症対応型通所介護】愛知県名古屋市南区柴田町４丁目８番地白水センタービル一階", "url": "https://www.kaigokensaku.mhlw.go.jp/23/index.php?action_kouhyou_detail_004_kani=true&JigyosyoCd=2391200140-00&ServiceCd=720&Type=search", "url2": "http://www.ccs-tami.co.jp" }, "geometry": { "type": "Point", "coordinates": [ 136.909700599999951, 35.0733545 ] } },
{ "type": "Feature", "properties": { "内容": "南生苑デイサービスセンター【認知症対応型通所介護】愛知県名古屋市南区西又兵ヱ町4丁目8番2", "url": "https://www.kaigokensaku.mhlw.go.jp/23/index.php?action_kouhyou_detail_004_kani=true&JigyosyoCd=2391200322-00&ServiceCd=720&Type=search", "url2": "http://ryokusei-fukushi.jp" }, "geometry": { "type": "Point", "coordinates": [ 136.915049700000054, 35.0928299 ] } },
{ "type": "Feature", "properties": { "内容": "デイサービスらしく元鳴尾【認知症対応型通所介護】愛知県名古屋市南区元鳴尾町415-1", "url": "https://www.kaigokensaku.mhlw.go.jp/23/index.php?action_kouhyou_detail_004_kani=true&JigyosyoCd=2391200462-00&ServiceCd=720&Type=search", "url2": "ra-shi-ku.com" }, "geometry": { "type": "Point", "coordinates": [ 136.940210650045771, 35.079378532301206 ] } },
{ "type": "Feature", "properties": { "内容": "守山ケアハートガーデン　グループホーム　つづみの丘【認知症対応型通所介護】愛知県名古屋市守山区百合が丘３００５番地", "url": "https://www.kaigokensaku.mhlw.go.jp/23/index.php?action_kouhyou_detail_004_kani=true&JigyosyoCd=2391300189-00&ServiceCd=720&Type=search", "url2": "http://www.mdlife.co.jp" }, "geometry": { "type": "Point", "coordinates": [ 137.011814800000025, 35.2294571 ] } },
{ "type": "Feature", "properties": { "内容": "ニチイケアセンター守山【認知症対応型通所介護】名古屋市守山区森孝三丁目1010-1", "url": "https://www.kaigokensaku.mhlw.go.jp/23/index.php?action_kouhyou_detail_004_kani=true&JigyosyoCd=2391300171-00&ServiceCd=720&Type=search", "url2": "hstt20@nichiigakkan.co.jp" }, "geometry": { "type": "Point", "coordinates": [ 137.009790800000019, 35.1934149 ] } },
{ "type": "Feature", "properties": { "内容": "おばた中デイサービス【認知症対応型通所介護】名古屋市守山区小幡中三丁目１３番３３号", "url": "https://www.kaigokensaku.mhlw.go.jp/23/index.php?action_kouhyou_detail_004_kani=true&JigyosyoCd=2391300098-00&ServiceCd=720&Type=search", "url2": "izumokikaku.com" }, "geometry": { "type": "Point", "coordinates": [ 136.971891699999986, 35.2060538 ] } },
{ "type": "Feature", "properties": { "内容": "おばた太田デイサービス【認知症対応型通所介護】愛知県名古屋市守山区小幡太田11-25", "url": "https://www.kaigokensaku.mhlw.go.jp/23/index.php?action_kouhyou_detail_004_kani=true&JigyosyoCd=2391300163-00&ServiceCd=720&Type=search", "url2": "http://izumokikaku.com" }, "geometry": { "type": "Point", "coordinates": [ 136.976177900000039, 35.1945694 ] } },
{ "type": "Feature", "properties": { "内容": "サポートハウスおおばり【認知症対応型通所介護】大針1丁目338番地", "url": "https://www.kaigokensaku.mhlw.go.jp/23/index.php?action_kouhyou_detail_004_kani=true&JigyosyoCd=2391500515-00&ServiceCd=720&Type=search", "url2": "URL：//ｗｗｗ.supporthouse-kaigo.com" }, "geometry": { "type": "Point", "coordinates": [ 137.0196046, 35.1531531 ] } },
{ "type": "Feature", "properties": { "内容": "サポートハウス　ごくらく【認知症対応型通所介護】名古屋市名東区極楽2丁目232番地", "url": "https://www.kaigokensaku.mhlw.go.jp/23/index.php?action_kouhyou_detail_004_kani=true&JigyosyoCd=2391500028-00&ServiceCd=720&Type=search", "url2": "URL://www.supporthouse-kaigo.com" }, "geometry": { "type": "Point", "coordinates": [ 137.0229991, 35.1584976 ] } },
{ "type": "Feature", "properties": { "内容": "認知症対応型デイサービスやすらぎの里梅森坂【認知症対応型通所介護】梅森坂1-3309", "url": "https://www.kaigokensaku.mhlw.go.jp/23/index.php?action_kouhyou_detail_004_kani=true&JigyosyoCd=2391500507-00&ServiceCd=720&Type=search", "url2": null }, "geometry": { "type": "Point", "coordinates": [ 137.0158945, 35.1459337 ] } },
{ "type": "Feature", "properties": { "内容": "ファミリーハウス「とんと」原【認知症対応型通所介護】名古屋市天白区原1丁目1906番地", "url": "https://www.kaigokensaku.mhlw.go.jp/23/index.php?action_kouhyou_detail_004_kani=true&JigyosyoCd=2391600208-00&ServiceCd=720&Type=search", "url2": "http://www.mohs.co.jp" }, "geometry": { "type": "Point", "coordinates": [ 136.997019662951629, 35.125106422541606 ] } },
{ "type": "Feature", "properties": { "内容": "そだてる　デイサービス【認知症対応型通所介護】向が丘4丁目1001番地", "url": "https://www.kaigokensaku.mhlw.go.jp/23/index.php?action_kouhyou_detail_004_kani=true&JigyosyoCd=2391600463-00&ServiceCd=720&Type=search", "url2": "http://hohoemi33.co.jp/" }, "geometry": { "type": "Point", "coordinates": [ 137.0087188, 35.1122003 ] } },
{ "type": "Feature", "properties": { "内容": "デイサービスらしく天白【認知症対応型通所介護】島田4丁目2204番地", "url": "https://www.kaigokensaku.mhlw.go.jp/23/index.php?action_kouhyou_detail_004_kani=true&JigyosyoCd=2391600356-00&ServiceCd=720&Type=search", "url2": "ra-shi-ku.com" }, "geometry": { "type": "Point", "coordinates": [ 136.977449532306423, 35.119061476184484 ] } },
{ "type": "Feature", "properties": { "内容": "認知症対応型デイサービスセンター　カサデヴェルデ【認知症対応型通所介護】杉山町字泉原139-1", "url": "https://www.kaigokensaku.mhlw.go.jp/23/index.php?action_kouhyou_detail_004_kani=true&JigyosyoCd=2392000200-00&ServiceCd=720&Type=search", "url2": "www.sawarabi.or.jo" }, "geometry": { "type": "Point", "coordinates": [ 137.323007, 34.6703658 ] } },
{ "type": "Feature", "properties": { "内容": "共用型認知症デイサービス真寿苑【認知症対応型通所介護】愛知県豊橋市牟呂町字東明治郷下1", "url": "https://www.kaigokensaku.mhlw.go.jp/23/index.php?action_kouhyou_detail_004_kani=true&JigyosyoCd=2392000366-00&ServiceCd=720&Type=search", "url2": "http://juhoukai.jp" }, "geometry": { "type": "Point", "coordinates": [ 137.351855900000032, 34.753589 ] } },
{ "type": "Feature", "properties": { "内容": "デイサービスセンター　すこやかの里【認知症対応型通所介護】愛知県豊橋市飯村町字高山118番地", "url": "https://www.kaigokensaku.mhlw.go.jp/23/index.php?action_kouhyou_detail_004_kani=true&JigyosyoCd=2372000360-00&ServiceCd=720&Type=search", "url2": "http://www.sukoyakakai.com/" }, "geometry": { "type": "Point", "coordinates": [ 137.431902300000047, 34.7418845 ] } },
{ "type": "Feature", "properties": { "内容": "気の里デイサービス　クラ・ヴィブ【認知症対応型通所介護】豊橋市雲谷町字上ノ山１１７番地の１", "url": "https://www.kaigokensaku.mhlw.go.jp/23/index.php?action_kouhyou_detail_004_kani=true&JigyosyoCd=2392000069-00&ServiceCd=720&Type=search", "url2": "http://www.kinosato-nh.com/" }, "geometry": { "type": "Point", "coordinates": [ 137.456817099999967, 34.7341723 ] } },
{ "type": "Feature", "properties": { "内容": "小さな家　東【認知症対応型通所介護】愛知県豊橋市東幸町字長山６６－２", "url": "https://www.kaigokensaku.mhlw.go.jp/23/index.php?action_kouhyou_detail_004_kani=true&JigyosyoCd=2372002374-00&ServiceCd=720&Type=search", "url2": "http://care-net.biz/23/chiisanaie/company.php" }, "geometry": { "type": "Point", "coordinates": [ 137.4128015, 34.7364235 ] } },
{ "type": "Feature", "properties": { "内容": "デイサービスセンター彩幸【認知症対応型通所介護】愛知県豊橋市西赤沢町字深山95番地", "url": "https://www.kaigokensaku.mhlw.go.jp/23/index.php?action_kouhyou_detail_004_kani=true&JigyosyoCd=2372000527-00&ServiceCd=720&Type=search", "url2": "https://saikou.or.jp" }, "geometry": { "type": "Point", "coordinates": [ 137.362164099999973, 34.677804 ] } },
{ "type": "Feature", "properties": { "内容": "コープあいちデイサービス豊橋西【認知症対応型通所介護】愛知県豊橋市牟呂町字松崎15番地", "url": "https://www.kaigokensaku.mhlw.go.jp/23/index.php?action_kouhyou_detail_004_kani=true&JigyosyoCd=2372002176-00&ServiceCd=720&Type=search", "url2": "http://coopaichi.tcoop.or.jp/" }, "geometry": { "type": "Point", "coordinates": [ 137.373283554593968, 34.751448573193841 ] } },
{ "type": "Feature", "properties": { "内容": "グル\\プホーム　ジョイア・ミユキ【認知症対応型通所介護】東幸町字長山８番地の１", "url": "https://www.kaigokensaku.mhlw.go.jp/23/index.php?action_kouhyou_detail_004_kani=true&JigyosyoCd=2392000267-00&ServiceCd=720&Type=search", "url2": "http://miyu432.sakura.ne.jp/" }, "geometry": { "type": "Point", "coordinates": [ 137.41701230000001, 34.7321908 ] } },
{ "type": "Feature", "properties": { "内容": "認知症対応型デイサービスセンター常盤【認知症対応型通所介護】愛知県豊橋市宮下町1番地の1", "url": "https://www.kaigokensaku.mhlw.go.jp/23/index.php?action_kouhyou_detail_004_kani=true&JigyosyoCd=2392000093-00&ServiceCd=720&Type=search", "url2": "www.sawarabi.or.jp" }, "geometry": { "type": "Point", "coordinates": [ 137.415544299999965, 34.7617733 ] } },
{ "type": "Feature", "properties": { "内容": "グループホームたけのこ【認知症対応型通所介護】愛知県豊橋市駒形町字退松85番地", "url": "https://www.kaigokensaku.mhlw.go.jp/23/index.php?action_kouhyou_detail_004_kani=true&JigyosyoCd=2392000036-00&ServiceCd=720&Type=search", "url2": null }, "geometry": { "type": "Point", "coordinates": [ 137.365264499999967, 34.7244346 ] } },
{ "type": "Feature", "properties": { "内容": "認知症対応型デイサービスセンター楽楽苑【認知症対応型通所介護】岡崎市真伝二丁目１番地４", "url": "https://www.kaigokensaku.mhlw.go.jp/23/index.php?action_kouhyou_detail_004_kani=true&JigyosyoCd=2392100174-00&ServiceCd=720&Type=search", "url2": "http://" }, "geometry": { "type": "Point", "coordinates": [ 137.183494699999983, 34.9791266 ] } },
{ "type": "Feature", "properties": { "内容": "共用型デイサービス燦むつみ【認知症対応型通所介護】愛知県岡崎市字寺前19-1グループホーム燦むつみ", "url": "https://www.kaigokensaku.mhlw.go.jp/23/index.php?action_kouhyou_detail_004_kani=true&JigyosyoCd=2392100414-00&ServiceCd=720&Type=search", "url2": "http://www.sun-care.net" }, "geometry": { "type": "Point", "coordinates": [ 137.134672799999976, 34.928491 ] } },
{ "type": "Feature", "properties": { "内容": "グループホームこころ岡崎【認知症対応型通所介護】愛知県岡崎市大平町西田潰１－１", "url": "https://www.kaigokensaku.mhlw.go.jp/23/index.php?action_kouhyou_detail_004_kani=true&JigyosyoCd=2392100794-00&ServiceCd=720&Type=search", "url2": null }, "geometry": { "type": "Point", "coordinates": [ 137.199082437434413, 34.941367602144574 ] } },
{ "type": "Feature", "properties": { "内容": "共用型デイサービスむらさき麦の郷【認知症対応型通所介護】藤川町字岩田29番地１グループホームむらさき麦の郷", "url": "https://www.kaigokensaku.mhlw.go.jp/23/index.php?action_kouhyou_detail_004_kani=true&JigyosyoCd=2392100265-00&ServiceCd=720&Type=search", "url2": "http://www.hagurikai.com" }, "geometry": { "type": "Point", "coordinates": [ 137.217545299999983, 34.910532 ] } },
{ "type": "Feature", "properties": { "内容": "認知症対応型ﾃﾞｲｻｰﾋﾞｽ　はなれ縁【認知症対応型通所介護】愛知県岡崎市稲熊町字5丁目107番地2ﾉｰｽｸﾞﾘｰﾝﾋﾞﾙ１F", "url": "https://www.kaigokensaku.mhlw.go.jp/23/index.php?action_kouhyou_detail_004_kani=true&JigyosyoCd=2392100356-00&ServiceCd=720&Type=search", "url2": null }, "geometry": { "type": "Point", "coordinates": [ 137.175100557008307, 34.964425601908374 ] } },
{ "type": "Feature", "properties": { "内容": "有限会社デイサービス青空【認知症対応型通所介護】愛知県岡崎市日名中町18番地1", "url": "https://www.kaigokensaku.mhlw.go.jp/23/index.php?action_kouhyou_detail_004_kani=true&JigyosyoCd=2372101630-00&ServiceCd=720&Type=search", "url2": "http://www.aozora-day.com" }, "geometry": { "type": "Point", "coordinates": [ 137.153614, 34.9718875 ] } },
{ "type": "Feature", "properties": { "内容": "デイサービスあおぞら・保母【認知症対応型通所介護】愛知県岡崎市保母町三反田5番地6", "url": "https://www.kaigokensaku.mhlw.go.jp/23/index.php?action_kouhyou_detail_004_kani=true&JigyosyoCd=2392100091-00&ServiceCd=720&Type=search", "url2": "http://www.aozora-day.com" }, "geometry": { "type": "Point", "coordinates": [ 137.219744399999968, 34.9305581 ] } },
{ "type": "Feature", "properties": { "内容": "デイサービスセンター燦あずき坂【認知症対応型通所介護】羽根町小豆坂８７番地", "url": "https://www.kaigokensaku.mhlw.go.jp/23/index.php?action_kouhyou_detail_004_kani=true&JigyosyoCd=2392100216-00&ServiceCd=720&Type=search", "url2": "http://sun-care.net/" }, "geometry": { "type": "Point", "coordinates": [ 137.1762496, 34.9243703 ] } },
{ "type": "Feature", "properties": { "内容": "デイサービスセンター燦うめぞの【認知症対応型通所介護】愛知県岡崎市六供町字2丁目3-2デイサービスセンター燦うめぞの", "url": "https://www.kaigokensaku.mhlw.go.jp/23/index.php?action_kouhyou_detail_004_kani=true&JigyosyoCd=2392100331-00&ServiceCd=720&Type=search", "url2": "http://sun-care.net/" }, "geometry": { "type": "Point", "coordinates": [ 137.170893100000058, 34.9665774 ] } },
{ "type": "Feature", "properties": { "内容": "高年者センター岡崎　デイサービスほのぼの【認知症対応型通所介護】愛知県岡崎市美合町字下長根２番地１", "url": "https://www.kaigokensaku.mhlw.go.jp/23/index.php?action_kouhyou_detail_004_kani=true&JigyosyoCd=2392100018-00&ServiceCd=720&Type=search", "url2": "https://www.okazaki-fukushi.or.jp/" }, "geometry": { "type": "Point", "coordinates": [ 137.184243299999906, 34.9214874 ] } },
{ "type": "Feature", "properties": { "内容": "岡崎市中央地域福祉センター　デイサービスほのぼの【認知症対応型通所介護】愛知県岡崎市梅園町字寺裏５番地１", "url": "https://www.kaigokensaku.mhlw.go.jp/23/index.php?action_kouhyou_detail_004_kani=true&JigyosyoCd=2392100406-00&ServiceCd=720&Type=search", "url2": "https://www.okazaki-fukushi.or.jp" }, "geometry": { "type": "Point", "coordinates": [ 137.1697517, 34.9605807 ] } },
{ "type": "Feature", "properties": { "内容": "岡崎市北部地域福祉センター　デイサービスほのぼの【認知症対応型通所介護】愛知県岡崎市岩津町字西坂54番地1", "url": "https://www.kaigokensaku.mhlw.go.jp/23/index.php?action_kouhyou_detail_004_kani=true&JigyosyoCd=2392100075-00&ServiceCd=720&Type=search", "url2": "https://www.okazaki-fukushi.or.jp/" }, "geometry": { "type": "Point", "coordinates": [ 137.1745178, 35.0067734 ] } },
{ "type": "Feature", "properties": { "内容": "ディサービス　チアフル浅井【認知症対応型通所介護】浅井町尾関字西五輪26番地", "url": "https://www.kaigokensaku.mhlw.go.jp/23/index.php?action_kouhyou_detail_004_kani=true&JigyosyoCd=2392200347-00&ServiceCd=720&Type=search", "url2": null }, "geometry": { "type": "Point", "coordinates": [ 136.8203608, 35.3471782 ] } },
{ "type": "Feature", "properties": { "内容": "デイホームみんなの家ふくじゅ【認知症対応型通所介護】一宮市末広２丁目２８番２５号", "url": "https://www.kaigokensaku.mhlw.go.jp/23/index.php?action_kouhyou_detail_004_kani=true&JigyosyoCd=2392200164-00&ServiceCd=720&Type=search", "url2": "http://www.kotobukifukushikai.or.jp" }, "geometry": { "type": "Point", "coordinates": [ 136.788542900000039, 35.2940184 ] } },
{ "type": "Feature", "properties": { "内容": "たんぽぽデイサービス新かんべ【認知症対応型通所介護】愛知県一宮市今伊勢町新神戸字九反野18-1", "url": "https://www.kaigokensaku.mhlw.go.jp/23/index.php?action_kouhyou_detail_004_kani=true&JigyosyoCd=2392200362-00&ServiceCd=720&Type=search", "url2": "http://www.tanpopo-kaigo.co.jp" }, "geometry": { "type": "Point", "coordinates": [ 136.791388886369333, 35.318890368234982 ] } },
{ "type": "Feature", "properties": { "内容": "団欒の家ゆきおろし【認知症対応型通所介護】愛知県一宮市柚木颪字郷中４９１番地", "url": "https://www.kaigokensaku.mhlw.go.jp/23/index.php?action_kouhyou_detail_004_kani=true&JigyosyoCd=2392200198-00&ServiceCd=720&Type=search", "url2": "http://www.aireikai.jp/" }, "geometry": { "type": "Point", "coordinates": [ 136.8297129, 35.3189005 ] } },
{ "type": "Feature", "properties": { "内容": "団欒の家はぎわら【認知症対応型通所介護】愛知県一宮市萩原町萩原字河原崎１４９５", "url": "https://www.kaigokensaku.mhlw.go.jp/23/index.php?action_kouhyou_detail_004_kani=true&JigyosyoCd=2392200263-00&ServiceCd=720&Type=search", "url2": "http://www.aireikai.jp" }, "geometry": { "type": "Point", "coordinates": [ 136.7561581, 35.2794202 ] } },
{ "type": "Feature", "properties": { "内容": "団欒の家あさのながしま【認知症対応型通所介護】愛知県一宮市浅野字長島２７番１", "url": "https://www.kaigokensaku.mhlw.go.jp/23/index.php?action_kouhyou_detail_004_kani=true&JigyosyoCd=2392200305-00&ServiceCd=720&Type=search", "url2": "http://www.aireikai.jp" }, "geometry": { "type": "Point", "coordinates": [ 136.827341299999944, 35.2982885 ] } },
{ "type": "Feature", "properties": { "内容": "団欒の家　さとこまき【認知症対応型通所介護】愛知県一宮市木曽川町里小牧字天神東３９番地", "url": "https://www.kaigokensaku.mhlw.go.jp/23/index.php?action_kouhyou_detail_004_kani=true&JigyosyoCd=2392200412-00&ServiceCd=720&Type=search", "url2": "http://www.aireikai.jp" }, "geometry": { "type": "Point", "coordinates": [ 136.766309377909892, 35.353799572168455 ] } },
{ "type": "Feature", "properties": { "内容": "団欒の家おおえほんまち【認知症対応型通所介護】愛知県一宮市大江三丁目1番20号", "url": "https://www.kaigokensaku.mhlw.go.jp/23/index.php?action_kouhyou_detail_004_kani=true&JigyosyoCd=2392200495-00&ServiceCd=720&Type=search", "url2": "https://www.aireikai.jp/" }, "geometry": { "type": "Point", "coordinates": [ 136.8032048, 35.3027539 ] } },
{ "type": "Feature", "properties": { "内容": "認知症対応型通所介護　ヨリドコロ。【認知症対応型通所介護】愛知県一宮市奥町字田畑２８番地１", "url": "https://www.kaigokensaku.mhlw.go.jp/23/index.php?action_kouhyou_detail_004_kani=true&JigyosyoCd=2392200784-00&ServiceCd=720&Type=search", "url2": null }, "geometry": { "type": "Point", "coordinates": [ 136.7722842, 35.3245639 ] } },
{ "type": "Feature", "properties": { "内容": "ニッケれんげの家・今伊勢【認知症対応型通所介護】愛知県一宮市今伊勢町本神戸字前畑1", "url": "https://www.kaigokensaku.mhlw.go.jp/23/index.php?action_kouhyou_detail_004_kani=true&JigyosyoCd=2392200271-00&ServiceCd=720&Type=search", "url2": "http://nikkecare.com" }, "geometry": { "type": "Point", "coordinates": [ 136.794469460049385, 35.315060536022621 ] } },
{ "type": "Feature", "properties": { "内容": "老人デイサービスセンター　ふたばデイサービスセンター【認知症対応型通所介護】愛知県瀬戸市西山町１丁目４６番地の１８", "url": "https://www.kaigokensaku.mhlw.go.jp/23/index.php?action_kouhyou_detail_004_kani=true&JigyosyoCd=2372300133-00&ServiceCd=720&Type=search", "url2": "http://www.willowfutaba.jp" }, "geometry": { "type": "Point", "coordinates": [ 137.058176900000035, 35.2209825 ] } },
{ "type": "Feature", "properties": { "内容": "デイサービス　まめ【認知症対応型通所介護】愛知県瀬戸市東山町1丁目90番地の５", "url": "https://www.kaigokensaku.mhlw.go.jp/23/index.php?action_kouhyou_detail_004_kani=true&JigyosyoCd=2392300170-00&ServiceCd=720&Type=search", "url2": "http://nporunrun.com/hp/" }, "geometry": { "type": "Point", "coordinates": [ 137.064795600000025, 35.227768 ] } },
{ "type": "Feature", "properties": { "内容": "共想いの家　あかり【認知症対応型通所介護】瀬戸市宝ヶ丘町310番地の1", "url": "https://www.kaigokensaku.mhlw.go.jp/23/index.php?action_kouhyou_detail_004_kani=true&JigyosyoCd=2392300113-00&ServiceCd=720&Type=search", "url2": null }, "geometry": { "type": "Point", "coordinates": [ 137.102253099999984, 35.2069466 ] } },
{ "type": "Feature", "properties": { "内容": "デイサービスセンター　六じょう家【認知症対応型通所介護】西茨町28番地", "url": "https://www.kaigokensaku.mhlw.go.jp/23/index.php?action_kouhyou_detail_004_kani=true&JigyosyoCd=2392300147-00&ServiceCd=720&Type=search", "url2": "http://rokujoya.com" }, "geometry": { "type": "Point", "coordinates": [ 137.0980588, 35.222536300000016 ] } },
{ "type": "Feature", "properties": { "内容": "デイサービスセンター　ゆうハウス【認知症対応型通所介護】愛知県半田市横川町２丁目６９番地", "url": "https://www.kaigokensaku.mhlw.go.jp/23/index.php?action_kouhyou_detail_004_kani=true&JigyosyoCd=2392400137-00&ServiceCd=720&Type=search", "url2": null }, "geometry": { "type": "Point", "coordinates": [ 136.944408899999985, 34.9261291 ] } },
{ "type": "Feature", "properties": { "内容": "ディサービスセンター乙川【認知症対応型通所介護】愛知県半田市飯森町５３－１", "url": "https://www.kaigokensaku.mhlw.go.jp/23/index.php?action_kouhyou_detail_004_kani=true&JigyosyoCd=2392400269-00&ServiceCd=720&Type=search", "url2": "http://i-koyu-kaigo.com/facilities/gh-otogawa.html" }, "geometry": { "type": "Point", "coordinates": [ 136.947420299999976, 34.9144746 ] } },
{ "type": "Feature", "properties": { "内容": "デイサービスセンター有脇【認知症対応型通所介護】愛知県半田市稲穂町1-142-1", "url": "https://www.kaigokensaku.mhlw.go.jp/23/index.php?action_kouhyou_detail_004_kani=true&JigyosyoCd=2392400210-00&ServiceCd=720&Type=search", "url2": "http://i-koyu-kaigo.com/facilities/takino-ariwaki.html" }, "geometry": { "type": "Point", "coordinates": [ 136.958335843516579, 34.932931246133691 ] } },
{ "type": "Feature", "properties": { "内容": "デイサービス　のんびり【認知症対応型通所介護】半田市岩滑中町４丁目１８０番地", "url": "https://www.kaigokensaku.mhlw.go.jp/23/index.php?action_kouhyou_detail_004_kani=true&JigyosyoCd=2392400285-00&ServiceCd=720&Type=search", "url2": "http://www.medi-life.jp/" }, "geometry": { "type": "Point", "coordinates": [ 136.9224625, 34.9050264 ] } },
{ "type": "Feature", "properties": { "内容": "板山デイサービスセンター【認知症対応型通所介護】愛知県半田市神田町2丁目30番地の２", "url": "https://www.kaigokensaku.mhlw.go.jp/23/index.php?action_kouhyou_detail_004_kani=true&JigyosyoCd=2392400145-00&ServiceCd=720&Type=search", "url2": "www.chita-gakuen.or.jp/murasakinoen/" }, "geometry": { "type": "Point", "coordinates": [ 136.896840699999984, 34.8844034 ] } },
{ "type": "Feature", "properties": { "内容": "デイサービスいきいきホーム【認知症対応型通所介護】愛知県半田市宮本町一丁目５６番地の１", "url": "https://www.kaigokensaku.mhlw.go.jp/23/index.php?action_kouhyou_detail_004_kani=true&JigyosyoCd=2392400053-00&ServiceCd=720&Type=search", "url2": "http://betaniahome.themedia.jp/" }, "geometry": { "type": "Point", "coordinates": [ 136.914507636801744, 34.885450022891312 ] } },
{ "type": "Feature", "properties": { "内容": "グループホーム春緑苑【認知症対応型通所介護】愛知県春日井市廻間町字神屋洞703番地1", "url": "https://www.kaigokensaku.mhlw.go.jp/23/index.php?action_kouhyou_detail_004_kani=true&JigyosyoCd=2372500484-00&ServiceCd=720&Type=search", "url2": "https://douen.or.jp" }, "geometry": { "type": "Point", "coordinates": [ 137.033648, 35.295148 ] } },
{ "type": "Feature", "properties": { "内容": "しのぎ町デイサービス【認知症対応型通所介護】愛知県春日井市篠木町七丁目４番３号", "url": "https://www.kaigokensaku.mhlw.go.jp/23/index.php?action_kouhyou_detail_004_kani=true&JigyosyoCd=2392500258-00&ServiceCd=720&Type=search", "url2": null }, "geometry": { "type": "Point", "coordinates": [ 136.995729399999959, 35.2579219 ] } },
{ "type": "Feature", "properties": { "内容": "デイサービスセンター　あさひが丘【認知症対応型通所介護】愛知県春日井市神屋町1306番地1特別養護老人ホームあさひが丘１階", "url": "https://www.kaigokensaku.mhlw.go.jp/23/index.php?action_kouhyou_detail_004_kani=true&JigyosyoCd=2372502027-00&ServiceCd=720&Type=search", "url2": "http://www.asahigaoka-fukushi.or.jp/index.html" }, "geometry": { "type": "Point", "coordinates": [ 137.019102500000031, 35.3034288 ] } },
{ "type": "Feature", "properties": { "内容": "第２春緑苑デイサービスセンター【認知症対応型通所介護】愛知県春日井市下津町500番地", "url": "https://www.kaigokensaku.mhlw.go.jp/23/index.php?action_kouhyou_detail_004_kani=true&JigyosyoCd=2392500019-00&ServiceCd=720&Type=search", "url2": "https://douen.or.jp" }, "geometry": { "type": "Point", "coordinates": [ 136.978815599999962, 35.2272618 ] } },
{ "type": "Feature", "properties": { "内容": "内津の森デイサービスセンター【認知症対応型通所介護】愛知県春日井市内津町493番地", "url": "https://www.kaigokensaku.mhlw.go.jp/23/index.php?action_kouhyou_detail_004_kani=true&JigyosyoCd=2392500951-00&ServiceCd=720&Type=search", "url2": "www.utsutsunomori.jp" }, "geometry": { "type": "Point", "coordinates": [ 137.0718192, 35.326007 ] } },
{ "type": "Feature", "properties": { "内容": "春緑苑デイサービスセンター【認知症対応型通所介護】愛知県春日井市廻間町字神屋洞703番地1", "url": "https://www.kaigokensaku.mhlw.go.jp/23/index.php?action_kouhyou_detail_004_kani=true&JigyosyoCd=2372500468-00&ServiceCd=720&Type=search", "url2": "https://douen.or.jp" }, "geometry": { "type": "Point", "coordinates": [ 137.033705139565143, 35.295209326249086 ] } },
{ "type": "Feature", "properties": { "内容": "グループホームこころ春日井【認知症対応型通所介護】愛知県春日井市下市場町4-13-8", "url": "https://www.kaigokensaku.mhlw.go.jp/23/index.php?action_kouhyou_detail_004_kani=true&JigyosyoCd=2392500266-00&ServiceCd=720&Type=search", "url2": "http://www.a-lifesupport.co.jp" }, "geometry": { "type": "Point", "coordinates": [ 137.0022845, 35.2604686 ] } },
{ "type": "Feature", "properties": { "内容": "柿の木デイプラス【認知症対応型通所介護】愛知県春日井市大泉寺町字大池下140番地3", "url": "https://www.kaigokensaku.mhlw.go.jp/23/index.php?action_kouhyou_detail_004_kani=true&JigyosyoCd=2392500845-00&ServiceCd=720&Type=search", "url2": "http://www.kakino-ki.com" }, "geometry": { "type": "Point", "coordinates": [ 137.005067574274449, 35.268800417405835 ] } },
{ "type": "Feature", "properties": { "内容": "デイサービスさながわ【認知症対応型通所介護】豊川市金屋元町二丁目50番地3", "url": "https://www.kaigokensaku.mhlw.go.jp/23/index.php?action_kouhyou_detail_004_kani=true&JigyosyoCd=2372600565-00&ServiceCd=720&Type=search", "url2": "www.sanagawa１.com" }, "geometry": { "type": "Point", "coordinates": [ 137.3831361, 34.8262982 ] } },
{ "type": "Feature", "properties": { "内容": "デイサービスセンター一晃【認知症対応型通所介護】愛知県豊川市御津町赤根山田12番地", "url": "https://www.kaigokensaku.mhlw.go.jp/23/index.php?action_kouhyou_detail_004_kani=true&JigyosyoCd=2392600306-00&ServiceCd=720&Type=search", "url2": "http://juhoukai.jp" }, "geometry": { "type": "Point", "coordinates": [ 137.302662700000042, 34.8203106 ] } },
{ "type": "Feature", "properties": { "内容": "グループホーム虹の家【認知症対応型通所介護】愛知県豊川市牛久保町天王下6番地の1", "url": "https://www.kaigokensaku.mhlw.go.jp/23/index.php?action_kouhyou_detail_004_kani=true&JigyosyoCd=2392600033-00&ServiceCd=720&Type=search", "url2": null }, "geometry": { "type": "Point", "coordinates": [ 137.389936700000021, 34.8133438 ] } },
{ "type": "Feature", "properties": { "内容": "ｸﾞﾙｰﾌﾟﾎｰﾑみそのﾃﾞｲｻｰﾋﾞｽ【認知症対応型通所介護】愛知県豊川市金沢町弁天下40-2ｸﾞﾙｰﾌﾟﾎｰﾑみその", "url": "https://www.kaigokensaku.mhlw.go.jp/23/index.php?action_kouhyou_detail_004_kani=true&JigyosyoCd=2392600181-00&ServiceCd=720&Type=search", "url2": "http://misono/or/jp" }, "geometry": { "type": "Point", "coordinates": [ 137.450437299999976, 34.8556749 ] } },
{ "type": "Feature", "properties": { "内容": "デイサービスポルク【認知症対応型通所介護】愛知県豊川市橋尾町庵ノ前52グループホームみその豊川インター", "url": "https://www.kaigokensaku.mhlw.go.jp/23/index.php?action_kouhyou_detail_004_kani=true&JigyosyoCd=2392600397-00&ServiceCd=720&Type=search", "url2": "http://misono.or.jp" }, "geometry": { "type": "Point", "coordinates": [ 137.421469300000012, 34.8394442 ] } },
{ "type": "Feature", "properties": { "内容": "グループホームあおいの里【認知症対応型通所介護】愛知県豊川市伊奈町縫殿26番地132", "url": "https://www.kaigokensaku.mhlw.go.jp/23/index.php?action_kouhyou_detail_004_kani=true&JigyosyoCd=2376500324-00&ServiceCd=720&Type=search", "url2": "http://www009.upp.so-net.ne.jp/aoinosato/" }, "geometry": { "type": "Point", "coordinates": [ 137.351976299999933, 34.8000826 ] } },
{ "type": "Feature", "properties": { "内容": "グループホームれんげそう【認知症対応型通所介護】愛知県豊川市平井町神明11番地1", "url": "https://www.kaigokensaku.mhlw.go.jp/23/index.php?action_kouhyou_detail_004_kani=true&JigyosyoCd=2396500015-00&ServiceCd=720&Type=search", "url2": "https://www.aoinosato-rengeso.com/" }, "geometry": { "type": "Point", "coordinates": [ 137.360117599999967, 34.7924007 ] } },
{ "type": "Feature", "properties": { "内容": "グループホームゆたか【認知症対応型通所介護】豊川市新豊町2丁目130番地", "url": "https://www.kaigokensaku.mhlw.go.jp/23/index.php?action_kouhyou_detail_004_kani=true&JigyosyoCd=2392600041-00&ServiceCd=720&Type=search", "url2": "https://www.takara-yutaka.com" }, "geometry": { "type": "Point", "coordinates": [ 137.405786199999966, 34.8339958 ] } },
{ "type": "Feature", "properties": { "内容": "アルクオーレ碧南　共用型認知症デイサービス【認知症対応型通所介護】碧南市鴻島町四丁目50番地", "url": "https://www.kaigokensaku.mhlw.go.jp/23/index.php?action_kouhyou_detail_004_kani=true&JigyosyoCd=2392800146-00&ServiceCd=720&Type=search", "url2": "https://www.hyakuyoukai.jp/hekinan.php" }, "geometry": { "type": "Point", "coordinates": [ 137.004859296958927, 34.885194294851232 ] } },
{ "type": "Feature", "properties": { "内容": "認知症対応型デイサービスさくら【認知症対応型通所介護】愛知県刈谷市小垣江町永田123-1", "url": "https://www.kaigokensaku.mhlw.go.jp/23/index.php?action_kouhyou_detail_004_kani=true&JigyosyoCd=2392900243-00&ServiceCd=720&Type=search", "url2": "http://www.kariya-sakura.jp" }, "geometry": { "type": "Point", "coordinates": [ 137.006679764418067, 34.968350927551271 ] } },
{ "type": "Feature", "properties": { "内容": "愛の家グループホーム刈谷野田【認知症対応型通所介護】愛知県刈谷市野田町中山22-1", "url": "https://www.kaigokensaku.mhlw.go.jp/23/index.php?action_kouhyou_detail_004_kani=true&JigyosyoCd=2392900078-00&ServiceCd=720&Type=search", "url2": "http//www.mcsg.co.jp" }, "geometry": { "type": "Point", "coordinates": [ 137.0263641, 34.9830833 ] } },
{ "type": "Feature", "properties": { "内容": "ニチイケアセンターとよた美里【認知症対応型通所介護】愛知県豊田市美里2丁目5番地", "url": "https://www.kaigokensaku.mhlw.go.jp/23/index.php?action_kouhyou_detail_004_kani=true&JigyosyoCd=2393000167-00&ServiceCd=720&Type=search", "url2": null }, "geometry": { "type": "Point", "coordinates": [ 137.187467500000025, 35.0843343 ] } },
{ "type": "Feature", "properties": { "内容": "グループホームさち【認知症対応型通所介護】愛知県豊田市栄生町３丁目５８番地", "url": "https://www.kaigokensaku.mhlw.go.jp/23/index.php?action_kouhyou_detail_004_kani=true&JigyosyoCd=2393000480-00&ServiceCd=720&Type=search", "url2": "http://www.e-sachi.co.jp/" }, "geometry": { "type": "Point", "coordinates": [ 137.152229000163743, 35.101322228463886 ] } },
{ "type": "Feature", "properties": { "内容": "グループホームつばさ吉原【認知症対応型通所介護】愛知県豊田市吉原町前田59", "url": "https://www.kaigokensaku.mhlw.go.jp/23/index.php?action_kouhyou_detail_004_kani=true&JigyosyoCd=2393000712-00&ServiceCd=720&Type=search", "url2": "http://www.tsubasa13613.co.jp" }, "geometry": { "type": "Point", "coordinates": [ 137.09282490635772, 35.01672984526747 ] } },
{ "type": "Feature", "properties": { "内容": "グループホームJO・さざんか【認知症対応型通所介護】愛知県豊田市大蔵町大木本16番地１", "url": "https://www.kaigokensaku.mhlw.go.jp/23/index.php?action_kouhyou_detail_004_kani=true&JigyosyoCd=2393000738-00&ServiceCd=720&Type=search", "url2": "http://care-net.612/23/1-sazanka/" }, "geometry": { "type": "Point", "coordinates": [ 137.3122094, 35.1666346 ] } },
{ "type": "Feature", "properties": { "内容": "トヨタ生活協同組合　メグリアデイサービスセンター　野見山【認知症対応型通所介護】愛知県豊田市野見山町１丁目１０３番地１０", "url": "https://www.kaigokensaku.mhlw.go.jp/23/index.php?action_kouhyou_detail_004_kani=true&JigyosyoCd=2393000175-00&ServiceCd=720&Type=search", "url2": "http://www.meglia-net.jp" }, "geometry": { "type": "Point", "coordinates": [ 137.184824099999986, 35.0723774 ] } },
{ "type": "Feature", "properties": { "内容": "デイサービスセンターくらがいけ【認知症対応型通所介護】豊田市岩滝町高入４０－１", "url": "https://www.kaigokensaku.mhlw.go.jp/23/index.php?action_kouhyou_detail_004_kani=true&JigyosyoCd=2393000118-00&ServiceCd=720&Type=search", "url2": "http://asahi-kai.jp/" }, "geometry": { "type": "Point", "coordinates": [ 137.200823200000059, 35.1004439 ] } },
{ "type": "Feature", "properties": { "内容": "みなみ福寿園デイサービスセンター【認知症対応型通所介護】愛知県豊田市永覚新町5-194", "url": "https://www.kaigokensaku.mhlw.go.jp/23/index.php?action_kouhyou_detail_004_kani=true&JigyosyoCd=2373000500-00&ServiceCd=720&Type=search", "url2": "http://www.fukujuen.or.jp" }, "geometry": { "type": "Point", "coordinates": [ 137.136061, 35.035196 ] } },
{ "type": "Feature", "properties": { "内容": "デイサービス　ＪＯ・さざんか【認知症対応型通所介護】愛知県豊田市大蔵町花立11番地7", "url": "https://www.kaigokensaku.mhlw.go.jp/23/index.php?action_kouhyou_detail_004_kani=true&JigyosyoCd=2393000209-00&ServiceCd=720&Type=search", "url2": "sazanka-@asuke.aitai.ne.jp" }, "geometry": { "type": "Point", "coordinates": [ 137.3118949349182, 35.166092134841485 ] } },
{ "type": "Feature", "properties": { "内容": "笑いの家デイサービスセンター【認知症対応型通所介護】愛知県豊田市滝脇町杉長入２３番地", "url": "https://www.kaigokensaku.mhlw.go.jp/23/index.php?action_kouhyou_detail_004_kani=true&JigyosyoCd=2393000126-00&ServiceCd=720&Type=search", "url2": "http://www.midorinosato4165.or.jp" }, "geometry": { "type": "Point", "coordinates": [ 137.248121099999906, 35.0397415 ] } },
{ "type": "Feature", "properties": { "内容": "小原安立共用型デイサービス事業所【認知症対応型通所介護】愛知県豊田市沢田町座内22番地", "url": "https://www.kaigokensaku.mhlw.go.jp/23/index.php?action_kouhyou_detail_004_kani=true&JigyosyoCd=2393000373-00&ServiceCd=720&Type=search", "url2": "http://www.syoutokukai.or.jp/obara/" }, "geometry": { "type": "Point", "coordinates": [ 137.271700799999962, 35.2434077 ] } },
{ "type": "Feature", "properties": { "内容": "豊田福寿園　デイサービスセンター【認知症対応型通所介護】愛知県豊田市高町東山7-46", "url": "https://www.kaigokensaku.mhlw.go.jp/23/index.php?action_kouhyou_detail_004_kani=true&JigyosyoCd=2373000476-00&ServiceCd=720&Type=search", "url2": "http://www.fukujuen.or.jp" }, "geometry": { "type": "Point", "coordinates": [ 137.175383600000032, 35.1320644 ] } },
{ "type": "Feature", "properties": { "内容": "ひまわりの街デイサービスセンター【認知症対応型通所介護】愛知県豊田市本町本竜48", "url": "https://www.kaigokensaku.mhlw.go.jp/23/index.php?action_kouhyou_detail_004_kani=true&JigyosyoCd=2393000027-00&ServiceCd=720&Type=search", "url2": "http://www.fukujuen.or.jp" }, "geometry": { "type": "Point", "coordinates": [ 137.118964900000037, 35.051388 ] } },
{ "type": "Feature", "properties": { "内容": "グループホーム森津苑【認知症対応型通所介護】愛知県豊田市大島町栄25-1", "url": "https://www.kaigokensaku.mhlw.go.jp/23/index.php?action_kouhyou_detail_004_kani=true&JigyosyoCd=2393001017-00&ServiceCd=720&Type=search", "url2": null }, "geometry": { "type": "Point", "coordinates": [ 137.0610035, 35.0386964 ] } },
{ "type": "Feature", "properties": { "内容": "とよた苑デイサービスセンター【認知症対応型通所介護】愛知県豊田市野見山町5丁目80番地1", "url": "https://www.kaigokensaku.mhlw.go.jp/23/index.php?action_kouhyou_detail_004_kani=true&JigyosyoCd=2373000450-00&ServiceCd=720&Type=search", "url2": "https://douen.or.jp" }, "geometry": { "type": "Point", "coordinates": [ 137.186876899999987, 35.0666309 ] } },
{ "type": "Feature", "properties": { "内容": "第２とよた苑デイサービスセンター【認知症対応型通所介護】愛知県豊田市大清水町大清水179-1", "url": "https://www.kaigokensaku.mhlw.go.jp/23/index.php?action_kouhyou_detail_004_kani=true&JigyosyoCd=2393000076-00&ServiceCd=720&Type=search", "url2": "https://douen.or.jp" }, "geometry": { "type": "Point", "coordinates": [ 137.1436658, 35.1113351 ] } },
{ "type": "Feature", "properties": { "内容": "ニチイケアセンター東明町【認知症対応型通所介護】愛知県安城市東明町14番地11ニチイケアセンター東明町", "url": "https://www.kaigokensaku.mhlw.go.jp/23/index.php?action_kouhyou_detail_004_kani=true&JigyosyoCd=2393100066-00&ServiceCd=720&Type=search", "url2": null }, "geometry": { "type": "Point", "coordinates": [ 137.096889899999951, 34.9521484 ] } },
{ "type": "Feature", "properties": { "内容": "安寿の郷デイサービスセンター【認知症対応型通所介護】愛知県安城市別郷町油石105", "url": "https://www.kaigokensaku.mhlw.go.jp/23/index.php?action_kouhyou_detail_004_kani=true&JigyosyoCd=2373100227-00&ServiceCd=720&Type=search", "url2": "http://www.misuzukai.jp" }, "geometry": { "type": "Point", "coordinates": [ 137.111885, 34.9612898 ] } },
{ "type": "Feature", "properties": { "内容": "メディカルケアサービス東海株式会社　愛の家グループホーム安城今本町【認知症対応型通所介護】愛知県安城市今本町4丁目5-13", "url": "https://www.kaigokensaku.mhlw.go.jp/23/index.php?action_kouhyou_detail_004_kani=true&JigyosyoCd=2393100090-00&ServiceCd=720&Type=search", "url2": "http://www.mcsg.co.jp" }, "geometry": { "type": "Point", "coordinates": [ 137.080248, 34.9941951 ] } },
{ "type": "Feature", "properties": { "内容": "認知症デイサービスセンターあんのん館【認知症対応型通所介護】愛知県安城市福釜町矢場８８番地", "url": "https://www.kaigokensaku.mhlw.go.jp/23/index.php?action_kouhyou_detail_004_kani=true&JigyosyoCd=2393100017-00&ServiceCd=720&Type=search", "url2": "http://www.annon.or.jp/" }, "geometry": { "type": "Point", "coordinates": [ 137.058618700000011, 34.9484698 ] } },
{ "type": "Feature", "properties": { "内容": "せんねん村デイ倶楽部【認知症対応型通所介護】愛知県西尾市矢曽根町蓮雲寺29-1", "url": "https://www.kaigokensaku.mhlw.go.jp/23/index.php?action_kouhyou_detail_004_kani=true&JigyosyoCd=2393200148-00&ServiceCd=720&Type=search", "url2": "http://www.sen-nen.or.jp" }, "geometry": { "type": "Point", "coordinates": [ 137.050150900000062, 34.8563677 ] } },
{ "type": "Feature", "properties": { "内容": "五井眺海園デイサービスセンター【認知症対応型通所介護】愛知県蒲郡市五井町五反田7番地1", "url": "https://www.kaigokensaku.mhlw.go.jp/23/index.php?action_kouhyou_detail_004_kani=true&JigyosyoCd=2393300021-00&ServiceCd=720&Type=search", "url2": "http://f-fukushi.com/" }, "geometry": { "type": "Point", "coordinates": [ 137.246560300000027, 34.8355167 ] } },
{ "type": "Feature", "properties": { "内容": "さとうデイサービスセンター犬山【認知症対応型通所介護】犬山市大字羽黒字下大日８番地の３", "url": "https://www.kaigokensaku.mhlw.go.jp/23/index.php?action_kouhyou_detail_004_kani=true&JigyosyoCd=2373400577-00&ServiceCd=720&Type=search", "url2": "http://www.eijinkai-sato.or.jp" }, "geometry": { "type": "Point", "coordinates": [ 136.943170499999951, 35.3513233 ] } },
{ "type": "Feature", "properties": { "内容": "今井あんきの家【認知症対応型通所介護】犬山市大字今井畑中46-1", "url": "https://www.kaigokensaku.mhlw.go.jp/23/index.php?action_kouhyou_detail_004_kani=true&JigyosyoCd=2393400029-00&ServiceCd=720&Type=search", "url2": "http://www2.odn.ne.jp/~anki/" }, "geometry": { "type": "Point", "coordinates": [ 137.0019532, 35.3689307 ] } },
{ "type": "Feature", "properties": { "内容": "団欒の家かみの【認知症対応型通所介護】愛知県犬山市大字上野字郷１４３７－１２団欒の家かみの", "url": "https://www.kaigokensaku.mhlw.go.jp/23/index.php?action_kouhyou_detail_004_kani=true&JigyosyoCd=2393400086-00&ServiceCd=720&Type=search", "url2": "http://www.aireikai.jp/" }, "geometry": { "type": "Point", "coordinates": [ 136.92429130000005, 35.3684747 ] } },
{ "type": "Feature", "properties": { "内容": "おいなあとこなめ【認知症対応型通所介護】愛知県常滑市金山字大曽110-1", "url": "https://www.kaigokensaku.mhlw.go.jp/23/index.php?action_kouhyou_detail_004_kani=true&JigyosyoCd=2393500109-00&ServiceCd=720&Type=search", "url2": "http://www.raikoukai.or.jp" }, "geometry": { "type": "Point", "coordinates": [ 136.844965300000013, 34.9279181 ] } },
{ "type": "Feature", "properties": { "内容": "古場デイサービスセンター【認知症対応型通所介護】愛知県常滑市古場町２丁目２８番地", "url": "https://www.kaigokensaku.mhlw.go.jp/23/index.php?action_kouhyou_detail_004_kani=true&JigyosyoCd=2393500018-00&ServiceCd=720&Type=search", "url2": "http://www.chita-gakuen.or.jp" }, "geometry": { "type": "Point", "coordinates": [ 136.859559499999932, 34.8597965 ] } },
{ "type": "Feature", "properties": { "内容": "愛の家デイサービス常滑大谷【認知症対応型通所介護】愛知県常滑市大谷字道向96鉄筋3階建", "url": "https://www.kaigokensaku.mhlw.go.jp/23/index.php?action_kouhyou_detail_004_kani=true&JigyosyoCd=2393500067-00&ServiceCd=720&Type=search", "url2": "gh-096@mcsg.co.jp" }, "geometry": { "type": "Point", "coordinates": [ 136.868097799999987, 34.8361094 ] } },
{ "type": "Feature", "properties": { "内容": "でいさーびすえんなり【認知症対応型通所介護】上奈良町天王252さとうトータルケアネクサス", "url": "https://www.kaigokensaku.mhlw.go.jp/23/index.php?action_kouhyou_detail_004_kani=true&JigyosyoCd=2393600123-00&ServiceCd=720&Type=search", "url2": "http://www.as-medical.com" }, "geometry": { "type": "Point", "coordinates": [ 136.859534599999961, 35.3307363 ] } },
{ "type": "Feature", "properties": { "内容": "ふぁみりい恕苑デイサービスセンター【認知症対応型通所介護】小杁町林125番地", "url": "https://www.kaigokensaku.mhlw.go.jp/23/index.php?action_kouhyou_detail_004_kani=true&JigyosyoCd=2393600016-00&ServiceCd=720&Type=search", "url2": "https://suito-net.com" }, "geometry": { "type": "Point", "coordinates": [ 136.878032, 35.3678959 ] } },
{ "type": "Feature", "properties": { "内容": "デイサービスセンター　ジョイフル布袋【認知症対応型通所介護】愛知県江南市北山町東212番地", "url": "https://www.kaigokensaku.mhlw.go.jp/23/index.php?action_kouhyou_detail_004_kani=true&JigyosyoCd=2393600172-00&ServiceCd=720&Type=search", "url2": "http://www.sun-vision.or.jp" }, "geometry": { "type": "Point", "coordinates": [ 136.880596800000035, 35.316145 ] } },
{ "type": "Feature", "properties": { "内容": "デイサービス　想の葉【認知症対応型通所介護】愛知県江南市上奈良町天王252さとうトータルケアネクサス", "url": "https://www.kaigokensaku.mhlw.go.jp/23/index.php?action_kouhyou_detail_004_kani=true&JigyosyoCd=2393600107-00&ServiceCd=720&Type=search", "url2": null }, "geometry": { "type": "Point", "coordinates": [ 136.859534599999961, 35.33073629999997 ] } },
{ "type": "Feature", "properties": { "内容": "デイサービスさんとぴあ【認知症対応型通所介護】愛知県小牧市大字二重掘字南屋敷１６６２番地", "url": "https://www.kaigokensaku.mhlw.go.jp/23/index.php?action_kouhyou_detail_004_kani=true&JigyosyoCd=2393800061-00&ServiceCd=720&Type=search", "url2": "http://hanatabakaigo.ne.jp" }, "geometry": { "type": "Point", "coordinates": [ 136.91095150000001, 35.2903104 ] } },
{ "type": "Feature", "properties": { "内容": "グループホーム　希望の泉【認知症対応型通所介護】愛知県小牧市小牧原二丁目340番地", "url": "https://www.kaigokensaku.mhlw.go.jp/23/index.php?action_kouhyou_detail_004_kani=true&JigyosyoCd=2393800111-00&ServiceCd=720&Type=search", "url2": "http://www.kusuri-izumi.co.jp" }, "geometry": { "type": "Point", "coordinates": [ 136.932434222090137, 35.304881423896802 ] } },
{ "type": "Feature", "properties": { "内容": "ピースフルデイリーサービス小牧白寿苑【認知症対応型通所介護】愛知県小牧市大字岩崎字山浦１４３２番地７０", "url": "https://www.kaigokensaku.mhlw.go.jp/23/index.php?action_kouhyou_detail_004_kani=true&JigyosyoCd=2393800178-00&ServiceCd=720&Type=search", "url2": "http://www.ihakujuen.or.jp" }, "geometry": { "type": "Point", "coordinates": [ 136.927874299999985, 35.3078698 ] } },
{ "type": "Feature", "properties": { "内容": "デイサービスセンターゆうあい【認知症対応型通所介護】愛知県小牧市小木南二丁目88番", "url": "https://www.kaigokensaku.mhlw.go.jp/23/index.php?action_kouhyou_detail_004_kani=true&JigyosyoCd=2373800222-00&ServiceCd=720&Type=search", "url2": "http://www.seisho-fukushi.org/yuuai/" }, "geometry": { "type": "Point", "coordinates": [ 136.8953146, 35.2693597 ] } },
{ "type": "Feature", "properties": { "内容": "団欒の家そぶえ【認知症対応型通所介護】愛知県稲沢市祖父江町神明津字新田３７１８番地", "url": "https://www.kaigokensaku.mhlw.go.jp/23/index.php?action_kouhyou_detail_004_kani=true&JigyosyoCd=2393900077-00&ServiceCd=720&Type=search", "url2": "http://www.aireikai.jp" }, "geometry": { "type": "Point", "coordinates": [ 136.695728, 35.2380474 ] } },
{ "type": "Feature", "properties": { "内容": "デイサービス　ももたろう横地【認知症対応型通所介護】愛知県稲沢市横地2丁目73", "url": "https://www.kaigokensaku.mhlw.go.jp/23/index.php?action_kouhyou_detail_004_kani=true&JigyosyoCd=2393900044-00&ServiceCd=720&Type=search", "url2": "http://aim138.com" }, "geometry": { "type": "Point", "coordinates": [ 136.784204700000032, 35.2450159 ] } },
{ "type": "Feature", "properties": { "内容": "デイサービスセンター麗楽荘【認知症対応型通所介護】新城市矢部字上ノ川1-4", "url": "https://www.kaigokensaku.mhlw.go.jp/23/index.php?action_kouhyou_detail_004_kani=true&JigyosyoCd=2374000087-00&ServiceCd=720&Type=search", "url2": null }, "geometry": { "type": "Point", "coordinates": [ 137.508027299999981, 34.9168886 ] } },
{ "type": "Feature", "properties": { "内容": "グループホーム好日庵【認知症対応型通所介護】愛知県新城市副川字大貝津１３", "url": "https://www.kaigokensaku.mhlw.go.jp/23/index.php?action_kouhyou_detail_004_kani=true&JigyosyoCd=2374000384-00&ServiceCd=720&Type=search", "url2": "www.seigando.jp" }, "geometry": { "type": "Point", "coordinates": [ 137.555606975918636, 35.000212274606376 ] } },
{ "type": "Feature", "properties": { "内容": "東海福寿園デイサービスセンター　認知症型【認知症対応型通所介護】愛知県東海市中ノ池3丁目1-9", "url": "https://www.kaigokensaku.mhlw.go.jp/23/index.php?action_kouhyou_detail_004_kani=true&JigyosyoCd=2394100024-00&ServiceCd=720&Type=search", "url2": "http://www.fukujuen.or.jp" }, "geometry": { "type": "Point", "coordinates": [ 136.89887049999993, 34.9982035 ] } },
{ "type": "Feature", "properties": { "内容": "大府の郷デイサービスセンター【認知症対応型通所介護】愛知県大府市長草町ドンド19", "url": "https://www.kaigokensaku.mhlw.go.jp/23/index.php?action_kouhyou_detail_004_kani=true&JigyosyoCd=2394200071-00&ServiceCd=720&Type=search", "url2": "https://douen.or.jp" }, "geometry": { "type": "Point", "coordinates": [ 136.942528320182333, 35.030857773550963 ] } },
{ "type": "Feature", "properties": { "内容": "デイサービスセンター　すずらんの里【認知症対応型通所介護】愛知県大府市梶田町二丁目70番地", "url": "https://www.kaigokensaku.mhlw.go.jp/23/index.php?action_kouhyou_detail_004_kani=true&JigyosyoCd=2394200154-00&ServiceCd=720&Type=search", "url2": "http://www.kyowa.or.jp/suzuran/" }, "geometry": { "type": "Point", "coordinates": [ 136.966544699999986, 35.0400303 ] } },
{ "type": "Feature", "properties": { "内容": "デイサービスセンターアメニティあさひ【認知症対応型通所介護】愛知県尾張旭市旭ヶ丘町濁池1155番地18", "url": "https://www.kaigokensaku.mhlw.go.jp/23/index.php?action_kouhyou_detail_004_kani=true&JigyosyoCd=2374500417-00&ServiceCd=720&Type=search", "url2": "http://asahi-kai.jp" }, "geometry": { "type": "Point", "coordinates": [ 137.040542400000049, 35.2267504 ] } },
{ "type": "Feature", "properties": { "内容": "団欒の家　いわくら【認知症対応型通所介護】愛知県岩倉市東新町南江向24番地５の６", "url": "https://www.kaigokensaku.mhlw.go.jp/23/index.php?action_kouhyou_detail_004_kani=true&JigyosyoCd=2394700062-00&ServiceCd=720&Type=search", "url2": "aireikai.jp" }, "geometry": { "type": "Point", "coordinates": [ 136.884166371827632, 35.281303052664214 ] } },
{ "type": "Feature", "properties": { "内容": "日進ホーム通所介護「あおぞら」【認知症対応型通所介護】愛知県日進市浅田町平子2丁目２０番地", "url": "https://www.kaigokensaku.mhlw.go.jp/23/index.php?action_kouhyou_detail_004_kani=true&JigyosyoCd=2374900138-00&ServiceCd=720&Type=search", "url2": "http://www.nisshinhome.or.jp" }, "geometry": { "type": "Point", "coordinates": [ 137.029154751077613, 35.118773331882927 ] } },
{ "type": "Feature", "properties": { "内容": "はじめの一歩デイサービス　わいわいルーム【認知症対応型通所介護】愛知県日進市東山３丁目１０１０番地", "url": "https://www.kaigokensaku.mhlw.go.jp/23/index.php?action_kouhyou_detail_004_kani=true&JigyosyoCd=2394900068-00&ServiceCd=720&Type=search", "url2": "http://www.hajimeno1.com/" }, "geometry": { "type": "Point", "coordinates": [ 137.047681409123243, 35.125703180905383 ] } },
{ "type": "Feature", "properties": { "内容": "愛知県田原市豊島町釜鋳硲67番地【認知症対応型通所介護】愛知県田原市豊島町釜鋳硲67番地", "url": "https://www.kaigokensaku.mhlw.go.jp/23/index.php?action_kouhyou_detail_004_kani=true&JigyosyoCd=2397100062-00&ServiceCd=720&Type=search", "url2": "http://jinen2.web.fc2.com/?utm_source=kd" }, "geometry": { "type": "Point", "coordinates": [ 137.2844298, 34.6699833 ] } },
{ "type": "Feature", "properties": { "内容": "デイサービスじねん【認知症対応型通所介護】愛知県田原市豊島町釜鋳硲67番地デイサービスじねん", "url": "https://www.kaigokensaku.mhlw.go.jp/23/index.php?action_kouhyou_detail_004_kani=true&JigyosyoCd=2397100070-00&ServiceCd=720&Type=search", "url2": "http://jinen2.web.fc2.com/" }, "geometry": { "type": "Point", "coordinates": [ 137.2840132, 34.6697167 ] } },
{ "type": "Feature", "properties": { "内容": "田原福寿園デイサービスセンター【認知症対応型通所介護】愛知県田原市六連町神ノ釜9番地3", "url": "https://www.kaigokensaku.mhlw.go.jp/23/index.php?action_kouhyou_detail_004_kani=true&JigyosyoCd=2376600108-00&ServiceCd=720&Type=search", "url2": "http://www.fukujuen.or.jp" }, "geometry": { "type": "Point", "coordinates": [ 137.296359700000039, 34.65601 ] } },
{ "type": "Feature", "properties": { "内容": "渥美福寿園デイサービスセンター【認知症対応型通所介護】愛知県田原市小中山町一膳松1番地93", "url": "https://www.kaigokensaku.mhlw.go.jp/23/index.php?action_kouhyou_detail_004_kani=true&JigyosyoCd=2376600314-00&ServiceCd=720&Type=search", "url2": "http://www.fukujuen.or.jp" }, "geometry": { "type": "Point", "coordinates": [ 137.0610034, 34.6414687 ] } },
{ "type": "Feature", "properties": { "内容": "ma・maison愛西ガーデン1【認知症対応型通所介護】愛知県愛西市山路町野方149-132ma・maison愛西ガーデン", "url": "https://www.kaigokensaku.mhlw.go.jp/23/index.php?action_kouhyou_detail_004_kani=true&JigyosyoCd=2397200094-00&ServiceCd=720&Type=search", "url2": "https://www.bing.com/search?q=%E6%84%9B%E8%A5%BF%E3%82%AC%E3%83%BC%E3%83%87%E3%83%B3&form=ANNTH1&refig=a368ffe7407746c3ac4740f9f3e2c9d3" }, "geometry": { "type": "Point", "coordinates": [ 136.70802287888182, 35.153673873229224 ] } },
{ "type": "Feature", "properties": { "内容": "ma・maison愛西ガーデン2【認知症対応型通所介護】愛知県愛西市山路町野方149-132", "url": "https://www.kaigokensaku.mhlw.go.jp/23/index.php?action_kouhyou_detail_004_kani=true&JigyosyoCd=2397200102-00&ServiceCd=720&Type=search", "url2": "https://www.bing.com/search?q=%E6%84%9B%E8%A5%BF%E3%82%AC%E3%83%BC%E3%83%87%E3%83%B3&form=ANNTH1&refig=a368ffe7407746c3ac4740f9f3e2c9d3" }, "geometry": { "type": "Point", "coordinates": [ 136.701928900000013, 35.1528493 ] } },
{ "type": "Feature", "properties": { "内容": "グループホーム　いせ木【認知症対応型通所介護】愛知県北名古屋市井瀬木郷前６２番地", "url": "https://www.kaigokensaku.mhlw.go.jp/23/index.php?action_kouhyou_detail_004_kani=true&JigyosyoCd=2397400074-00&ServiceCd=720&Type=search", "url2": "http://www.gh-cradle.jp" }, "geometry": { "type": "Point", "coordinates": [ 136.884906300000011, 35.2401027 ] } },
{ "type": "Feature", "properties": { "内容": "グループホーム共用デイ　師勝【認知症対応型通所介護】愛知県北名古屋市熊之庄東出42－1", "url": "https://www.kaigokensaku.mhlw.go.jp/23/index.php?action_kouhyou_detail_004_kani=true&JigyosyoCd=2397400173-00&ServiceCd=720&Type=search", "url2": "https://www.fukushinosato.co.jp/" }, "geometry": { "type": "Point", "coordinates": [ 136.8896109, 35.2566746 ] } },
{ "type": "Feature", "properties": { "内容": "グループホーム共用デイ　西春【認知症対応型通所介護】愛知県北名古屋市弥勒寺東3丁目183－1", "url": "https://www.kaigokensaku.mhlw.go.jp/23/index.php?action_kouhyou_detail_004_kani=true&JigyosyoCd=2397400181-00&ServiceCd=720&Type=search", "url2": "https://www.fukushinosato.co.jp/" }, "geometry": { "type": "Point", "coordinates": [ 136.8704227, 35.2512813 ] } },
{ "type": "Feature", "properties": { "内容": "グループホーム森津【認知症対応型通所介護】愛知県弥富市鳥ヶ地2丁目176-3", "url": "https://www.kaigokensaku.mhlw.go.jp/23/index.php?action_kouhyou_detail_004_kani=true&JigyosyoCd=2375601446-00&ServiceCd=720&Type=search", "url2": "http://www.morizu-kaigo.jp" }, "geometry": { "type": "Point", "coordinates": [ 136.762983599999984, 35.0978262 ] } },
{ "type": "Feature", "properties": { "内容": "ぐるーぷほーむもりつのさと【認知症対応型通所介護】愛知県弥富市鳥ヶ地2丁目176-3", "url": "https://www.kaigokensaku.mhlw.go.jp/23/index.php?action_kouhyou_detail_004_kani=true&JigyosyoCd=2397500048-00&ServiceCd=720&Type=search", "url2": null }, "geometry": { "type": "Point", "coordinates": [ 136.762495437959274, 35.097922758253482 ] } },
{ "type": "Feature", "properties": { "内容": "認知症対応型・介護予防認知症対応型通所介護　えんどう【認知症対応型通所介護】愛知県みよし市福谷町寺田４番地", "url": "https://www.kaigokensaku.mhlw.go.jp/23/index.php?action_kouhyou_detail_004_kani=true&JigyosyoCd=2396100055-00&ServiceCd=720&Type=search", "url2": "http://www.shoju.com/" }, "geometry": { "type": "Point", "coordinates": [ 137.104239399999983, 35.1117666 ] } },
{ "type": "Feature", "properties": { "内容": "愛厚ホーム東郷苑デイサービスセンター【認知症対応型通所介護】愛知県愛知郡東郷町大字春木字下正葉廻間4337-13", "url": "https://www.kaigokensaku.mhlw.go.jp/23/index.php?action_kouhyou_detail_004_kani=true&JigyosyoCd=2395000058-00&ServiceCd=720&Type=search", "url2": "http://www.ai-kou.or.jp/" }, "geometry": { "type": "Point", "coordinates": [ 137.043694589024341, 35.084021308615377 ] } },
{ "type": "Feature", "properties": { "内容": "大口ケアセンターあかり【認知症対応型通所介護】愛知県丹羽郡大口町下小口二丁目１１１番地１", "url": "https://www.kaigokensaku.mhlw.go.jp/23/index.php?action_kouhyou_detail_004_kani=true&JigyosyoCd=2395300045-00&ServiceCd=720&Type=search", "url2": null }, "geometry": { "type": "Point", "coordinates": [ 136.9124908, 35.3388819 ] } },
{ "type": "Feature", "properties": { "内容": "団欒の家ふそう【認知症対応型通所介護】愛知県丹羽郡扶桑町高雄字定松郷52団欒の家ふそう", "url": "https://www.kaigokensaku.mhlw.go.jp/23/index.php?action_kouhyou_detail_004_kani=true&JigyosyoCd=2395300052-00&ServiceCd=720&Type=search", "url2": "http://www.aireikai.jp/" }, "geometry": { "type": "Point", "coordinates": [ 136.9150703, 35.3568129 ] } },
{ "type": "Feature", "properties": { "内容": "「とんと」つむぎ【認知症対応型通所介護】愛知県海部郡大治町西條土井ノ池82-1", "url": "https://www.kaigokensaku.mhlw.go.jp/23/index.php?action_kouhyou_detail_004_kani=true&JigyosyoCd=2395600105-00&ServiceCd=720&Type=search", "url2": "http://www.human-ast.co.jp" }, "geometry": { "type": "Point", "coordinates": [ 136.811635200000012, 35.1736049 ] } },
{ "type": "Feature", "properties": { "内容": "愛知県海部郡大治町北間島宮西28【認知症対応型通所介護】愛知県海部郡大治町北間島宮西28", "url": "https://www.kaigokensaku.mhlw.go.jp/23/index.php?action_kouhyou_detail_004_kani=true&JigyosyoCd=2375601685-00&ServiceCd=720&Type=search", "url2": "http://www.mcsg.co.jp" }, "geometry": { "type": "Point", "coordinates": [ 136.8272553, 35.1765653 ] } },
{ "type": "Feature", "properties": { "内容": "デイサービスセンター阿久比【認知症対応型通所介護】愛知県知多郡阿久比町大字萩字新川３２", "url": "https://www.kaigokensaku.mhlw.go.jp/23/index.php?action_kouhyou_detail_004_kani=true&JigyosyoCd=2395700285-00&ServiceCd=720&Type=search", "url2": "http://www.i-koyu.or.jp" }, "geometry": { "type": "Point", "coordinates": [ 136.928647, 34.9191598 ] } },
{ "type": "Feature", "properties": { "内容": "ハーブゆぃまある【認知症対応型通所介護】愛知県知多郡阿久比町大字横松字宮前17", "url": "https://www.kaigokensaku.mhlw.go.jp/23/index.php?action_kouhyou_detail_004_kani=true&JigyosyoCd=2395700236-00&ServiceCd=720&Type=search", "url2": "http://ha-bu.net/" }, "geometry": { "type": "Point", "coordinates": [ 136.929822100000024, 34.9149879 ] } },
{ "type": "Feature", "properties": { "内容": "阿久比一期一会デイサービスセンター【認知症対応型通所介護】愛知県知多郡阿久比町大字卯坂字桜ヶ丘１９５番地", "url": "https://www.kaigokensaku.mhlw.go.jp/23/index.php?action_kouhyou_detail_004_kani=true&JigyosyoCd=2375700537-00&ServiceCd=720&Type=search", "url2": "https://www.ichigoichie.or.jp/" }, "geometry": { "type": "Point", "coordinates": [ 136.909471400000029, 34.9335357 ] } },
{ "type": "Feature", "properties": { "内容": "地域密着型デイホーム茜邸【認知症対応型通所介護】愛知県東浦町大字緒川字雁挟間山1-21", "url": "https://www.kaigokensaku.mhlw.go.jp/23/index.php?action_kouhyou_detail_004_kani=true&JigyosyoCd=2395700251-00&ServiceCd=720&Type=search", "url2": "http://ayame-akane-kk.com/" }, "geometry": { "type": "Point", "coordinates": [ 136.9259485, 34.9695836 ] } },
{ "type": "Feature", "properties": { "内容": "ファミリーハウス「とんと」古譚【認知症対応型通所介護】知多郡東浦町大字石浜字岐路88番地の6", "url": "https://www.kaigokensaku.mhlw.go.jp/23/index.php?action_kouhyou_detail_004_kani=true&JigyosyoCd=2395700160-00&ServiceCd=720&Type=search", "url2": "http://www.mohs.co.jp/assist/" }, "geometry": { "type": "Point", "coordinates": [ 136.967857699999968, 34.9720312 ] } },
{ "type": "Feature", "properties": { "内容": "ファミリーハウス「とんと」森岡【認知症対応型通所介護】知多郡東浦町大字森岡字前田16-1グローバルコート森岡１階", "url": "https://www.kaigokensaku.mhlw.go.jp/23/index.php?action_kouhyou_detail_004_kani=true&JigyosyoCd=2395700152-00&ServiceCd=720&Type=search", "url2": "www.human-ast.co.jp/" }, "geometry": { "type": "Point", "coordinates": [ 136.969362400000023, 34.9943228 ] } },
{ "type": "Feature", "properties": { "内容": "脳活デイサービス　メドックガーデンビレッジ緒川【認知症対応型通所介護】愛知県知多郡東浦町大字緒川字栄３９番地１", "url": "https://www.kaigokensaku.mhlw.go.jp/23/index.php?action_kouhyou_detail_004_kani=true&JigyosyoCd=2395700194-00&ServiceCd=720&Type=search", "url2": "http://www.medoc-care.jp" }, "geometry": { "type": "Point", "coordinates": [ 136.954439163754245, 34.98084684365012 ] } },
{ "type": "Feature", "properties": { "内容": "デイサービスよつ葉【認知症対応型通所介護】愛知県南知多町内海南側２６−１", "url": "https://www.kaigokensaku.mhlw.go.jp/23/index.php?action_kouhyou_detail_004_kani=true&JigyosyoCd=2395700087-00&ServiceCd=720&Type=search", "url2": null }, "geometry": { "type": "Point", "coordinates": [ 136.87381507206419, 34.734850439911114 ] } },
{ "type": "Feature", "properties": { "内容": "そよかぜデイサービスセンター【認知症対応型通所介護】愛知県知多郡南知多町豊丘中平井14番地2", "url": "https://www.kaigokensaku.mhlw.go.jp/23/index.php?action_kouhyou_detail_004_kani=true&JigyosyoCd=2395700137-00&ServiceCd=720&Type=search", "url2": "http://www.aijyu.or.jp" }, "geometry": { "type": "Point", "coordinates": [ 136.942482299999938, 34.7256747 ] } },
{ "type": "Feature", "properties": { "内容": "グループホームおり姫２【認知症対応型通所介護】額田郡幸田町大字大草字山添９", "url": "https://www.kaigokensaku.mhlw.go.jp/23/index.php?action_kouhyou_detail_004_kani=true&JigyosyoCd=2396000057-00&ServiceCd=720&Type=search", "url2": null }, "geometry": { "type": "Point", "coordinates": [ 137.173362426983658, 34.872318205035725 ] } }
]
}
