{
"type": "FeatureCollection",
"name": "geo_23_介護老人保健施設",
"crs": { "type": "name", "properties": { "name": "urn:ogc:def:crs:OGC:1.3:CRS84" } },
"features": [
{ "type": "Feature", "properties": { "内容": "リハビリパーク千種【介護老人保健施設】愛知県名古屋市千種区今池１－１６－４", "url": "https://www.kaigokensaku.mhlw.go.jp/23/index.php?action_kouhyou_detail_004_kani=true&JigyosyoCd=2350180036-00&ServiceCd=520&Type=search", "url2": null }, "geometry": { "type": "Point", "coordinates": [ 136.934617092065395, 35.16824513057292 ] } },
{ "type": "Feature", "properties": { "内容": "介護老人保健施設　メディカルホーム大久手【介護老人保健施設】愛知県名古屋市千種区大久手町5-5-1", "url": "https://www.kaigokensaku.mhlw.go.jp/23/index.php?action_kouhyou_detail_004_kani=true&JigyosyoCd=2350180002-00&ServiceCd=520&Type=search", "url2": "http://www.yoshidahp.jp" }, "geometry": { "type": "Point", "coordinates": [ 136.936754, 35.1621059 ] } },
{ "type": "Feature", "properties": { "内容": "国家公務員共済組合連合会　東海病院　介護老人保健施設　ちよだ【介護老人保健施設】愛知県名古屋市千種区千代田橋一丁目1番1号", "url": "https://www.kaigokensaku.mhlw.go.jp/23/index.php?action_kouhyou_detail_004_kani=true&JigyosyoCd=2350180010-00&ServiceCd=520&Type=search", "url2": "https://toukaihosp.kkr.or.jp/" }, "geometry": { "type": "Point", "coordinates": [ 136.966584199999943, 35.1870675 ] } },
{ "type": "Feature", "properties": { "内容": "医療法人　純正会　介護老人保健施設　太陽【介護老人保健施設】愛知県名古屋市千種区千種二丁目22番1号", "url": "https://www.kaigokensaku.mhlw.go.jp/23/index.php?action_kouhyou_detail_004_kani=true&JigyosyoCd=2350180028-00&ServiceCd=520&Type=search", "url2": "http://www.med-junseikai.or.jp/roken/" }, "geometry": { "type": "Point", "coordinates": [ 136.9242607, 35.1631912 ] } },
{ "type": "Feature", "properties": { "内容": "介護老人保健施設　シンセーロ会所【介護老人保健施設】名古屋市北区会所町８６番", "url": "https://www.kaigokensaku.mhlw.go.jp/23/index.php?action_kouhyou_detail_004_kani=true&JigyosyoCd=2350380032-00&ServiceCd=520&Type=search", "url2": "http://www.shiyou.or.jp/" }, "geometry": { "type": "Point", "coordinates": [ 136.90722089999997, 35.239459 ] } },
{ "type": "Feature", "properties": { "内容": "介護老人保健施設　サン・くすのき【介護老人保健施設】愛知県名古屋市北区五反田町111番地", "url": "https://www.kaigokensaku.mhlw.go.jp/23/index.php?action_kouhyou_detail_004_kani=true&JigyosyoCd=2350380008-00&ServiceCd=520&Type=search", "url2": "http://www.kusunokihp.or.jp/sun/" }, "geometry": { "type": "Point", "coordinates": [ 136.911993299999949, 35.2264218 ] } },
{ "type": "Feature", "properties": { "内容": "生協わかばの里　介護老人保健施設【介護老人保健施設】名古屋市北区城東町5丁目114番地", "url": "https://www.kaigokensaku.mhlw.go.jp/23/index.php?action_kouhyou_detail_004_kani=true&JigyosyoCd=2350380024-00&ServiceCd=520&Type=search", "url2": "http://www.kita-coop.jp/wakaba/index.html" }, "geometry": { "type": "Point", "coordinates": [ 136.92055449999998, 35.1944871 ] } },
{ "type": "Feature", "properties": { "内容": "生協わかばの里ユニット型介護老人保健施設【介護老人保健施設】名古屋市北区城東町5-114", "url": "https://www.kaigokensaku.mhlw.go.jp/23/index.php?action_kouhyou_detail_004_kani=true&JigyosyoCd=2350380040-00&ServiceCd=520&Type=search", "url2": "www.kita.coop/wakaba/index.html" }, "geometry": { "type": "Point", "coordinates": [ 136.92055449999998, 35.1944871 ] } },
{ "type": "Feature", "properties": { "内容": "介護老人保健施設　アーチスト【介護老人保健施設】愛知県名古屋市北区大曽根二丁目8番10号", "url": "https://www.kaigokensaku.mhlw.go.jp/23/index.php?action_kouhyou_detail_004_kani=true&JigyosyoCd=2350380057-00&ServiceCd=520&Type=search", "url2": "http://www.toshiwa-kai.or.jp/" }, "geometry": { "type": "Point", "coordinates": [ 136.930898100000036, 35.1901908 ] } },
{ "type": "Feature", "properties": { "内容": "リハビリパーク黒川【介護老人保健施設】愛知県名古屋市北区志賀本通1丁目35番", "url": "https://www.kaigokensaku.mhlw.go.jp/23/index.php?action_kouhyou_detail_004_kani=true&JigyosyoCd=2350380065-00&ServiceCd=520&Type=search", "url2": "http://www.rehabili-park.com/" }, "geometry": { "type": "Point", "coordinates": [ 136.917293699999959, 35.196595 ] } },
{ "type": "Feature", "properties": { "内容": "メデケアド寿【介護老人保健施設】愛知県名古屋市北区米が瀬町135番地1", "url": "https://www.kaigokensaku.mhlw.go.jp/23/index.php?action_kouhyou_detail_004_kani=true&JigyosyoCd=2350380073-00&ServiceCd=520&Type=search", "url2": "https://misuzu.or.jp/" }, "geometry": { "type": "Point", "coordinates": [ 136.9283676, 35.2113209 ] } },
{ "type": "Feature", "properties": { "内容": "老人保健施設　ハートフルライフ西城【介護老人保健施設】愛知県名古屋市西区秩父通2-36", "url": "https://www.kaigokensaku.mhlw.go.jp/23/index.php?action_kouhyou_detail_004_kani=true&JigyosyoCd=2350480006-00&ServiceCd=520&Type=search", "url2": "https://www.jmks-med.or.jp" }, "geometry": { "type": "Point", "coordinates": [ 136.8941436, 35.1973881 ] } },
{ "type": "Feature", "properties": { "内容": "介護老人保健施設　第二ハートフルライフ西城【介護老人保健施設】愛知県名古屋市西区秩父通1-38", "url": "https://www.kaigokensaku.mhlw.go.jp/23/index.php?action_kouhyou_detail_004_kani=true&JigyosyoCd=2350480014-00&ServiceCd=520&Type=search", "url2": "https://www.jmks-med.or.jp" }, "geometry": { "type": "Point", "coordinates": [ 136.897387699999967, 35.1974771 ] } },
{ "type": "Feature", "properties": { "内容": "介護老人保健施設福の里【介護老人保健施設】名古屋市西区新道二丁目4番7号", "url": "https://www.kaigokensaku.mhlw.go.jp/23/index.php?action_kouhyou_detail_004_kani=true&JigyosyoCd=2350480022-00&ServiceCd=520&Type=search", "url2": "http://www.fukunosato.jp/" }, "geometry": { "type": "Point", "coordinates": [ 136.889138600000024, 35.1784573 ] } },
{ "type": "Feature", "properties": { "内容": "介護老人保健施設　第II四季の里【介護老人保健施設】名古屋市中村区稲葉地町7丁目2番地の3", "url": "https://www.kaigokensaku.mhlw.go.jp/23/index.php?action_kouhyou_detail_004_kani=true&JigyosyoCd=2350580037-00&ServiceCd=520&Type=search", "url2": "https://andouiin-fujiedakai.com/shikinosato/dai2shikinosato" }, "geometry": { "type": "Point", "coordinates": [ 136.845831800000042, 35.164158 ] } },
{ "type": "Feature", "properties": { "内容": "介護老人保健施設　はっ田【介護老人保健施設】愛知県名古屋市中村区並木二丁目３５４番地", "url": "https://www.kaigokensaku.mhlw.go.jp/23/index.php?action_kouhyou_detail_004_kani=true&JigyosyoCd=2350580045-00&ServiceCd=520&Type=search", "url2": "https://fukuyukai.com/facility/107" }, "geometry": { "type": "Point", "coordinates": [ 136.852348799999987, 35.14951 ] } },
{ "type": "Feature", "properties": { "内容": "介護老人保健施設　　　　白社苑【介護老人保健施設】愛知県名古屋市中村区本陣通6丁目22番地", "url": "https://www.kaigokensaku.mhlw.go.jp/23/index.php?action_kouhyou_detail_004_kani=true&JigyosyoCd=2350580029-00&ServiceCd=520&Type=search", "url2": "https://sites.google.com/view/hakusyaen" }, "geometry": { "type": "Point", "coordinates": [ 136.8485756, 35.1776312 ] } },
{ "type": "Feature", "properties": { "内容": "介護老人保健施設　ジョイフル名駅【介護老人保健施設】愛知県名古屋市中村区名駅五丁目25番12号", "url": "https://www.kaigokensaku.mhlw.go.jp/23/index.php?action_kouhyou_detail_004_kani=true&JigyosyoCd=2350580086-00&ServiceCd=520&Type=search", "url2": "https://sun-vision.or.jp/" }, "geometry": { "type": "Point", "coordinates": [ 136.891534018042137, 35.168450830079642 ] } },
{ "type": "Feature", "properties": { "内容": "介護老人保健施設　福の里　花乃邸【介護老人保健施設】愛知県名古屋市中村区京田町3丁目60番地", "url": "https://www.kaigokensaku.mhlw.go.jp/23/index.php?action_kouhyou_detail_004_kani=true&JigyosyoCd=2350580060-00&ServiceCd=520&Type=search", "url2": "http://hananotei.jp" }, "geometry": { "type": "Point", "coordinates": [ 136.865547380321942, 35.1597561260863 ] } },
{ "type": "Feature", "properties": { "内容": "介護老人保健施設メディケア栄【介護老人保健施設】愛知県名古屋市中区栄五丁目7番25号", "url": "https://www.kaigokensaku.mhlw.go.jp/23/index.php?action_kouhyou_detail_004_kani=true&JigyosyoCd=2350680019-00&ServiceCd=520&Type=search", "url2": "http://www.medifore.jp/" }, "geometry": { "type": "Point", "coordinates": [ 136.914415177909859, 35.1651211 ] } },
{ "type": "Feature", "properties": { "内容": "介護老人保健施設セントラーレ【介護老人保健施設】名古屋市中区金山五丁目8番1号", "url": "https://www.kaigokensaku.mhlw.go.jp/23/index.php?action_kouhyou_detail_004_kani=true&JigyosyoCd=2350680027-00&ServiceCd=520&Type=search", "url2": "https://www.toshiwa-kai.or.jp/" }, "geometry": { "type": "Point", "coordinates": [ 136.909973600000058, 35.1463902 ] } },
{ "type": "Feature", "properties": { "内容": "医療法人コジマ会　介護老人保健施設丸の内【介護老人保健施設】愛知県名古屋市中区丸の内一丁目２番６号", "url": "https://www.kaigokensaku.mhlw.go.jp/23/index.php?action_kouhyou_detail_004_kani=true&JigyosyoCd=2350680001-00&ServiceCd=520&Type=search", "url2": "http://www.kojima-kai.or.jp/" }, "geometry": { "type": "Point", "coordinates": [ 136.894568599999957, 35.1772299 ] } },
{ "type": "Feature", "properties": { "内容": "介護老人保健施設タキガワアリア【介護老人保健施設】川名山町6番地の4", "url": "https://www.kaigokensaku.mhlw.go.jp/23/index.php?action_kouhyou_detail_004_kani=true&JigyosyoCd=2350780025-00&ServiceCd=520&Type=search", "url2": "http://www.toshiwa-kai.or.jp/" }, "geometry": { "type": "Point", "coordinates": [ 136.960756363012706, 35.146225326429395 ] } },
{ "type": "Feature", "properties": { "内容": "介護老人保健施設いつきの里石川橋【介護老人保健施設】名古屋市昭和区檀渓通5丁目26番地", "url": "https://www.kaigokensaku.mhlw.go.jp/23/index.php?action_kouhyou_detail_004_kani=true&JigyosyoCd=2370701787-00&ServiceCd=520&Type=search", "url2": "http://medical-itsuki.com" }, "geometry": { "type": "Point", "coordinates": [ 136.947006900000019, 35.1466288 ] } },
{ "type": "Feature", "properties": { "内容": "老人保健施設　ヴィラかわな【介護老人保健施設】名古屋市昭和区山花町54番地1", "url": "https://www.kaigokensaku.mhlw.go.jp/23/index.php?action_kouhyou_detail_004_kani=true&JigyosyoCd=2350780009-00&ServiceCd=520&Type=search", "url2": "https://kawanahp.jp/care-facility/" }, "geometry": { "type": "Point", "coordinates": [ 136.951408600000036, 35.1503915 ] } },
{ "type": "Feature", "properties": { "内容": "介護老人保健施設　セントラル堀田【介護老人保健施設】愛知県名古屋市瑞穂区田光町一丁目４番地", "url": "https://www.kaigokensaku.mhlw.go.jp/23/index.php?action_kouhyou_detail_004_kani=true&JigyosyoCd=2350880015-00&ServiceCd=520&Type=search", "url2": "http://www.kouseikai.nagoya/s-horita/" }, "geometry": { "type": "Point", "coordinates": [ 136.921737099999973, 35.1240407 ] } },
{ "type": "Feature", "properties": { "内容": "ユニット型介護老人保健施設　セントラル堀田【介護老人保健施設】名古屋市瑞穂区田光町1丁目4番地", "url": "https://www.kaigokensaku.mhlw.go.jp/23/index.php?action_kouhyou_detail_004_kani=true&JigyosyoCd=2350880023-00&ServiceCd=520&Type=search", "url2": "http://www.kouseikai.nagoya/s-horita/" }, "geometry": { "type": "Point", "coordinates": [ 136.921737099999973, 35.1240407 ] } },
{ "type": "Feature", "properties": { "内容": "老人保健施設瑞穂【介護老人保健施設】愛知県名古屋市瑞穂区荒崎町6番29号", "url": "https://www.kaigokensaku.mhlw.go.jp/23/index.php?action_kouhyou_detail_004_kani=true&JigyosyoCd=2350880007-00&ServiceCd=520&Type=search", "url2": "http://www.mizuho-brother.jp/" }, "geometry": { "type": "Point", "coordinates": [ 136.924125299999986, 35.1124972 ] } },
{ "type": "Feature", "properties": { "内容": "介護老人保健施設　かなやま【介護老人保健施設】愛知県名古屋市熱田区桜田町９番３号", "url": "https://www.kaigokensaku.mhlw.go.jp/23/index.php?action_kouhyou_detail_004_kani=true&JigyosyoCd=2350980013-00&ServiceCd=520&Type=search", "url2": "http://www.kyoenkai.or.jp" }, "geometry": { "type": "Point", "coordinates": [ 136.907476699999961, 35.1407409 ] } },
{ "type": "Feature", "properties": { "内容": "みなと医療生活協同組合介護老人保健施設あつたの森【介護老人保健施設】名古屋市熱田区五番町３番１６号", "url": "https://www.kaigokensaku.mhlw.go.jp/23/index.php?action_kouhyou_detail_004_kani=true&JigyosyoCd=2350980005-00&ServiceCd=520&Type=search", "url2": "http://care.minato.coop/" }, "geometry": { "type": "Point", "coordinates": [ 136.8899073, 35.117646 ] } },
{ "type": "Feature", "properties": { "内容": "医療法人開生会　老人保健施設ラベンダー【介護老人保健施設】愛知県名古屋市中川区福島一丁目148番地", "url": "https://www.kaigokensaku.mhlw.go.jp/23/index.php?action_kouhyou_detail_004_kani=true&JigyosyoCd=2351080045-00&ServiceCd=520&Type=search", "url2": "https://www.kaisei-lavender.net" }, "geometry": { "type": "Point", "coordinates": [ 136.800353200000018, 35.1224487 ] } },
{ "type": "Feature", "properties": { "内容": "老人保健施設　みず里【介護老人保健施設】愛知県名古屋市中川区水里１丁目２３番地", "url": "https://www.kaigokensaku.mhlw.go.jp/23/index.php?action_kouhyou_detail_004_kani=true&JigyosyoCd=2351080003-00&ServiceCd=520&Type=search", "url2": "http://www.saiwakai-mizusato.jp" }, "geometry": { "type": "Point", "coordinates": [ 136.811260100000027, 35.1298231 ] } },
{ "type": "Feature", "properties": { "内容": "ユニット型サテライト型小規模介護老人保健施設　シンセーロ【介護老人保健施設】愛知県名古屋市中川区水里三丁目231番地", "url": "https://www.kaigokensaku.mhlw.go.jp/23/index.php?action_kouhyou_detail_004_kani=true&JigyosyoCd=2351080052-00&ServiceCd=520&Type=search", "url2": "www.shiyou.or.jp/sincero.html" }, "geometry": { "type": "Point", "coordinates": [ 136.807280100000071, 35.1276233 ] } },
{ "type": "Feature", "properties": { "内容": "介護老人保健施設　千音寺【介護老人保健施設】愛知県名古屋市中川区千音寺五丁目301番地", "url": "https://www.kaigokensaku.mhlw.go.jp/23/index.php?action_kouhyou_detail_004_kani=true&JigyosyoCd=2351080078-00&ServiceCd=520&Type=search", "url2": "http://www.roken-sennonji.jp/" }, "geometry": { "type": "Point", "coordinates": [ 136.812253819049005, 35.157220985308186 ] } },
{ "type": "Feature", "properties": { "内容": "医療法人　親和会　老人保健施設　松和苑【介護老人保健施設】名古屋市中川区かの里三丁目901番地", "url": "https://www.kaigokensaku.mhlw.go.jp/23/index.php?action_kouhyou_detail_004_kani=true&JigyosyoCd=2351080011-00&ServiceCd=520&Type=search", "url2": "i-shinwakai.jp" }, "geometry": { "type": "Point", "coordinates": [ 136.815181419915774, 35.128590855826019 ] } },
{ "type": "Feature", "properties": { "内容": "介護老人保健施設　雅【介護老人保健施設】愛知県名古屋市中川区東春田二丁目190番地", "url": "https://www.kaigokensaku.mhlw.go.jp/23/index.php?action_kouhyou_detail_004_kani=true&JigyosyoCd=2351080060-00&ServiceCd=520&Type=search", "url2": "http://seishinkai-aichi.jp/" }, "geometry": { "type": "Point", "coordinates": [ 136.816981, 35.1412274 ] } },
{ "type": "Feature", "properties": { "内容": "ユニット老健　華【介護老人保健施設】愛知県名古屋市中川区東春田二丁目192番地", "url": "https://www.kaigokensaku.mhlw.go.jp/23/index.php?action_kouhyou_detail_004_kani=true&JigyosyoCd=2351080086-00&ServiceCd=520&Type=search", "url2": "http：//www.seishinkai-aichi.jp/" }, "geometry": { "type": "Point", "coordinates": [ 136.817200895492562, 35.141183041078115 ] } },
{ "type": "Feature", "properties": { "内容": "医療法人　孝慈会　老人保健施設　ラ・ファミリア【介護老人保健施設】愛知県名古屋市中川区東起町一丁目五番地１", "url": "https://www.kaigokensaku.mhlw.go.jp/23/index.php?action_kouhyou_detail_004_kani=true&JigyosyoCd=2351080029-00&ServiceCd=520&Type=search", "url2": "http://www.kouji-kai.or.jp" }, "geometry": { "type": "Point", "coordinates": [ 136.841168399999987, 35.1231578 ] } },
{ "type": "Feature", "properties": { "内容": "介護老人保健施設あんず【介護老人保健施設】名古屋市港区西福田一丁目636番地", "url": "https://www.kaigokensaku.mhlw.go.jp/23/index.php?action_kouhyou_detail_004_kani=true&JigyosyoCd=2351180027-00&ServiceCd=520&Type=search", "url2": "http://anz.kyoenkai.or.jp" }, "geometry": { "type": "Point", "coordinates": [ 136.811299599999984, 35.1207465 ] } },
{ "type": "Feature", "properties": { "内容": "介護老人保健施設トリトン【介護老人保健施設】西倉町１番14号", "url": "https://www.kaigokensaku.mhlw.go.jp/23/index.php?action_kouhyou_detail_004_kani=true&JigyosyoCd=2351180050-00&ServiceCd=520&Type=search", "url2": "https://tri.kyoenkai.or.jp/" }, "geometry": { "type": "Point", "coordinates": [ 136.879440199999976, 35.0967792 ] } },
{ "type": "Feature", "properties": { "内容": "老人保健施設みなと【介護老人保健施設】愛知県名古屋市港区名四町114番地", "url": "https://www.kaigokensaku.mhlw.go.jp/23/index.php?action_kouhyou_detail_004_kani=true&JigyosyoCd=2351180035-00&ServiceCd=520&Type=search", "url2": "https://saiwaikai-minato.jp/" }, "geometry": { "type": "Point", "coordinates": [ 136.866944399999966, 35.0995423 ] } },
{ "type": "Feature", "properties": { "内容": "医療法人東樹会あずま老人保健施設【介護老人保健施設】愛知県名古屋市港区港楽三丁目１４番１１号", "url": "https://www.kaigokensaku.mhlw.go.jp/23/index.php?action_kouhyou_detail_004_kani=true&JigyosyoCd=2351180001-00&ServiceCd=520&Type=search", "url2": "http://www.toju-kai.or.jp/" }, "geometry": { "type": "Point", "coordinates": [ 136.884289399999943, 35.1022342 ] } },
{ "type": "Feature", "properties": { "内容": "老人保健施設ケア・サポート新茶屋【介護老人保健施設】愛知県名古屋市港区新茶屋三丁目901番地", "url": "https://www.kaigokensaku.mhlw.go.jp/23/index.php?action_kouhyou_detail_004_kani=true&JigyosyoCd=2351180019-00&ServiceCd=520&Type=search", "url2": "http://www.kaikou.or.jp/rouken/" }, "geometry": { "type": "Point", "coordinates": [ 136.814469899999949, 35.0999574 ] } },
{ "type": "Feature", "properties": { "内容": "老人保健施設かいこう【介護老人保健施設】名古屋市港区新茶屋三丁目915番地", "url": "https://www.kaigokensaku.mhlw.go.jp/23/index.php?action_kouhyou_detail_004_kani=true&JigyosyoCd=2351180043-00&ServiceCd=520&Type=search", "url2": "http://www.kaikou.or.jp/rouken/" }, "geometry": { "type": "Point", "coordinates": [ 136.813808800000061, 35.0999629 ] } },
{ "type": "Feature", "properties": { "内容": "セントラル内田橋【介護老人保健施設】愛知県名古屋市南区内田橋一丁目４番２４号", "url": "https://www.kaigokensaku.mhlw.go.jp/23/index.php?action_kouhyou_detail_004_kani=true&JigyosyoCd=2351280066-00&ServiceCd=520&Type=search", "url2": "http://www.central-uchidabashi.nagoya/" }, "geometry": { "type": "Point", "coordinates": [ 136.90618070000005, 35.1150273 ] } },
{ "type": "Feature", "properties": { "内容": "老人保健施設シルピス大磯【介護老人保健施設】名古屋市南区戸部町三丁目５５番地", "url": "https://www.kaigokensaku.mhlw.go.jp/23/index.php?action_kouhyou_detail_004_kani=true&JigyosyoCd=2351280017-00&ServiceCd=520&Type=search", "url2": "http://silpis.zenjokai.jp/" }, "geometry": { "type": "Point", "coordinates": [ 136.929911899999979, 35.100685 ] } },
{ "type": "Feature", "properties": { "内容": "名南介護老人保健施設かたらいの里【介護老人保健施設】愛知県名古屋市南区豊田五丁目１５番１８号", "url": "https://www.kaigokensaku.mhlw.go.jp/23/index.php?action_kouhyou_detail_004_kani=true&JigyosyoCd=2351280033-00&ServiceCd=520&Type=search", "url2": "http://www.meinan.or.jp" }, "geometry": { "type": "Point", "coordinates": [ 136.915088500000024, 35.1013622 ] } },
{ "type": "Feature", "properties": { "内容": "老健あんき【介護老人保健施設】愛知県名古屋市南区星崎一丁目１２３番地", "url": "https://www.kaigokensaku.mhlw.go.jp/23/index.php?action_kouhyou_detail_004_kani=true&JigyosyoCd=2351280058-00&ServiceCd=520&Type=search", "url2": "http://www.minami.or.jp/" }, "geometry": { "type": "Point", "coordinates": [ 136.934961499999986, 35.0820232 ] } },
{ "type": "Feature", "properties": { "内容": "医療法人大仁会介護老人保健施設アットホーム宮の渡し【介護老人保健施設】愛知県名古屋市南区明治一丁目14番56号", "url": "https://www.kaigokensaku.mhlw.go.jp/23/index.php?action_kouhyou_detail_004_kani=true&JigyosyoCd=2351280041-00&ServiceCd=520&Type=search", "url2": "http://www.daijinkai.jp/miya/" }, "geometry": { "type": "Point", "coordinates": [ 136.9031172, 35.1132885 ] } },
{ "type": "Feature", "properties": { "内容": "大同老人保健施設【介護老人保健施設】愛知県名古屋市南区白水町40番地2", "url": "https://www.kaigokensaku.mhlw.go.jp/23/index.php?action_kouhyou_detail_004_kani=true&JigyosyoCd=2351280009-00&ServiceCd=520&Type=search", "url2": "http://www.daidohp.or.jp/" }, "geometry": { "type": "Point", "coordinates": [ 136.906096291439752, 35.076428938387096 ] } },
{ "type": "Feature", "properties": { "内容": "老人保健施設　ウエルネス守山【介護老人保健施設】愛知県名古屋市守山区中新４番３１号", "url": "https://www.kaigokensaku.mhlw.go.jp/23/index.php?action_kouhyou_detail_004_kani=true&JigyosyoCd=2351380015-00&ServiceCd=520&Type=search", "url2": "http://zenjukai.com" }, "geometry": { "type": "Point", "coordinates": [ 136.9715225, 35.1970218 ] } },
{ "type": "Feature", "properties": { "内容": "介護老人保健施設ウエルネスきっこ【介護老人保健施設】愛知県名古屋市守山区花咲台二丁目101番地の1", "url": "https://www.kaigokensaku.mhlw.go.jp/23/index.php?action_kouhyou_detail_004_kani=true&JigyosyoCd=2351380049-00&ServiceCd=520&Type=search", "url2": "https://zenjukai.com/" }, "geometry": { "type": "Point", "coordinates": [ 137.00983169999995, 35.2328565 ] } },
{ "type": "Feature", "properties": { "内容": "介護老人保健施設　メディコ守山【介護老人保健施設】名古屋市守山区日の後301番地", "url": "https://www.kaigokensaku.mhlw.go.jp/23/index.php?action_kouhyou_detail_004_kani=true&JigyosyoCd=2351380007-00&ServiceCd=520&Type=search", "url2": "https://medico-moriyama.namiki.or.jp" }, "geometry": { "type": "Point", "coordinates": [ 137.011578699999973, 35.2369643 ] } },
{ "type": "Feature", "properties": { "内容": "ユニット型介護老人保健施設　ウエルネスきっこ【介護老人保健施設】愛知県名古屋市守山区花咲台二丁目101番地の1", "url": "https://www.kaigokensaku.mhlw.go.jp/23/index.php?action_kouhyou_detail_004_kani=true&JigyosyoCd=2351380056-00&ServiceCd=520&Type=search", "url2": "https://zenjukai.com/" }, "geometry": { "type": "Point", "coordinates": [ 137.00983169999995, 35.2328565 ] } },
{ "type": "Feature", "properties": { "内容": "介護老人保健施設　あまこだ【介護老人保健施設】愛知県名古屋市守山区天子田二丁目1613番地", "url": "https://www.kaigokensaku.mhlw.go.jp/23/index.php?action_kouhyou_detail_004_kani=true&JigyosyoCd=2351380031-00&ServiceCd=520&Type=search", "url2": "http://www.hakuhoukai-hp.or.jp/amakoda1.htm" }, "geometry": { "type": "Point", "coordinates": [ 137.004338599999983, 35.1994529 ] } },
{ "type": "Feature", "properties": { "内容": "介護老人保健施設フジタ【介護老人保健施設】愛知県名古屋市緑区鳴海町字尾崎山43-640", "url": "https://www.kaigokensaku.mhlw.go.jp/23/index.php?action_kouhyou_detail_004_kani=true&JigyosyoCd=2351480039-00&ServiceCd=520&Type=search", "url2": "http://care-net.biz/23/ro-kenfujita/" }, "geometry": { "type": "Point", "coordinates": [ 136.978008300000056, 35.0721928 ] } },
{ "type": "Feature", "properties": { "内容": "医療法人コジマ会　介護老人保健施設みどり【介護老人保健施設】愛知県名古屋市緑区横吹町1907番12", "url": "https://www.kaigokensaku.mhlw.go.jp/23/index.php?action_kouhyou_detail_004_kani=true&JigyosyoCd=2351480005-00&ServiceCd=520&Type=search", "url2": "http://www.kojima-kai.or.jp" }, "geometry": { "type": "Point", "coordinates": [ 136.994409300000029, 35.0838647 ] } },
{ "type": "Feature", "properties": { "内容": "ひかり老人保健施設【介護老人保健施設】愛知県名古屋市緑区藤塚三丁目2802番地", "url": "https://www.kaigokensaku.mhlw.go.jp/23/index.php?action_kouhyou_detail_004_kani=true&JigyosyoCd=2351480013-00&ServiceCd=520&Type=search", "url2": "https://hikari.shimizukai.biz/" }, "geometry": { "type": "Point", "coordinates": [ 137.019979044180332, 35.094982135007967 ] } },
{ "type": "Feature", "properties": { "内容": "介護老人保健施設　星ヶ丘アメニティクラブ【介護老人保健施設】名古屋市名東区西山台701番地", "url": "https://www.kaigokensaku.mhlw.go.jp/23/index.php?action_kouhyou_detail_004_kani=true&JigyosyoCd=2351580010-00&ServiceCd=520&Type=search", "url2": "http://www.amenityclub.jp" }, "geometry": { "type": "Point", "coordinates": [ 136.999362900000051, 35.1534171 ] } },
{ "type": "Feature", "properties": { "内容": "老人保健施設いのこし【介護老人保健施設】愛知県名古屋市名東区猪子石原一丁目1501番地", "url": "https://www.kaigokensaku.mhlw.go.jp/23/index.php?action_kouhyou_detail_004_kani=true&JigyosyoCd=2351580028-00&ServiceCd=520&Type=search", "url2": "https://www.hakuhoukai-hp.or.jp/" }, "geometry": { "type": "Point", "coordinates": [ 136.991029600000047, 35.1932116 ] } },
{ "type": "Feature", "properties": { "内容": "介護老人保健施設ひきやま【介護老人保健施設】愛知県名古屋市名東区引山一丁目802番地", "url": "https://www.kaigokensaku.mhlw.go.jp/23/index.php?action_kouhyou_detail_004_kani=true&JigyosyoCd=2351580044-00&ServiceCd=520&Type=search", "url2": "https://www.hakuhoukai-hp.or.jp/" }, "geometry": { "type": "Point", "coordinates": [ 136.998162099999945, 35.190223300000014 ] } },
{ "type": "Feature", "properties": { "内容": "名東老人保健施設【介護老人保健施設】名古屋市名東区大針3-118", "url": "https://www.kaigokensaku.mhlw.go.jp/23/index.php?action_kouhyou_detail_004_kani=true&JigyosyoCd=2351580002-00&ServiceCd=520&Type=search", "url2": "http://www.keimeikai.or.jp" }, "geometry": { "type": "Point", "coordinates": [ 137.016005700000051, 35.1483656 ] } },
{ "type": "Feature", "properties": { "内容": "介護老人保健施設　リハビリス井の森【介護老人保健施設】愛知県名古屋市天白区井の森町18", "url": "https://www.kaigokensaku.mhlw.go.jp/23/index.php?action_kouhyou_detail_004_kani=true&JigyosyoCd=2351680042-00&ServiceCd=520&Type=search", "url2": "https://seiseikai-med.com/" }, "geometry": { "type": "Point", "coordinates": [ 136.95266259999994, 35.1069523 ] } },
{ "type": "Feature", "properties": { "内容": "医療法人並木会　介護老人保健施設メディコ平針【介護老人保健施設】名古屋市天白区荒池二丁目1201番地", "url": "https://www.kaigokensaku.mhlw.go.jp/23/index.php?action_kouhyou_detail_004_kani=true&JigyosyoCd=2351680026-00&ServiceCd=520&Type=search", "url2": "http://www.namiki.or.jp/hirabari" }, "geometry": { "type": "Point", "coordinates": [ 137.014125700000022, 35.1165808 ] } },
{ "type": "Feature", "properties": { "内容": "老人保健施設　サンタマリア【介護老人保健施設】愛知県名古屋市天白区鴻の巣一丁目1101番地", "url": "https://www.kaigokensaku.mhlw.go.jp/23/index.php?action_kouhyou_detail_004_kani=true&JigyosyoCd=2351680000-00&ServiceCd=520&Type=search", "url2": "http://www.santamaria.or.jp" }, "geometry": { "type": "Point", "coordinates": [ 136.997927, 35.1428492 ] } },
{ "type": "Feature", "properties": { "内容": "医療法人玉光会　天白老人保健施設【介護老人保健施設】名古屋市天白区池場2丁目１０１番地", "url": "https://www.kaigokensaku.mhlw.go.jp/23/index.php?action_kouhyou_detail_004_kani=true&JigyosyoCd=2351680034-00&ServiceCd=520&Type=search", "url2": "http://" }, "geometry": { "type": "Point", "coordinates": [ 136.977876499999979, 35.1222596 ] } },
{ "type": "Feature", "properties": { "内容": "老人保健施設しおがま【介護老人保健施設】愛知県名古屋市天白区大坪二丁目601番地", "url": "https://www.kaigokensaku.mhlw.go.jp/23/index.php?action_kouhyou_detail_004_kani=true&JigyosyoCd=2351680018-00&ServiceCd=520&Type=search", "url2": "http://www.yagotohp.jp/" }, "geometry": { "type": "Point", "coordinates": [ 136.979659199999986, 35.1367163 ] } },
{ "type": "Feature", "properties": { "内容": "医療法人さわらび会福祉村老人保健施設ジュゲム【介護老人保健施設】愛知県豊橋市野依町字山中１９番地の１", "url": "https://www.kaigokensaku.mhlw.go.jp/23/index.php?action_kouhyou_detail_004_kani=true&JigyosyoCd=2352080002-00&ServiceCd=520&Type=search", "url2": "http://www.sawarabi.or.jp/" }, "geometry": { "type": "Point", "coordinates": [ 137.401253699999984, 34.700247 ] } },
{ "type": "Feature", "properties": { "内容": "光生会介護老人保健施設赤岩荘【介護老人保健施設】愛知県豊橋市多米町大門１０", "url": "https://www.kaigokensaku.mhlw.go.jp/23/index.php?action_kouhyou_detail_004_kani=true&JigyosyoCd=2352080028-00&ServiceCd=520&Type=search", "url2": "http://www.koseikai-hp.or.jp/" }, "geometry": { "type": "Point", "coordinates": [ 137.445117, 34.7637962 ] } },
{ "type": "Feature", "properties": { "内容": "老人保健施設明陽苑【介護老人保健施設】愛知県豊橋市八通町６４番地の３", "url": "https://www.kaigokensaku.mhlw.go.jp/23/index.php?action_kouhyou_detail_004_kani=true&JigyosyoCd=2352080036-00&ServiceCd=520&Type=search", "url2": "http://www.meiyokai.or.jp" }, "geometry": { "type": "Point", "coordinates": [ 137.379795300000069, 34.7574145 ] } },
{ "type": "Feature", "properties": { "内容": "老人保健施設ベルヴューハイツ【介護老人保健施設】愛知県豊橋市青竹町字青竹９６番地", "url": "https://www.kaigokensaku.mhlw.go.jp/23/index.php?action_kouhyou_detail_004_kani=true&JigyosyoCd=2352080044-00&ServiceCd=520&Type=search", "url2": "i-f.or.jp" }, "geometry": { "type": "Point", "coordinates": [ 137.346236500000032, 34.7625737 ] } },
{ "type": "Feature", "properties": { "内容": "介護老人保健施設　豊橋ケアセンター【介護老人保健施設】愛知県豊橋市嵩山町字松田５５番地", "url": "https://www.kaigokensaku.mhlw.go.jp/23/index.php?action_kouhyou_detail_004_kani=true&JigyosyoCd=2352080051-00&ServiceCd=520&Type=search", "url2": "http://" }, "geometry": { "type": "Point", "coordinates": [ 137.4804064, 34.8005817 ] } },
{ "type": "Feature", "properties": { "内容": "介護老人保健施設　みのり【介護老人保健施設】愛知県豊橋市大村町字山所77番地", "url": "https://www.kaigokensaku.mhlw.go.jp/23/index.php?action_kouhyou_detail_004_kani=true&JigyosyoCd=2352080069-00&ServiceCd=520&Type=search", "url2": "http://www.gonda-ns.com/minori" }, "geometry": { "type": "Point", "coordinates": [ 137.391557299999931, 34.7889161 ] } },
{ "type": "Feature", "properties": { "内容": "老人保健施設尽誠苑【介護老人保健施設】愛知県豊橋市大脇町大脇ノ谷74番54", "url": "https://www.kaigokensaku.mhlw.go.jp/23/index.php?action_kouhyou_detail_004_kani=true&JigyosyoCd=2352080077-00&ServiceCd=520&Type=search", "url2": "https://www.jinseien.jp" }, "geometry": { "type": "Point", "coordinates": [ 137.4544326, 34.730328 ] } },
{ "type": "Feature", "properties": { "内容": "三田介護老人保健施設【介護老人保健施設】愛知県岡崎市欠町字三田田北通１３番地１", "url": "https://www.kaigokensaku.mhlw.go.jp/23/index.php?action_kouhyou_detail_004_kani=true&JigyosyoCd=2352180018-00&ServiceCd=520&Type=search", "url2": "http://www.toyookakai.or.jp" }, "geometry": { "type": "Point", "coordinates": [ 137.190152771688844, 34.958724042788695 ] } },
{ "type": "Feature", "properties": { "内容": "医療法人大朋会岡崎老人保健施設　スクエアガーデン【介護老人保健施設】愛知県岡崎市羽根町中田３４", "url": "https://www.kaigokensaku.mhlw.go.jp/23/index.php?action_kouhyou_detail_004_kani=true&JigyosyoCd=2352180026-00&ServiceCd=520&Type=search", "url2": "http://www.taihoukai.or.jp" }, "geometry": { "type": "Point", "coordinates": [ 137.158951, 34.9302748 ] } },
{ "type": "Feature", "properties": { "内容": "滝町介護老人保健施設【介護老人保健施設】岡崎市滝町字十楽72番地", "url": "https://www.kaigokensaku.mhlw.go.jp/23/index.php?action_kouhyou_detail_004_kani=true&JigyosyoCd=2352180067-00&ServiceCd=520&Type=search", "url2": "http://www.toyookakai.or.jp" }, "geometry": { "type": "Point", "coordinates": [ 137.189309349073824, 34.992596746384223 ] } },
{ "type": "Feature", "properties": { "内容": "介護老人保健施設ヴィラ葵【介護老人保健施設】愛知県岡崎市竜泉寺町黒土５５番地", "url": "https://www.kaigokensaku.mhlw.go.jp/23/index.php?action_kouhyou_detail_004_kani=true&JigyosyoCd=2352180075-00&ServiceCd=520&Type=search", "url2": "http://www.villa-aoi.com/" }, "geometry": { "type": "Point", "coordinates": [ 137.198189299999967, 34.9092198 ] } },
{ "type": "Feature", "properties": { "内容": "医療法人　鉄友会　介護老人保健施設さくらの里【介護老人保健施設】愛知県岡崎市中岡崎町2番地25", "url": "https://www.kaigokensaku.mhlw.go.jp/23/index.php?action_kouhyou_detail_004_kani=true&JigyosyoCd=2352180042-00&ServiceCd=520&Type=search", "url2": "http://www.sakuranosato.com" }, "geometry": { "type": "Point", "coordinates": [ 137.154825399999936, 34.9575916 ] } },
{ "type": "Feature", "properties": { "内容": "介護老人保健施設　羽栗の里【介護老人保健施設】愛知県岡崎市羽栗町字田中　26・27・30番合併地", "url": "https://www.kaigokensaku.mhlw.go.jp/23/index.php?action_kouhyou_detail_004_kani=true&JigyosyoCd=2352180034-00&ServiceCd=520&Type=search", "url2": "http://hagurikai.com/" }, "geometry": { "type": "Point", "coordinates": [ 137.235782500000028, 34.8944571 ] } },
{ "type": "Feature", "properties": { "内容": "医療法人　鉄友会　介護老人保健施設　さくら大樹【介護老人保健施設】愛知県岡崎市大樹寺3丁目9番地１", "url": "https://www.kaigokensaku.mhlw.go.jp/23/index.php?action_kouhyou_detail_004_kani=true&JigyosyoCd=2352180059-00&ServiceCd=520&Type=search", "url2": "http://www.sakuradaijyu.com" }, "geometry": { "type": "Point", "coordinates": [ 137.1612189, 34.9825643 ] } },
{ "type": "Feature", "properties": { "内容": "老人保健施設アウン【介護老人保健施設】愛知県一宮市浅井町尾関字同者165", "url": "https://www.kaigokensaku.mhlw.go.jp/23/index.php?action_kouhyou_detail_004_kani=true&JigyosyoCd=2352280008-00&ServiceCd=520&Type=search", "url2": "http://www.daiyukai.or.jp/" }, "geometry": { "type": "Point", "coordinates": [ 136.832467700000052, 35.349731 ] } },
{ "type": "Feature", "properties": { "内容": "介護老人保健施設　ピエタ【介護老人保健施設】愛知県一宮市浅井町前野字薬師裏５３番地", "url": "https://www.kaigokensaku.mhlw.go.jp/23/index.php?action_kouhyou_detail_004_kani=true&JigyosyoCd=2352280016-00&ServiceCd=520&Type=search", "url2": "http://wwws.raikoukai.or.jp" }, "geometry": { "type": "Point", "coordinates": [ 136.834627397599291, 35.34509362110785 ] } },
{ "type": "Feature", "properties": { "内容": "老人保健施設やすらぎ【介護老人保健施設】愛知県一宮市奥町字下口西74番地の1", "url": "https://www.kaigokensaku.mhlw.go.jp/23/index.php?action_kouhyou_detail_004_kani=true&JigyosyoCd=2352280024-00&ServiceCd=520&Type=search", "url2": "http://www.anzu.or.jp" }, "geometry": { "type": "Point", "coordinates": [ 136.756612427612708, 35.328333192752623 ] } },
{ "type": "Feature", "properties": { "内容": "医療法人泰玄会　介護老人保健施設みなみ【介護老人保健施設】愛知県一宮市上祖父江字小稲葉１番地", "url": "https://www.kaigokensaku.mhlw.go.jp/23/index.php?action_kouhyou_detail_004_kani=true&JigyosyoCd=2352280057-00&ServiceCd=520&Type=search", "url2": "http://www.taigenkai.or.jp" }, "geometry": { "type": "Point", "coordinates": [ 136.718499, 35.2745263 ] } },
{ "type": "Feature", "properties": { "内容": "泰玄会老人保健施設【介護老人保健施設】愛知県一宮市小信中島字仁井西５６番地３", "url": "https://www.kaigokensaku.mhlw.go.jp/23/index.php?action_kouhyou_detail_004_kani=true&JigyosyoCd=2353780006-00&ServiceCd=520&Type=search", "url2": "http://www.taigenkai.or.jp" }, "geometry": { "type": "Point", "coordinates": [ 136.752043299999968, 35.3092723 ] } },
{ "type": "Feature", "properties": { "内容": "介護老人保健施設サザン一宮【介護老人保健施設】愛知県一宮市北小渕字道上55番地1", "url": "https://www.kaigokensaku.mhlw.go.jp/23/index.php?action_kouhyou_detail_004_kani=true&JigyosyoCd=2352280065-00&ServiceCd=520&Type=search", "url2": "http://www.kouyu-kai.or.jp/" }, "geometry": { "type": "Point", "coordinates": [ 136.8298241, 35.3040352 ] } },
{ "type": "Feature", "properties": { "内容": "医療法人尾張健友会　介護老人保健施設ちあき【介護老人保健施設】愛知県一宮市丹陽町重吉字新田裏東切1077-1介護老人保健施設ちあき", "url": "https://www.kaigokensaku.mhlw.go.jp/23/index.php?action_kouhyou_detail_004_kani=true&JigyosyoCd=2352280040-00&ServiceCd=520&Type=search", "url2": "http://www.chiaki.com/rouken/" }, "geometry": { "type": "Point", "coordinates": [ 136.847973575671375, 35.289298061534325 ] } },
{ "type": "Feature", "properties": { "内容": "老人保健施設　すこやか荘【介護老人保健施設】愛知県瀬戸市すみれ台４丁目１７番地の７", "url": "https://www.kaigokensaku.mhlw.go.jp/23/index.php?action_kouhyou_detail_004_kani=true&JigyosyoCd=2352380006-00&ServiceCd=520&Type=search", "url2": "http://www.kouseikai2231.jp" }, "geometry": { "type": "Point", "coordinates": [ 137.075588499999981, 35.2414028 ] } },
{ "type": "Feature", "properties": { "内容": "介護老人保健施設　LA・LA・LA【介護老人保健施設】愛知県半田市更生町一丁目123-13", "url": "https://www.kaigokensaku.mhlw.go.jp/23/index.php?action_kouhyou_detail_004_kani=true&JigyosyoCd=2352480004-00&ServiceCd=520&Type=search", "url2": "http://www.nakanokai.com" }, "geometry": { "type": "Point", "coordinates": [ 136.926662, 34.892261799999986 ] } },
{ "type": "Feature", "properties": { "内容": "医療法人宏友会　老人保健施設ゆうゆうの里【介護老人保健施設】愛知県半田市南大矢知町２－２１－１", "url": "https://www.kaigokensaku.mhlw.go.jp/23/index.php?action_kouhyou_detail_004_kani=true&JigyosyoCd=2352480012-00&ServiceCd=520&Type=search", "url2": "https://www.i-koyu-kaigo.com/facilities/roken-yuyu/" }, "geometry": { "type": "Point", "coordinates": [ 136.943029799405679, 34.925079555713886 ] } },
{ "type": "Feature", "properties": { "内容": "小規模介護老人保健施設ゆうハウス【介護老人保健施設】愛知県半田市横川町２－６８", "url": "https://www.kaigokensaku.mhlw.go.jp/23/index.php?action_kouhyou_detail_004_kani=true&JigyosyoCd=2352480020-00&ServiceCd=520&Type=search", "url2": "https://www.i-koyu-kaigo.com/facilities/roken-yuhouse/" }, "geometry": { "type": "Point", "coordinates": [ 136.943375699999933, 34.9261624 ] } },
{ "type": "Feature", "properties": { "内容": "介護老人保健施設　結生【介護老人保健施設】半田市瑞穂町10丁目１７番地の２", "url": "https://www.kaigokensaku.mhlw.go.jp/23/index.php?action_kouhyou_detail_004_kani=true&JigyosyoCd=2352480038-00&ServiceCd=520&Type=search", "url2": null }, "geometry": { "type": "Point", "coordinates": [ 136.943613300000038, 34.8908626 ] } },
{ "type": "Feature", "properties": { "内容": "介護老人保健施設LA・LA・LA　ﾕﾆｯﾄ型【介護老人保健施設】愛知県半田市更生町一丁目123-13", "url": "https://www.kaigokensaku.mhlw.go.jp/23/index.php?action_kouhyou_detail_004_kani=true&JigyosyoCd=2352480046-00&ServiceCd=520&Type=search", "url2": "http://www.nakanokai.com" }, "geometry": { "type": "Point", "coordinates": [ 136.926662, 34.892261799999986 ] } },
{ "type": "Feature", "properties": { "内容": "特定医療法人晴和会　老人保健施設　忘れな草【介護老人保健施設】愛知県春日井市細野町３２４６－３６８", "url": "https://www.kaigokensaku.mhlw.go.jp/23/index.php?action_kouhyou_detail_004_kani=true&JigyosyoCd=2352580027-00&ServiceCd=520&Type=search", "url2": "http://www.mc-seiwa.com" }, "geometry": { "type": "Point", "coordinates": [ 137.056854700000031, 35.2997591 ] } },
{ "type": "Feature", "properties": { "内容": "介護老人保健施設　グレイスフル春日井【介護老人保健施設】愛知県春日井市桃山町字北山5079-16介護老人保健施設　グレイスフル春日井", "url": "https://www.kaigokensaku.mhlw.go.jp/23/index.php?action_kouhyou_detail_004_kani=true&JigyosyoCd=2352580043-00&ServiceCd=520&Type=search", "url2": "http://www.e-sunlife.or.jp" }, "geometry": { "type": "Point", "coordinates": [ 136.966110406993039, 35.284600447136512 ] } },
{ "type": "Feature", "properties": { "内容": "介護老人保健施設エスペラル春日井【介護老人保健施設】愛知県春日井市下原町字萱場1948番5", "url": "https://www.kaigokensaku.mhlw.go.jp/23/index.php?action_kouhyou_detail_004_kani=true&JigyosyoCd=2352580050-00&ServiceCd=520&Type=search", "url2": "https://esp.iseikaihp.com/fcl/esp-k/access.html" }, "geometry": { "type": "Point", "coordinates": [ 136.984154100000012, 35.274154200000034 ] } },
{ "type": "Feature", "properties": { "内容": "パーム春日井【介護老人保健施設】愛知県春日井市鳥居松町2-308", "url": "https://www.kaigokensaku.mhlw.go.jp/23/index.php?action_kouhyou_detail_004_kani=true&JigyosyoCd=2352580001-00&ServiceCd=520&Type=search", "url2": "http://palm-kasugai.jp/" }, "geometry": { "type": "Point", "coordinates": [ 136.970932299999959, 35.2419562 ] } },
{ "type": "Feature", "properties": { "内容": "介護老人保健施設　メディコ春日井【介護老人保健施設】愛知県春日井市坂下町5丁目1221番１", "url": "https://www.kaigokensaku.mhlw.go.jp/23/index.php?action_kouhyou_detail_004_kani=true&JigyosyoCd=2352580019-00&ServiceCd=520&Type=search", "url2": "http://www.namiki.or.jp/kasugai/" }, "geometry": { "type": "Point", "coordinates": [ 137.026313800000025, 35.2871422 ] } },
{ "type": "Feature", "properties": { "内容": "介護老人保健施設おとわの杜【介護老人保健施設】愛知県豊川市赤坂町東山12番地の1", "url": "https://www.kaigokensaku.mhlw.go.jp/23/index.php?action_kouhyou_detail_004_kani=true&JigyosyoCd=2356580007-00&ServiceCd=520&Type=search", "url2": "http://www.shinaikai1936med.or.jp/" }, "geometry": { "type": "Point", "coordinates": [ 137.316532, 34.8544175 ] } },
{ "type": "Feature", "properties": { "内容": "医療法人啓仁会　介護老人保健施設　たんぽぽ【介護老人保健施設】愛知県豊川市野口町道下３１番地", "url": "https://www.kaigokensaku.mhlw.go.jp/23/index.php?action_kouhyou_detail_004_kani=true&JigyosyoCd=2352680025-00&ServiceCd=520&Type=search", "url2": "https://www.toyokawa-tanpopo.jp/" }, "geometry": { "type": "Point", "coordinates": [ 137.356882499999983, 34.829566 ] } },
{ "type": "Feature", "properties": { "内容": "豊川老人保健施設ケアリゾートオリーブ【介護老人保健施設】愛知県豊川市平尾町諏訪下101番地", "url": "https://www.kaigokensaku.mhlw.go.jp/23/index.php?action_kouhyou_detail_004_kani=true&JigyosyoCd=2352680017-00&ServiceCd=520&Type=search", "url2": "http://www.seishunkai.or.jp/olive/" }, "geometry": { "type": "Point", "coordinates": [ 137.3515764, 34.8540659 ] } },
{ "type": "Feature", "properties": { "内容": "老人保健施設　第一アメニティつしま【介護老人保健施設】愛知県津島市東柳原町3丁目47-1", "url": "https://www.kaigokensaku.mhlw.go.jp/23/index.php?action_kouhyou_detail_004_kani=true&JigyosyoCd=2352780007-00&ServiceCd=520&Type=search", "url2": "http://www.sanzenkai.or.jp/" }, "geometry": { "type": "Point", "coordinates": [ 136.737639100000024, 35.1792482 ] } },
{ "type": "Feature", "properties": { "内容": "老人保健施設　六寿苑【介護老人保健施設】愛知県津島市南新開町１丁目１１２番地１", "url": "https://www.kaigokensaku.mhlw.go.jp/23/index.php?action_kouhyou_detail_004_kani=true&JigyosyoCd=2352780023-00&ServiceCd=520&Type=search", "url2": "http://www.rokujyukai.com/" }, "geometry": { "type": "Point", "coordinates": [ 136.750085600000034, 35.167689 ] } },
{ "type": "Feature", "properties": { "内容": "介護老人保健施設パビリオン【介護老人保健施設】愛知県津島市葉苅町字綿掛56番地", "url": "https://www.kaigokensaku.mhlw.go.jp/23/index.php?action_kouhyou_detail_004_kani=true&JigyosyoCd=2352780031-00&ServiceCd=520&Type=search", "url2": "http://www.sanzenkai.or.jp/" }, "geometry": { "type": "Point", "coordinates": [ 136.76072, 35.1915497 ] } },
{ "type": "Feature", "properties": { "内容": "ユニット型介護老人保健施設第２六寿苑【介護老人保健施設】愛知県津島市杁前町５丁目３１番地１", "url": "https://www.kaigokensaku.mhlw.go.jp/23/index.php?action_kouhyou_detail_004_kani=true&JigyosyoCd=2352780049-00&ServiceCd=520&Type=search", "url2": "http://www.rokujyukai.com/" }, "geometry": { "type": "Point", "coordinates": [ 136.746030499999961, 35.1655781 ] } },
{ "type": "Feature", "properties": { "内容": "介護老人保健施設第２六寿苑【介護老人保健施設】愛知県津島市杁前町５丁目３１番地１", "url": "https://www.kaigokensaku.mhlw.go.jp/23/index.php?action_kouhyou_detail_004_kani=true&JigyosyoCd=2352780056-00&ServiceCd=520&Type=search", "url2": "http://www.rokujyukai.com/" }, "geometry": { "type": "Point", "coordinates": [ 136.746030499999961, 35.165578100000019 ] } },
{ "type": "Feature", "properties": { "内容": "医療法人十喜会　老人保健施設向陽【介護老人保健施設】愛知県碧南市向陽町4丁目31番地", "url": "https://www.kaigokensaku.mhlw.go.jp/23/index.php?action_kouhyou_detail_004_kani=true&JigyosyoCd=2352880013-00&ServiceCd=520&Type=search", "url2": "http://www.jukikai.or.jp/" }, "geometry": { "type": "Point", "coordinates": [ 136.9964807, 34.88539 ] } },
{ "type": "Feature", "properties": { "内容": "老人保健施設ひまわり【介護老人保健施設】愛知県碧南市三角町１丁目７番地１", "url": "https://www.kaigokensaku.mhlw.go.jp/23/index.php?action_kouhyou_detail_004_kani=true&JigyosyoCd=2352880005-00&ServiceCd=520&Type=search", "url2": "https://aiseikan.xsrv.jp/01/?page_id=512" }, "geometry": { "type": "Point", "coordinates": [ 137.021922200000063, 34.8819527 ] } },
{ "type": "Feature", "properties": { "内容": "介護老人保健施設　ハビリス一ツ木【介護老人保健施設】愛知県刈谷市一ツ木町4丁目41番地4", "url": "https://www.kaigokensaku.mhlw.go.jp/23/index.php?action_kouhyou_detail_004_kani=true&JigyosyoCd=2352980003-00&ServiceCd=520&Type=search", "url2": "http://www.toyota-kai.or.jp/" }, "geometry": { "type": "Point", "coordinates": [ 137.023010099999965, 35.0139862 ] } },
{ "type": "Feature", "properties": { "内容": "介護老人保健施設かりや【介護老人保健施設】愛知県刈谷市小垣江町新庄３３番地", "url": "https://www.kaigokensaku.mhlw.go.jp/23/index.php?action_kouhyou_detail_004_kani=true&JigyosyoCd=2352980011-00&ServiceCd=520&Type=search", "url2": "https://www.kojikai-med-corp.com" }, "geometry": { "type": "Point", "coordinates": [ 137.002596199999971, 34.9741183 ] } },
{ "type": "Feature", "properties": { "内容": "老人保健施設ウェルビー【介護老人保健施設】愛知県四郷町宮下河原38-1", "url": "https://www.kaigokensaku.mhlw.go.jp/23/index.php?action_kouhyou_detail_004_kani=true&JigyosyoCd=2353080027-00&ServiceCd=520&Type=search", "url2": "http://www.wellbe.or.jp/" }, "geometry": { "type": "Point", "coordinates": [ 137.1611933, 35.1274641 ] } },
{ "type": "Feature", "properties": { "内容": "介護老人保健施設フジオカ【介護老人保健施設】愛知県豊田市御作町振ケ洞1157-1", "url": "https://www.kaigokensaku.mhlw.go.jp/23/index.php?action_kouhyou_detail_004_kani=true&JigyosyoCd=2356180014-00&ServiceCd=520&Type=search", "url2": "http://care-net.biz/23/ro-kenfujioka/" }, "geometry": { "type": "Point", "coordinates": [ 137.242160917474394, 35.181272187404758 ] } },
{ "type": "Feature", "properties": { "内容": "トヨタ自動車健康保険組合　老人保健施設　ジョイステイ【介護老人保健施設】愛知県豊田市平和町１丁目１番地", "url": "https://www.kaigokensaku.mhlw.go.jp/23/index.php?action_kouhyou_detail_004_kani=true&JigyosyoCd=2353080019-00&ServiceCd=520&Type=search", "url2": "https://www.joystay.jp/" }, "geometry": { "type": "Point", "coordinates": [ 137.17661720000001, 35.0574788 ] } },
{ "type": "Feature", "properties": { "内容": "豊田老人保健施設【介護老人保健施設】愛知県豊田市川田町1-36", "url": "https://www.kaigokensaku.mhlw.go.jp/23/index.php?action_kouhyou_detail_004_kani=true&JigyosyoCd=2353080001-00&ServiceCd=520&Type=search", "url2": "http://www.jkknet.or.jp/toyoro/" }, "geometry": { "type": "Point", "coordinates": [ 137.171285300000022, 35.0967629 ] } },
{ "type": "Feature", "properties": { "内容": "老人保健施設かずえの郷【介護老人保健施設】愛知県豊田市和会町東郷148番地", "url": "https://www.kaigokensaku.mhlw.go.jp/23/index.php?action_kouhyou_detail_004_kani=true&JigyosyoCd=2353080035-00&ServiceCd=520&Type=search", "url2": "http://www.kazuenosato.jp/" }, "geometry": { "type": "Point", "coordinates": [ 137.113971399999969, 35.0034063 ] } },
{ "type": "Feature", "properties": { "内容": "介護老人保健施設さなげ【介護老人保健施設】愛知県豊田市浄水町原山1番地54", "url": "https://www.kaigokensaku.mhlw.go.jp/23/index.php?action_kouhyou_detail_004_kani=true&JigyosyoCd=2353080043-00&ServiceCd=520&Type=search", "url2": "https://sanage.jp/" }, "geometry": { "type": "Point", "coordinates": [ 137.14679, 35.1250226 ] } },
{ "type": "Feature", "properties": { "内容": "ユニット型介護老人保健施設さなげ【介護老人保健施設】愛知県豊田市浄水町原山1番地54", "url": "https://www.kaigokensaku.mhlw.go.jp/23/index.php?action_kouhyou_detail_004_kani=true&JigyosyoCd=2353080068-00&ServiceCd=520&Type=search", "url2": "http://www.sanage.jp" }, "geometry": { "type": "Point", "coordinates": [ 137.14679, 35.1250226 ] } },
{ "type": "Feature", "properties": { "内容": "高岡介護老人保健施設【介護老人保健施設】愛知県豊田市広田町西山７５番地", "url": "https://www.kaigokensaku.mhlw.go.jp/23/index.php?action_kouhyou_detail_004_kani=true&JigyosyoCd=2353080050-00&ServiceCd=520&Type=search", "url2": "https://takaoka-rouken.jp/" }, "geometry": { "type": "Point", "coordinates": [ 137.10868830000004, 35.04254430000001 ] } },
{ "type": "Feature", "properties": { "内容": "医療法人安祥会　安城老人保健施設【介護老人保健施設】愛知県安城市法連町8番地1安城老人保健施設", "url": "https://www.kaigokensaku.mhlw.go.jp/23/index.php?action_kouhyou_detail_004_kani=true&JigyosyoCd=2353180009-00&ServiceCd=520&Type=search", "url2": "http://ansyokai.or.jp/rouken/" }, "geometry": { "type": "Point", "coordinates": [ 137.093306900000016, 34.9551979 ] } },
{ "type": "Feature", "properties": { "内容": "介護老人保健施設あおみ【介護老人保健施設】愛知県安城市安城町東広畔28番地", "url": "https://www.kaigokensaku.mhlw.go.jp/23/index.php?action_kouhyou_detail_004_kani=true&JigyosyoCd=2353180017-00&ServiceCd=520&Type=search", "url2": "http://www.aomi-anjo.jp" }, "geometry": { "type": "Point", "coordinates": [ 137.07771159999993, 34.940113 ] } },
{ "type": "Feature", "properties": { "内容": "介護老人保健施設さとまち【介護老人保健施設】愛知県安城市里町畑下62番地", "url": "https://www.kaigokensaku.mhlw.go.jp/23/index.php?action_kouhyou_detail_004_kani=true&JigyosyoCd=2353180041-00&ServiceCd=520&Type=search", "url2": "https://www.yh-satomachi.jp" }, "geometry": { "type": "Point", "coordinates": [ 137.083751900000038, 34.9974556 ] } },
{ "type": "Feature", "properties": { "内容": "介護老人保健施設ユニットさとまち【介護老人保健施設】愛知県安城市里町畑下62番地", "url": "https://www.kaigokensaku.mhlw.go.jp/23/index.php?action_kouhyou_detail_004_kani=true&JigyosyoCd=2353180058-00&ServiceCd=520&Type=search", "url2": "http://yh-satomachi.jp/" }, "geometry": { "type": "Point", "coordinates": [ 137.083784086508217, 34.99758743221274 ] } },
{ "type": "Feature", "properties": { "内容": "にしお老人保健施設　彩り【介護老人保健施設】愛知県西尾市江原町西柄12", "url": "https://www.kaigokensaku.mhlw.go.jp/23/index.php?action_kouhyou_detail_004_kani=true&JigyosyoCd=2353280007-00&ServiceCd=520&Type=search", "url2": "httpｓ://www.jhn.or.jp/" }, "geometry": { "type": "Point", "coordinates": [ 137.092226679064879, 34.868212196123658 ] } },
{ "type": "Feature", "properties": { "内容": "介護老人保健施設いずみ【介護老人保健施設】愛知県西尾市和泉町１番地８", "url": "https://www.kaigokensaku.mhlw.go.jp/23/index.php?action_kouhyou_detail_004_kani=true&JigyosyoCd=2353280023-00&ServiceCd=520&Type=search", "url2": "https://rouken-izumi.jp/" }, "geometry": { "type": "Point", "coordinates": [ 137.055680700000039, 34.8675609 ] } },
{ "type": "Feature", "properties": { "内容": "介護老人保健施設やまお【介護老人保健施設】愛知県西尾市徳次町明大寺144番地５", "url": "https://www.kaigokensaku.mhlw.go.jp/23/index.php?action_kouhyou_detail_004_kani=true&JigyosyoCd=2353280031-00&ServiceCd=520&Type=search", "url2": "http://www.yamaohospital.or.jp/care" }, "geometry": { "type": "Point", "coordinates": [ 137.072484799999984, 34.8640115 ] } },
{ "type": "Feature", "properties": { "内容": "介護老人保健施設　高須ケアガーデン【介護老人保健施設】愛知県西尾市一色町赤羽上郷中120番地", "url": "https://www.kaigokensaku.mhlw.go.jp/23/index.php?action_kouhyou_detail_004_kani=true&JigyosyoCd=2355980000-00&ServiceCd=520&Type=search", "url2": "https://takasu-hp.or.jp" }, "geometry": { "type": "Point", "coordinates": [ 137.018545499999959, 34.8193683 ] } },
{ "type": "Feature", "properties": { "内容": "介護老人保健施設らくらく一色【介護老人保健施設】愛知県西尾市一色町松木島丸山54番地", "url": "https://www.kaigokensaku.mhlw.go.jp/23/index.php?action_kouhyou_detail_004_kani=true&JigyosyoCd=2355980018-00&ServiceCd=520&Type=search", "url2": "http://fukamijyuzen.or.jp" }, "geometry": { "type": "Point", "coordinates": [ 137.0423197, 34.7936975 ] } },
{ "type": "Feature", "properties": { "内容": "米津老人保健施設【介護老人保健施設】愛知県西尾市桜町４丁目３１番地", "url": "https://www.kaigokensaku.mhlw.go.jp/23/index.php?action_kouhyou_detail_004_kani=true&JigyosyoCd=2353280015-00&ServiceCd=520&Type=search", "url2": "http://www.yonezu.jp" }, "geometry": { "type": "Point", "coordinates": [ 137.061754699999938, 34.8814148 ] } },
{ "type": "Feature", "properties": { "内容": "医療法人北辰会　老人保健施設　みらいあ【介護老人保健施設】愛知県蒲郡市栄町11-13", "url": "https://www.kaigokensaku.mhlw.go.jp/23/index.php?action_kouhyou_detail_004_kani=true&JigyosyoCd=2353380005-00&ServiceCd=520&Type=search", "url2": "http://www.miraia.or.jp" }, "geometry": { "type": "Point", "coordinates": [ 137.216775, 34.8238035 ] } },
{ "type": "Feature", "properties": { "内容": "医療法人　幸会　介護老人保健施設　五井の里【介護老人保健施設】愛知県蒲郡市五井町殿海道１１－１", "url": "https://www.kaigokensaku.mhlw.go.jp/23/index.php?action_kouhyou_detail_004_kani=true&JigyosyoCd=2353380013-00&ServiceCd=520&Type=search", "url2": "https://saiwaikai-goinosato.jp/" }, "geometry": { "type": "Point", "coordinates": [ 137.2431133, 34.8346 ] } },
{ "type": "Feature", "properties": { "内容": "介護老人保健施設　ほほえみ【介護老人保健施設】愛知県犬山市大字前原西三丁目３１番１", "url": "https://www.kaigokensaku.mhlw.go.jp/23/index.php?action_kouhyou_detail_004_kani=true&JigyosyoCd=2353480011-00&ServiceCd=520&Type=search", "url2": "http://www.hohoemi-kaigo.com" }, "geometry": { "type": "Point", "coordinates": [ 136.95999310000002, 35.3634652 ] } },
{ "type": "Feature", "properties": { "内容": "ユニット型　介護老人保健施設　ほほえみ【介護老人保健施設】愛知県犬山市大字前原西三丁目３１番１", "url": "https://www.kaigokensaku.mhlw.go.jp/23/index.php?action_kouhyou_detail_004_kani=true&JigyosyoCd=2353480029-00&ServiceCd=520&Type=search", "url2": "http://www.hohoemi-kaigo.com" }, "geometry": { "type": "Point", "coordinates": [ 136.9600153, 35.3634763 ] } },
{ "type": "Feature", "properties": { "内容": "老人保健施設フローレンス犬山【介護老人保健施設】愛知県犬山市大字羽黒新田字下蝉屋7-1", "url": "https://www.kaigokensaku.mhlw.go.jp/23/index.php?action_kouhyou_detail_004_kani=true&JigyosyoCd=2353480003-00&ServiceCd=520&Type=search", "url2": "http://www.keiyu-kai.or.jp/" }, "geometry": { "type": "Point", "coordinates": [ 136.9488007, 35.3460049 ] } },
{ "type": "Feature", "properties": { "内容": "医療法人　健幸会　老人保健施設　さざんかの丘【介護老人保健施設】愛知県常滑市字大窯１１４番地の２", "url": "https://www.kaigokensaku.mhlw.go.jp/23/index.php?action_kouhyou_detail_004_kani=true&JigyosyoCd=2353580000-00&ServiceCd=520&Type=search", "url2": "http://www.i-kenkoukai.com" }, "geometry": { "type": "Point", "coordinates": [ 136.8709407, 34.8934059 ] } },
{ "type": "Feature", "properties": { "内容": "介護老人保健施設はじまり【介護老人保健施設】愛知県江南市上奈良町旭28番地", "url": "https://www.kaigokensaku.mhlw.go.jp/23/index.php?action_kouhyou_detail_004_kani=true&JigyosyoCd=2353680016-00&ServiceCd=520&Type=search", "url2": "http://www.sato-hp.jp/hajimari" }, "geometry": { "type": "Point", "coordinates": [ 136.860454, 35.3305308 ] } },
{ "type": "Feature", "properties": { "内容": "介護老人保健施設フラワーコート江南【介護老人保健施設】愛知県江南市河野町五十間４番地", "url": "https://www.kaigokensaku.mhlw.go.jp/23/index.php?action_kouhyou_detail_004_kani=true&JigyosyoCd=2353680024-00&ServiceCd=520&Type=search", "url2": "http://sun-vision.or.jp/" }, "geometry": { "type": "Point", "coordinates": [ 136.838529200000039, 35.346863 ] } },
{ "type": "Feature", "properties": { "内容": "医療法人双寿会　老人保健施設　豊寿苑【介護老人保健施設】愛知県小牧市中央二丁目185番地", "url": "https://www.kaigokensaku.mhlw.go.jp/23/index.php?action_kouhyou_detail_004_kani=true&JigyosyoCd=2353880004-00&ServiceCd=520&Type=search", "url2": "http://www.soujukai.or.jp/houjuen/" }, "geometry": { "type": "Point", "coordinates": [ 136.928416700000071, 35.2876278 ] } },
{ "type": "Feature", "properties": { "内容": "老人保健施設　こまきの森【介護老人保健施設】愛知県小牧市大字三ツ渕１９４５番地１", "url": "https://www.kaigokensaku.mhlw.go.jp/23/index.php?action_kouhyou_detail_004_kani=true&JigyosyoCd=2353880012-00&ServiceCd=520&Type=search", "url2": "http://" }, "geometry": { "type": "Point", "coordinates": [ 136.892583300000069, 35.3033639 ] } },
{ "type": "Feature", "properties": { "内容": "介護老人保健施設　ベストライフ祖父江【介護老人保健施設】愛知県稲沢市祖父江町四貫東堤外1201-70", "url": "https://www.kaigokensaku.mhlw.go.jp/23/index.php?action_kouhyou_detail_004_kani=true&JigyosyoCd=2353980028-00&ServiceCd=520&Type=search", "url2": null }, "geometry": { "type": "Point", "coordinates": [ 136.70644029999994, 35.2487266 ] } },
{ "type": "Feature", "properties": { "内容": "医療法人回精会　稲沢老人保健施設第１憩の泉【介護老人保健施設】愛知県稲沢市駅前２丁目２７番３号", "url": "https://www.kaigokensaku.mhlw.go.jp/23/index.php?action_kouhyou_detail_004_kani=true&JigyosyoCd=2353980002-00&ServiceCd=520&Type=search", "url2": "https://www.ikoi-izumi.jp/" }, "geometry": { "type": "Point", "coordinates": [ 136.820887, 35.2497914 ] } },
{ "type": "Feature", "properties": { "内容": "医療法人回精会　稲沢老人保健施設第２憩の泉【介護老人保健施設】愛知県稲沢市駅前２丁目２５番１５号", "url": "https://www.kaigokensaku.mhlw.go.jp/23/index.php?action_kouhyou_detail_004_kani=true&JigyosyoCd=2353980010-00&ServiceCd=520&Type=search", "url2": "https://www.ikoi-izumi.jp/" }, "geometry": { "type": "Point", "coordinates": [ 136.821923, 35.2500941 ] } },
{ "type": "Feature", "properties": { "内容": "介護老人保健施設　鳳来ケアセンター【介護老人保健施設】愛知県新城市下吉田字下田18番地の3", "url": "https://www.kaigokensaku.mhlw.go.jp/23/index.php?action_kouhyou_detail_004_kani=true&JigyosyoCd=2356480000-00&ServiceCd=520&Type=search", "url2": "http://" }, "geometry": { "type": "Point", "coordinates": [ 137.60475736441802, 34.910119194576517 ] } },
{ "type": "Feature", "properties": { "内容": "新城介護老人保健施設　サマリヤの丘【介護老人保健施設】愛知県新城市矢部字上ノ川１番地３", "url": "https://www.kaigokensaku.mhlw.go.jp/23/index.php?action_kouhyou_detail_004_kani=true&JigyosyoCd=2354080000-00&ServiceCd=520&Type=search", "url2": "http://sojukai.jp/" }, "geometry": { "type": "Point", "coordinates": [ 137.508396530688515, 34.916052906115887 ] } },
{ "type": "Feature", "properties": { "内容": "介護老人保健施設　東海【介護老人保健施設】愛知県東海市富木島町八幡南20番地", "url": "https://www.kaigokensaku.mhlw.go.jp/23/index.php?action_kouhyou_detail_004_kani=true&JigyosyoCd=2354180008-00&ServiceCd=520&Type=search", "url2": "http://www.kojima-kai.or.jp" }, "geometry": { "type": "Point", "coordinates": [ 136.904427100000021, 35.0217455 ] } },
{ "type": "Feature", "properties": { "内容": "介護老人保健施設サザン東海【介護老人保健施設】愛知県東海市加木屋町西御嶽40番地の１", "url": "https://www.kaigokensaku.mhlw.go.jp/23/index.php?action_kouhyou_detail_004_kani=true&JigyosyoCd=2354180016-00&ServiceCd=520&Type=search", "url2": "http://www.s-toukai.or.jp/" }, "geometry": { "type": "Point", "coordinates": [ 136.895674099999951, 34.9897128 ] } },
{ "type": "Feature", "properties": { "内容": "介護老人保健施設　ルミナス大府【介護老人保健施設】愛知県大府市半月町三丁目290番地", "url": "https://www.kaigokensaku.mhlw.go.jp/23/index.php?action_kouhyou_detail_004_kani=true&JigyosyoCd=2354280006-00&ServiceCd=520&Type=search", "url2": "http://ruminasu.jp" }, "geometry": { "type": "Point", "coordinates": [ 136.9428623, 34.9971466 ] } },
{ "type": "Feature", "properties": { "内容": "介護老人保健施設　キュア北崎（ユニット型）【介護老人保健施設】愛知県大府市北崎町5丁目55番地", "url": "https://www.kaigokensaku.mhlw.go.jp/23/index.php?action_kouhyou_detail_004_kani=true&JigyosyoCd=2374201065-00&ServiceCd=520&Type=search", "url2": "http://risei-kai.or.jp/" }, "geometry": { "type": "Point", "coordinates": [ 136.984900407934589, 35.036175852862726 ] } },
{ "type": "Feature", "properties": { "内容": "介護老人保健施設　キュア北崎【介護老人保健施設】愛知県大府市北崎町5-55", "url": "https://www.kaigokensaku.mhlw.go.jp/23/index.php?action_kouhyou_detail_004_kani=true&JigyosyoCd=2354280014-00&ServiceCd=520&Type=search", "url2": "http://risei-kai.or.jp/" }, "geometry": { "type": "Point", "coordinates": [ 136.984889679098501, 35.036338368926955 ] } },
{ "type": "Feature", "properties": { "内容": "老人保健施設　　知多苑【介護老人保健施設】愛知県知多市日長字上種廻間６１番１", "url": "https://www.kaigokensaku.mhlw.go.jp/23/index.php?action_kouhyou_detail_004_kani=true&JigyosyoCd=2354380004-00&ServiceCd=520&Type=search", "url2": "http://hira-hospital.jp/" }, "geometry": { "type": "Point", "coordinates": [ 136.854883400000062, 34.9590353 ] } },
{ "type": "Feature", "properties": { "内容": "介護老人保健施設キューオーエル【介護老人保健施設】愛知県知多市八幡字丸根１００番地", "url": "https://www.kaigokensaku.mhlw.go.jp/23/index.php?action_kouhyou_detail_004_kani=true&JigyosyoCd=2354380012-00&ServiceCd=520&Type=search", "url2": "http://www.taku-m.com/" }, "geometry": { "type": "Point", "coordinates": [ 136.903771199999937, 34.9689187 ] } },
{ "type": "Feature", "properties": { "内容": "知立老人保健施設【介護老人保健施設】知立市新林町北林４４番地", "url": "https://www.kaigokensaku.mhlw.go.jp/23/index.php?action_kouhyou_detail_004_kani=true&JigyosyoCd=2354480010-00&ServiceCd=520&Type=search", "url2": "http://www.kojikai-med-corp.com/" }, "geometry": { "type": "Point", "coordinates": [ 137.036434099999951, 34.9891948 ] } },
{ "type": "Feature", "properties": { "内容": "介護老人保健施設　清風苑【介護老人保健施設】愛知県尾張旭市東印場町二反田２８２番地の２", "url": "https://www.kaigokensaku.mhlw.go.jp/23/index.php?action_kouhyou_detail_004_kani=true&JigyosyoCd=2354580009-00&ServiceCd=520&Type=search", "url2": "http://kawashima-hp.jp" }, "geometry": { "type": "Point", "coordinates": [ 137.028571300000067, 35.206611 ] } },
{ "type": "Feature", "properties": { "内容": "老人保健施設こもれびの里・高浜【介護老人保健施設】愛知県高浜市論地町三丁目6番地１６", "url": "https://www.kaigokensaku.mhlw.go.jp/23/index.php?action_kouhyou_detail_004_kani=true&JigyosyoCd=2354680007-00&ServiceCd=520&Type=search", "url2": "http://komorebi-sato.com" }, "geometry": { "type": "Point", "coordinates": [ 137.004981300000054, 34.9176451 ] } },
{ "type": "Feature", "properties": { "内容": "介護老人保健施設　るるどの泉【介護老人保健施設】愛知県岩倉市曽野町郷前３番地", "url": "https://www.kaigokensaku.mhlw.go.jp/23/index.php?action_kouhyou_detail_004_kani=true&JigyosyoCd=2354780005-00&ServiceCd=520&Type=search", "url2": "http://youteikai.com" }, "geometry": { "type": "Point", "coordinates": [ 136.878291499999932, 35.2689179 ] } },
{ "type": "Feature", "properties": { "内容": "豊明第二老人保健施設【介護老人保健施設】愛知県豊明市沓掛町城塚1番地", "url": "https://www.kaigokensaku.mhlw.go.jp/23/index.php?action_kouhyou_detail_004_kani=true&JigyosyoCd=2354880011-00&ServiceCd=520&Type=search", "url2": "https://toyoake2.shimizukai.biz" }, "geometry": { "type": "Point", "coordinates": [ 137.017740199999906, 35.0719002 ] } },
{ "type": "Feature", "properties": { "内容": "豊明老人保健施設【介護老人保健施設】愛知県豊明市沓掛町桟敷30－7", "url": "https://www.kaigokensaku.mhlw.go.jp/23/index.php?action_kouhyou_detail_004_kani=true&JigyosyoCd=2354880003-00&ServiceCd=520&Type=search", "url2": "http://www.shimizukai.biz/toyoake1/" }, "geometry": { "type": "Point", "coordinates": [ 137.02074790000006, 35.0828628 ] } },
{ "type": "Feature", "properties": { "内容": "医療法人財団愛泉会　老人保健施設愛泉館【介護老人保健施設】愛知県日進市米野木町南山987-44", "url": "https://www.kaigokensaku.mhlw.go.jp/23/index.php?action_kouhyou_detail_004_kani=true&JigyosyoCd=2354980001-00&ServiceCd=520&Type=search", "url2": "http://www.care-net.biz/23/aisenkan/" }, "geometry": { "type": "Point", "coordinates": [ 137.085996, 35.1332522 ] } },
{ "type": "Feature", "properties": { "内容": "日進老人保健施設【介護老人保健施設】愛知県日進市北新町二段場９２０－１０", "url": "https://www.kaigokensaku.mhlw.go.jp/23/index.php?action_kouhyou_detail_004_kani=true&JigyosyoCd=2354980027-00&ServiceCd=520&Type=search", "url2": "http://www.seijukai.or.jp" }, "geometry": { "type": "Point", "coordinates": [ 137.057983899999954, 35.1567152 ] } },
{ "type": "Feature", "properties": { "内容": "介護老人保健施設　リハビリス日進【介護老人保健施設】愛知県日進市折戸町梨子ノ木28-650", "url": "https://www.kaigokensaku.mhlw.go.jp/23/index.php?action_kouhyou_detail_004_kani=true&JigyosyoCd=2354980050-00&ServiceCd=520&Type=search", "url2": "https://www.seiseikai-med.com" }, "geometry": { "type": "Point", "coordinates": [ 137.0548019378204, 35.122784880864742 ] } },
{ "type": "Feature", "properties": { "内容": "ＪＡ愛知厚生連あつみの郷介護老人保健施設【介護老人保健施設】愛知県田原市田原町築出３５番地１", "url": "https://www.kaigokensaku.mhlw.go.jp/23/index.php?action_kouhyou_detail_004_kani=true&JigyosyoCd=2356680005-00&ServiceCd=520&Type=search", "url2": "https://www.atsumi.jaaikosei.or.jp/atsumi/" }, "geometry": { "type": "Point", "coordinates": [ 137.271569399999947, 34.6715137 ] } },
{ "type": "Feature", "properties": { "内容": "介護老人保健施設　　伊良湖ケアセンター【介護老人保健施設】愛知県田原市石神町森下１１番地１", "url": "https://www.kaigokensaku.mhlw.go.jp/23/index.php?action_kouhyou_detail_004_kani=true&JigyosyoCd=2356680013-00&ServiceCd=520&Type=search", "url2": "http://" }, "geometry": { "type": "Point", "coordinates": [ 137.13573109999993, 34.6403253 ] } },
{ "type": "Feature", "properties": { "内容": "介護老人保健施設ハレルヤ園【介護老人保健施設】愛知県愛西市西保町北川原179-145", "url": "https://www.kaigokensaku.mhlw.go.jp/23/index.php?action_kouhyou_detail_004_kani=true&JigyosyoCd=2357280011-00&ServiceCd=520&Type=search", "url2": "http://hareruyaen.com/" }, "geometry": { "type": "Point", "coordinates": [ 136.7099604, 35.1445414 ] } },
{ "type": "Feature", "properties": { "内容": "満天星【介護老人保健施設】愛知県清須市西枇杷島町城並2-14", "url": "https://www.kaigokensaku.mhlw.go.jp/23/index.php?action_kouhyou_detail_004_kani=true&JigyosyoCd=2355280005-00&ServiceCd=520&Type=search", "url2": "http://www.keyaki-kai.or.jp" }, "geometry": { "type": "Point", "coordinates": [ 136.872184400000037, 35.2062056 ] } },
{ "type": "Feature", "properties": { "内容": "老人保健施設洋洋園【介護老人保健施設】愛知県北名古屋市法成寺松の木４７番地", "url": "https://www.kaigokensaku.mhlw.go.jp/23/index.php?action_kouhyou_detail_004_kani=true&JigyosyoCd=2355280013-00&ServiceCd=520&Type=search", "url2": "http://www.iwakura-h.or.jp" }, "geometry": { "type": "Point", "coordinates": [ 136.8599779, 35.2548141 ] } },
{ "type": "Feature", "properties": { "内容": "介護老人保健施設　るるどの泉北名古屋【介護老人保健施設】愛知県北名古屋市熊之庄宮地97番地", "url": "https://www.kaigokensaku.mhlw.go.jp/23/index.php?action_kouhyou_detail_004_kani=true&JigyosyoCd=2355280021-00&ServiceCd=520&Type=search", "url2": "http://youtei-family.com/" }, "geometry": { "type": "Point", "coordinates": [ 136.88772419999998, 35.2612385 ] } },
{ "type": "Feature", "properties": { "内容": "介護老人保健施設　ペジーブル弥富【介護老人保健施設】愛知県弥富市神戸二丁目５３番地", "url": "https://www.kaigokensaku.mhlw.go.jp/23/index.php?action_kouhyou_detail_004_kani=true&JigyosyoCd=2357580014-00&ServiceCd=520&Type=search", "url2": "http://paisible-y.com/" }, "geometry": { "type": "Point", "coordinates": [ 136.771331352778589, 35.099586242640775 ] } },
{ "type": "Feature", "properties": { "内容": "三好老人保健施設【介護老人保健施設】愛知県みよし市福谷町下り松４２－１", "url": "https://www.kaigokensaku.mhlw.go.jp/23/index.php?action_kouhyou_detail_004_kani=true&JigyosyoCd=2356180006-00&ServiceCd=520&Type=search", "url2": "http://hmcg.jp/miyoro" }, "geometry": { "type": "Point", "coordinates": [ 137.1106466, 35.1300677 ] } },
{ "type": "Feature", "properties": { "内容": "老人保健施設　七宝園【介護老人保健施設】愛知県あま市七宝町下田矢倉下1433番地", "url": "https://www.kaigokensaku.mhlw.go.jp/23/index.php?action_kouhyou_detail_004_kani=true&JigyosyoCd=2355680014-00&ServiceCd=520&Type=search", "url2": "http://takarakai.or.jp" }, "geometry": { "type": "Point", "coordinates": [ 136.784276699999964, 35.1732309 ] } },
{ "type": "Feature", "properties": { "内容": "介護老人保健施設　葵の園・長久手【介護老人保健施設】愛知県長久手市岩作高山43番7", "url": "https://www.kaigokensaku.mhlw.go.jp/23/index.php?action_kouhyou_detail_004_kani=true&JigyosyoCd=2357780036-00&ServiceCd=520&Type=search", "url2": "https://www.aoikai.jp/nagakute/" }, "geometry": { "type": "Point", "coordinates": [ 137.043268691679373, 35.191364811548958 ] } },
{ "type": "Feature", "properties": { "内容": "介護老人保健施設　葵の園・長久手　ユニット型【介護老人保健施設】愛知県長久手市岩作高山43番7", "url": "https://www.kaigokensaku.mhlw.go.jp/23/index.php?action_kouhyou_detail_004_kani=true&JigyosyoCd=2357780044-00&ServiceCd=520&Type=search", "url2": "https://www.aoikai.jp/nagakute/" }, "geometry": { "type": "Point", "coordinates": [ 137.043268691679373, 35.191356043602845 ] } },
{ "type": "Feature", "properties": { "内容": "老人保健施設　和合の里【介護老人保健施設】愛知県愛知郡東郷町大字春木字白土１－３９５", "url": "https://www.kaigokensaku.mhlw.go.jp/23/index.php?action_kouhyou_detail_004_kani=true&JigyosyoCd=2355080009-00&ServiceCd=520&Type=search", "url2": "http://www.wagounosato.com" }, "geometry": { "type": "Point", "coordinates": [ 137.03149350000001, 35.1053327 ] } },
{ "type": "Feature", "properties": { "内容": "老人保健施設　さくら荘【介護老人保健施設】愛知県丹羽郡大口町新宮一丁目96番地", "url": "https://www.kaigokensaku.mhlw.go.jp/23/index.php?action_kouhyou_detail_004_kani=true&JigyosyoCd=2355380011-00&ServiceCd=520&Type=search", "url2": "http://www.ijinkai.or.jp" }, "geometry": { "type": "Point", "coordinates": [ 136.920626399999946, 35.3301191 ] } },
{ "type": "Feature", "properties": { "内容": "老人保健施設ゆとり【介護老人保健施設】愛知県丹羽郡扶桑町大字柏森字寺裏47番地", "url": "https://www.kaigokensaku.mhlw.go.jp/23/index.php?action_kouhyou_detail_004_kani=true&JigyosyoCd=2355380003-00&ServiceCd=520&Type=search", "url2": "https://shinzenkai.or.jp" }, "geometry": { "type": "Point", "coordinates": [ 136.901758100000052, 35.3514778 ] } },
{ "type": "Feature", "properties": { "内容": "四季の里【介護老人保健施設】愛知県海部郡大治町大字西條字柳原３７－１", "url": "https://www.kaigokensaku.mhlw.go.jp/23/index.php?action_kouhyou_detail_004_kani=true&JigyosyoCd=2355680006-00&ServiceCd=520&Type=search", "url2": "https://andouiin-fujiedakai.com/shikinosato/" }, "geometry": { "type": "Point", "coordinates": [ 136.8131234, 35.1864378 ] } },
{ "type": "Feature", "properties": { "内容": "介護老人保健施設セーヌ蟹江【介護老人保健施設】愛知県海部郡蟹江町須成西七丁目９０番地１", "url": "https://www.kaigokensaku.mhlw.go.jp/23/index.php?action_kouhyou_detail_004_kani=true&JigyosyoCd=2355680022-00&ServiceCd=520&Type=search", "url2": "http://takarakai.or.jp/" }, "geometry": { "type": "Point", "coordinates": [ 136.784398, 35.1404545 ] } },
{ "type": "Feature", "properties": { "内容": "介護老人保健施設かにえ【介護老人保健施設】愛知県海部郡蟹江町大字蟹江新田字佐屋川東48-1", "url": "https://www.kaigokensaku.mhlw.go.jp/23/index.php?action_kouhyou_detail_004_kani=true&JigyosyoCd=2355680048-00&ServiceCd=520&Type=search", "url2": "http://www.kanie-hp.jp/center/index.html" }, "geometry": { "type": "Point", "coordinates": [ 136.776100156561029, 35.136074314573804 ] } },
{ "type": "Feature", "properties": { "内容": "介護老人保健施設　ヴィラとびしま【介護老人保健施設】愛知県海部郡飛島村大字服岡四丁目１番地１", "url": "https://www.kaigokensaku.mhlw.go.jp/23/index.php?action_kouhyou_detail_004_kani=true&JigyosyoCd=2355680030-00&ServiceCd=520&Type=search", "url2": "https://www.villa-tobishima.com/index.html" }, "geometry": { "type": "Point", "coordinates": [ 136.787456, 35.0898245 ] } },
{ "type": "Feature", "properties": { "内容": "介護老人保健施設メディコ阿久比【介護老人保健施設】愛知県知多郡阿久比町大字草木字盗人ヶ脇15-1", "url": "https://www.kaigokensaku.mhlw.go.jp/23/index.php?action_kouhyou_detail_004_kani=true&JigyosyoCd=2355780004-00&ServiceCd=520&Type=search", "url2": "http://medico-agui.namiki.or.jp" }, "geometry": { "type": "Point", "coordinates": [ 136.90324140000007, 34.9460253 ] } },
{ "type": "Feature", "properties": { "内容": "社会福祉法人愛光園　老人保健施設相生【介護老人保健施設】愛知県知多郡東浦町緒川東米田１６", "url": "https://www.kaigokensaku.mhlw.go.jp/23/index.php?action_kouhyou_detail_004_kani=true&JigyosyoCd=2355780020-00&ServiceCd=520&Type=search", "url2": "http://www.aikouen.jp/pg213.html" }, "geometry": { "type": "Point", "coordinates": [ 136.9390439, 34.9794406 ] } },
{ "type": "Feature", "properties": { "内容": "老人保健施設サンバーデン【介護老人保健施設】愛知県知多郡美浜町大字野間字新前田１７９番地の４", "url": "https://www.kaigokensaku.mhlw.go.jp/23/index.php?action_kouhyou_detail_004_kani=true&JigyosyoCd=2355780012-00&ServiceCd=520&Type=search", "url2": "http://www.sun-baden.com" }, "geometry": { "type": "Point", "coordinates": [ 136.847592100000043, 34.7663721 ] } },
{ "type": "Feature", "properties": { "内容": "介護老人保健施設　榊原【介護老人保健施設】愛知県知多郡武豊町大字冨貴字西側108番地５", "url": "https://www.kaigokensaku.mhlw.go.jp/23/index.php?action_kouhyou_detail_004_kani=true&JigyosyoCd=2355780038-00&ServiceCd=520&Type=search", "url2": "http://www.mc-sakakibara.com/" }, "geometry": { "type": "Point", "coordinates": [ 136.906416300000046, 34.8256087 ] } },
{ "type": "Feature", "properties": { "内容": "介護老人保健施設　豊根ケアセンター【介護老人保健施設】愛知県北設楽郡豊根村上黒川字長野11番地の5", "url": "https://www.kaigokensaku.mhlw.go.jp/23/index.php?action_kouhyou_detail_004_kani=true&JigyosyoCd=2356380002-00&ServiceCd=520&Type=search", "url2": "http://" }, "geometry": { "type": "Point", "coordinates": [ 137.695883714680463, 35.143412340240609 ] } }
]
}
