{
"type": "FeatureCollection",
"name": "geo_23_訪問入浴介護",
"crs": { "type": "name", "properties": { "name": "urn:ogc:def:crs:OGC:1.3:CRS84" } },
"features": [
{ "type": "Feature", "properties": { "内容": "アサヒサンクリーン在宅介護センター千種【訪問入浴介護】愛知県名古屋市千種区今池1-26-29ウイングオカドビル1F北号室", "url": "https://www.kaigokensaku.mhlw.go.jp/23/index.php?action_kouhyou_detail_004_kani=true&JigyosyoCd=2370100170-00&ServiceCd=120&Type=search", "url2": "http://www.asahi-sun-clean.co.jp/" }, "geometry": { "type": "Point", "coordinates": [ 136.932834793923746, 35.168075267445595 ] } },
{ "type": "Feature", "properties": { "内容": "アースサポート名古屋北【訪問入浴介護】愛知県名古屋市北区若葉通五丁目7番地の3", "url": "https://www.kaigokensaku.mhlw.go.jp/23/index.php?action_kouhyou_detail_004_kani=true&JigyosyoCd=2370302198-00&ServiceCd=120&Type=search", "url2": "http://www.earthsupport.co.jp" }, "geometry": { "type": "Point", "coordinates": [ 136.928362099999958, 35.1962677 ] } },
{ "type": "Feature", "properties": { "内容": "愛生苑訪問入浴【訪問入浴介護】名古屋市北区五反田町１０８－２", "url": "https://www.kaigokensaku.mhlw.go.jp/23/index.php?action_kouhyou_detail_004_kani=true&JigyosyoCd=2370300648-00&ServiceCd=120&Type=search", "url2": "http://www.aiseifukusikai.jp" }, "geometry": { "type": "Point", "coordinates": [ 136.911673800000017, 35.2270523 ] } },
{ "type": "Feature", "properties": { "内容": "リィヴァル若葉【訪問入浴介護】愛知県名古屋市北区長田町２-３３-１", "url": "https://www.kaigokensaku.mhlw.go.jp/23/index.php?action_kouhyou_detail_004_kani=true&JigyosyoCd=2370302065-00&ServiceCd=120&Type=search", "url2": "http://www.rival-care.jp" }, "geometry": { "type": "Point", "coordinates": [ 136.921071578049805, 35.191297949694174 ] } },
{ "type": "Feature", "properties": { "内容": "アサヒサンクリーン在宅介護センター上名古屋【訪問入浴介護】愛知県名古屋市西区上名古屋三丁目25番52号カサデナカノ1階", "url": "https://www.kaigokensaku.mhlw.go.jp/23/index.php?action_kouhyou_detail_004_kani=true&JigyosyoCd=2370401578-00&ServiceCd=120&Type=search", "url2": "http://www.asahi-sun-clean.co.jp" }, "geometry": { "type": "Point", "coordinates": [ 136.891060704199191, 35.195600057122313 ] } },
{ "type": "Feature", "properties": { "内容": "セントケア栄生【訪問入浴介護】愛知県名古屋市西区栄生一丁目35番20号川津ビル栄生3階中号", "url": "https://www.kaigokensaku.mhlw.go.jp/23/index.php?action_kouhyou_detail_004_kani=true&JigyosyoCd=2370401602-00&ServiceCd=120&Type=search", "url2": "http://www.saint-care-chubu.com/" }, "geometry": { "type": "Point", "coordinates": [ 136.874247576474005, 35.183524264344925 ] } },
{ "type": "Feature", "properties": { "内容": "パナソニックエイジフリーケアセンターおたい・訪問入浴【訪問入浴介護】愛知県名古屋市西区中小田井四丁目408番地の１", "url": "https://www.kaigokensaku.mhlw.go.jp/23/index.php?action_kouhyou_detail_004_kani=true&JigyosyoCd=2370403996-00&ServiceCd=120&Type=search", "url2": "https://panasonic.co.jp/paf/" }, "geometry": { "type": "Point", "coordinates": [ 136.872691, 35.2213746 ] } },
{ "type": "Feature", "properties": { "内容": "アサヒサンクリーン在宅介護センター中村【訪問入浴介護】愛知県名古屋市中村区十王町6番12号　フリージア1F", "url": "https://www.kaigokensaku.mhlw.go.jp/23/index.php?action_kouhyou_detail_004_kani=true&JigyosyoCd=2370503787-00&ServiceCd=120&Type=search", "url2": "http://www.asahi-sun-clean.co.jp" }, "geometry": { "type": "Point", "coordinates": [ 136.8667345, 35.1777889 ] } },
{ "type": "Feature", "properties": { "内容": "アースサポート名古屋【訪問入浴介護】愛知県名古屋市昭和区鶴舞四丁目10番13号", "url": "https://www.kaigokensaku.mhlw.go.jp/23/index.php?action_kouhyou_detail_004_kani=true&JigyosyoCd=2370700102-00&ServiceCd=120&Type=search", "url2": "http://www.earthsupport.co.jp/" }, "geometry": { "type": "Point", "coordinates": [ 136.924408200000016, 35.1513735 ] } },
{ "type": "Feature", "properties": { "内容": "アサヒサンクリーン在宅介護センター瑞穂【訪問入浴介護】愛知県名古屋市瑞穂区上坂町1-19-1NTYビル1F", "url": "https://www.kaigokensaku.mhlw.go.jp/23/index.php?action_kouhyou_detail_004_kani=true&JigyosyoCd=2370801173-00&ServiceCd=120&Type=search", "url2": "http://www.asahi-sun-clean.co.jp" }, "geometry": { "type": "Point", "coordinates": [ 136.921996473016378, 35.125598325282866 ] } },
{ "type": "Feature", "properties": { "内容": "訪問入浴マスト熱田【訪問入浴介護】愛知県名古屋市熱田区千代田町13番5号千代田ビル3階", "url": "https://www.kaigokensaku.mhlw.go.jp/23/index.php?action_kouhyou_detail_004_kani=true&JigyosyoCd=2370902104-00&ServiceCd=120&Type=search", "url2": "https://mastocare.life/" }, "geometry": { "type": "Point", "coordinates": [ 136.892975800000016, 35.1357359 ] } },
{ "type": "Feature", "properties": { "内容": "リィヴァルあゆち【訪問入浴介護】愛知県名古屋市熱田区沢下町９－１メイプルタウン金山４B", "url": "https://www.kaigokensaku.mhlw.go.jp/23/index.php?action_kouhyou_detail_004_kani=true&JigyosyoCd=2370901114-00&ServiceCd=120&Type=search", "url2": "http://www.rival-care.jp" }, "geometry": { "type": "Point", "coordinates": [ 136.906621299999983, 35.139055 ] } },
{ "type": "Feature", "properties": { "内容": "アサヒサンクリーン訪問入浴　中川【訪問入浴介護】愛知県名古屋市中川区高畑4丁目77ＴＫＧ第6ビル1Ｂ", "url": "https://www.kaigokensaku.mhlw.go.jp/23/index.php?action_kouhyou_detail_004_kani=true&JigyosyoCd=2371002086-00&ServiceCd=120&Type=search", "url2": "http://www.asahi-sun-clean.co.jp/office/33110/" }, "geometry": { "type": "Point", "coordinates": [ 136.85169686139659, 35.143304029765098 ] } },
{ "type": "Feature", "properties": { "内容": "セントケア八田【訪問入浴介護】愛知県名古屋市中川区八田町1812", "url": "https://www.kaigokensaku.mhlw.go.jp/23/index.php?action_kouhyou_detail_004_kani=true&JigyosyoCd=2371002672-00&ServiceCd=120&Type=search", "url2": "http://www.saint-care-chubu.com/index.html" }, "geometry": { "type": "Point", "coordinates": [ 136.85350429999994, 35.1483407 ] } },
{ "type": "Feature", "properties": { "内容": "訪問入浴マスト【訪問入浴介護】愛知県名古屋市中川区高畑五丁目204番地第2奥村マンション１A", "url": "https://www.kaigokensaku.mhlw.go.jp/23/index.php?action_kouhyou_detail_004_kani=true&JigyosyoCd=2371005063-00&ServiceCd=120&Type=search", "url2": "http://mastocare.life/" }, "geometry": { "type": "Point", "coordinates": [ 136.8516395, 35.1442383 ] } },
{ "type": "Feature", "properties": { "内容": "パナソニックエイジフリーケアセンター名古屋・訪問入浴【訪問入浴介護】太平通３丁目23-1NAGOYA福祉機器センタービル２階", "url": "https://www.kaigokensaku.mhlw.go.jp/23/index.php?action_kouhyou_detail_004_kani=true&JigyosyoCd=2371004421-00&ServiceCd=120&Type=search", "url2": null }, "geometry": { "type": "Point", "coordinates": [ 136.869802, 35.1370917 ] } },
{ "type": "Feature", "properties": { "内容": "アサヒサンクリーン在宅介護センター港【訪問入浴介護】愛知県名古屋市港区東築地町13-6", "url": "https://www.kaigokensaku.mhlw.go.jp/23/index.php?action_kouhyou_detail_004_kani=true&JigyosyoCd=2371100492-00&ServiceCd=120&Type=search", "url2": "http://www.asahi-sun-clean.co.jp/" }, "geometry": { "type": "Point", "coordinates": [ 136.893688500000053, 35.0959073 ] } },
{ "type": "Feature", "properties": { "内容": "ネストリンクス訪問入浴介護事業所【訪問入浴介護】名古屋市南区柴田町1丁目17番地の1サンヴェール柴田1F号", "url": "https://www.kaigokensaku.mhlw.go.jp/23/index.php?action_kouhyou_detail_004_kani=true&JigyosyoCd=2371203312-00&ServiceCd=120&Type=search", "url2": "https://nestlinks-nyuyoku.com" }, "geometry": { "type": "Point", "coordinates": [ 136.910626, 35.0767852 ] } },
{ "type": "Feature", "properties": { "内容": "訪問入浴ビガーズ名古屋南【訪問入浴介護】豊田四丁目8番16号ソフィア‐202号", "url": "https://www.kaigokensaku.mhlw.go.jp/23/index.php?action_kouhyou_detail_004_kani=true&JigyosyoCd=2371203361-00&ServiceCd=120&Type=search", "url2": "https://peace611408.wixsite.com/my-site-8/" }, "geometry": { "type": "Point", "coordinates": [ 136.913052625494174, 35.104313845496151 ] } },
{ "type": "Feature", "properties": { "内容": "アースサポート名古屋緑【訪問入浴介護】愛知県名古屋市緑区鳴海町字花井町３４番地", "url": "https://www.kaigokensaku.mhlw.go.jp/23/index.php?action_kouhyou_detail_004_kani=true&JigyosyoCd=2371400769-00&ServiceCd=120&Type=search", "url2": "http://www.earthsupport.co.jp/" }, "geometry": { "type": "Point", "coordinates": [ 136.951048899999932, 35.0831262 ] } },
{ "type": "Feature", "properties": { "内容": "アサヒサンクリーン在宅介護センター緑【訪問入浴介護】愛知県名古屋市緑区乗鞍１丁目205アプローズ　T101号室", "url": "https://www.kaigokensaku.mhlw.go.jp/23/index.php?action_kouhyou_detail_004_kani=true&JigyosyoCd=2371400595-00&ServiceCd=120&Type=search", "url2": "http://www.asahi-sun-clean.co.jp" }, "geometry": { "type": "Point", "coordinates": [ 136.992583959951418, 35.096811383603381 ] } },
{ "type": "Feature", "properties": { "内容": "ニチイケアセンター桃山【訪問入浴介護】名古屋市緑区桃山３丁目510番地", "url": "https://www.kaigokensaku.mhlw.go.jp/23/index.php?action_kouhyou_detail_004_kani=true&JigyosyoCd=2371404381-00&ServiceCd=120&Type=search", "url2": "https://www.nichiigakkan.co.jp" }, "geometry": { "type": "Point", "coordinates": [ 136.9915655, 35.100287 ] } },
{ "type": "Feature", "properties": { "内容": "株式会社福祉の里　名古屋鳴海営業所【訪問入浴介護】名古屋市緑区六田1丁目185", "url": "https://www.kaigokensaku.mhlw.go.jp/23/index.php?action_kouhyou_detail_004_kani=true&JigyosyoCd=2371400322-00&ServiceCd=120&Type=search", "url2": "https://www.fukushinosato.co.jp/facility/narumi.html" }, "geometry": { "type": "Point", "coordinates": [ 136.959024649073854, 35.078637020382757 ] } },
{ "type": "Feature", "properties": { "内容": "パナソニックエイジフリーケアセンターみどり・訪問入浴【訪問入浴介護】愛知県名古屋市緑区相川3-38", "url": "https://www.kaigokensaku.mhlw.go.jp/23/index.php?action_kouhyou_detail_004_kani=true&JigyosyoCd=2371404043-00&ServiceCd=120&Type=search", "url2": "https://sumai.panasonic.jp/agefree/map/detail.php?id=29" }, "geometry": { "type": "Point", "coordinates": [ 136.9744773, 35.1007197 ] } },
{ "type": "Feature", "properties": { "内容": "愛知県名古屋市名東区高針1丁目1715番地【訪問入浴介護】高針1丁目1715番地", "url": "https://www.kaigokensaku.mhlw.go.jp/23/index.php?action_kouhyou_detail_004_kani=true&JigyosyoCd=2371503216-00&ServiceCd=120&Type=search", "url2": "http://www.tahoe.co.jp/" }, "geometry": { "type": "Point", "coordinates": [ 137.005937942327819, 35.155390245058193 ] } },
{ "type": "Feature", "properties": { "内容": "訪問入浴スリーバント【訪問入浴介護】愛知県名古屋市名東区本郷二丁目61番地", "url": "https://www.kaigokensaku.mhlw.go.jp/23/index.php?action_kouhyou_detail_004_kani=true&JigyosyoCd=2371504446-00&ServiceCd=120&Type=search", "url2": null }, "geometry": { "type": "Point", "coordinates": [ 137.012306700000011, 35.1764579 ] } },
{ "type": "Feature", "properties": { "内容": "アサヒサンクリーン在宅介護センター名古屋【訪問入浴介護】愛知県名古屋市名東区藤森西町2002-1", "url": "https://www.kaigokensaku.mhlw.go.jp/23/index.php?action_kouhyou_detail_004_kani=true&JigyosyoCd=2371500196-00&ServiceCd=120&Type=search", "url2": "http://www.asahi-sun-clean.co.jp" }, "geometry": { "type": "Point", "coordinates": [ 137.012246499999947, 35.1840994 ] } },
{ "type": "Feature", "properties": { "内容": "パナソニック　エイジフリーケアセンター上社訪問入浴【訪問入浴介護】愛知県名古屋市名東区社台2丁目1翠芳ビル1F", "url": "https://www.kaigokensaku.mhlw.go.jp/23/index.php?action_kouhyou_detail_004_kani=true&JigyosyoCd=2371502432-00&ServiceCd=120&Type=search", "url2": "http://www.net-kaigo.com" }, "geometry": { "type": "Point", "coordinates": [ 137.0000096, 35.1750252 ] } },
{ "type": "Feature", "properties": { "内容": "アースサポート豊橋【訪問入浴介護】愛知県豊橋市花田町字荒木38番地1", "url": "https://www.kaigokensaku.mhlw.go.jp/23/index.php?action_kouhyou_detail_004_kani=true&JigyosyoCd=2372002150-00&ServiceCd=120&Type=search", "url2": "http://www.earthsupport.co.jp/" }, "geometry": { "type": "Point", "coordinates": [ 137.372231268301903, 34.767568281304058 ] } },
{ "type": "Feature", "properties": { "内容": "アサヒサンクリーン在宅介護センター　豊橋【訪問入浴介護】愛知県豊橋市前田南町1-9-21", "url": "https://www.kaigokensaku.mhlw.go.jp/23/index.php?action_kouhyou_detail_004_kani=true&JigyosyoCd=2372001707-00&ServiceCd=120&Type=search", "url2": "http://asahi-sun-clean.co.jp" }, "geometry": { "type": "Point", "coordinates": [ 137.393064959927671, 34.75654532397693 ] } },
{ "type": "Feature", "properties": { "内容": "豊橋市社会福祉協議会　東部指定訪問入浴介護事業所【訪問入浴介護】豊橋市佐藤五丁目２２番地の１６", "url": "https://www.kaigokensaku.mhlw.go.jp/23/index.php?action_kouhyou_detail_004_kani=true&JigyosyoCd=2372000618-00&ServiceCd=120&Type=search", "url2": "http://www.toyohashi-shakyo.or.jp/" }, "geometry": { "type": "Point", "coordinates": [ 137.4052269, 34.7429892 ] } },
{ "type": "Feature", "properties": { "内容": "アースサポート岡崎【訪問入浴介護】愛知県岡崎市明大寺町字西郷中34番地5", "url": "https://www.kaigokensaku.mhlw.go.jp/23/index.php?action_kouhyou_detail_004_kani=true&JigyosyoCd=2372103073-00&ServiceCd=120&Type=search", "url2": "http://www/earthsupport.co.jp" }, "geometry": { "type": "Point", "coordinates": [ 137.1650108, 34.9522202 ] } },
{ "type": "Feature", "properties": { "内容": "アサヒサンクリーン在宅介護センター岡崎【訪問入浴介護】愛知県岡崎市羽根東町二丁目８番地３　第２ＬＡＮＤ　ＰＬＡＺＡ　ＢＩＬＬ", "url": "https://www.kaigokensaku.mhlw.go.jp/23/index.php?action_kouhyou_detail_004_kani=true&JigyosyoCd=2372101127-00&ServiceCd=120&Type=search", "url2": "http://www.asahi-sun-clean.co.jp" }, "geometry": { "type": "Point", "coordinates": [ 137.166234128647915, 34.924868127477154 ] } },
{ "type": "Feature", "properties": { "内容": "ニチイケアセンター岡崎南【訪問入浴介護】愛知県岡崎市戸崎町榎ヶ坪２８番地１", "url": "https://www.kaigokensaku.mhlw.go.jp/23/index.php?action_kouhyou_detail_004_kani=true&JigyosyoCd=2372101143-00&ServiceCd=120&Type=search", "url2": "http://www.nichiigakkan.co.jp" }, "geometry": { "type": "Point", "coordinates": [ 137.1641448, 34.9325081 ] } },
{ "type": "Feature", "properties": { "内容": "アースサポート一宮【訪問入浴介護】愛知県一宮市新生三丁目17番12号", "url": "https://www.kaigokensaku.mhlw.go.jp/23/index.php?action_kouhyou_detail_004_kani=true&JigyosyoCd=2372200846-00&ServiceCd=120&Type=search", "url2": "http://www.earthsupport.co.jp/" }, "geometry": { "type": "Point", "coordinates": [ 136.794208799999979, 35.2976126 ] } },
{ "type": "Feature", "properties": { "内容": "アサヒサンクリーン在宅介護センター一宮【訪問入浴介護】愛知県一宮市新生二丁目17番7号", "url": "https://www.kaigokensaku.mhlw.go.jp/23/index.php?action_kouhyou_detail_004_kani=true&JigyosyoCd=2372203014-00&ServiceCd=120&Type=search", "url2": "http://www.asahi-sun-clean.co.jp/" }, "geometry": { "type": "Point", "coordinates": [ 136.797266799999989, 35.2986737 ] } },
{ "type": "Feature", "properties": { "内容": "パナソニックエイジフリーケアセンタ－・一宮訪問入浴【訪問入浴介護】愛知県一宮市平和1丁目9番1号サンローズ平和２Ｆ", "url": "https://www.kaigokensaku.mhlw.go.jp/23/index.php?action_kouhyou_detail_004_kani=true&JigyosyoCd=2372200465-00&ServiceCd=120&Type=search", "url2": "http://www.net-kaigo.com" }, "geometry": { "type": "Point", "coordinates": [ 136.794072599999936, 35.3015149 ] } },
{ "type": "Feature", "properties": { "内容": "株式会社福祉の里　一宮営業所【訪問入浴介護】愛知県一宮市奥町字神田69-1", "url": "https://www.kaigokensaku.mhlw.go.jp/23/index.php?action_kouhyou_detail_004_kani=true&JigyosyoCd=2372205563-00&ServiceCd=120&Type=search", "url2": null }, "geometry": { "type": "Point", "coordinates": [ 136.773202713942482, 35.330124393287925 ] } },
{ "type": "Feature", "properties": { "内容": "ニチイケアセンター　一宮【訪問入浴介護】愛知県一宮市今伊勢町本神戸字高野池10番地", "url": "https://www.kaigokensaku.mhlw.go.jp/23/index.php?action_kouhyou_detail_004_kani=true&JigyosyoCd=2372200671-00&ServiceCd=120&Type=search", "url2": "http://www.nichiigakkan.co.jp" }, "geometry": { "type": "Point", "coordinates": [ 136.79478359999996, 35.3195494 ] } },
{ "type": "Feature", "properties": { "内容": "アサヒサンクリーン在宅介護センター瀬戸【訪問入浴介護】愛知県瀬戸市共栄通1丁目30番地ガスビル瀬戸1階", "url": "https://www.kaigokensaku.mhlw.go.jp/23/index.php?action_kouhyou_detail_004_kani=true&JigyosyoCd=2372301438-00&ServiceCd=120&Type=search", "url2": "http://www.asahi-sun-clean.co.jp" }, "geometry": { "type": "Point", "coordinates": [ 137.084124987643577, 35.221925802865407 ] } },
{ "type": "Feature", "properties": { "内容": "アースサポート半田【訪問入浴介護】愛知県半田市昭和町二丁目47番地", "url": "https://www.kaigokensaku.mhlw.go.jp/23/index.php?action_kouhyou_detail_004_kani=true&JigyosyoCd=2372401071-00&ServiceCd=120&Type=search", "url2": "http://www.earthsupport.co.jp" }, "geometry": { "type": "Point", "coordinates": [ 136.9197074, 34.8846704 ] } },
{ "type": "Feature", "properties": { "内容": "入浴介護センター【訪問入浴介護】愛知県半田市瑞穂町１丁目５番９", "url": "https://www.kaigokensaku.mhlw.go.jp/23/index.php?action_kouhyou_detail_004_kani=true&JigyosyoCd=2372400354-00&ServiceCd=120&Type=search", "url2": "http://nyuyoku-kaigo.jp" }, "geometry": { "type": "Point", "coordinates": [ 136.943957599999976, 34.8931513 ] } },
{ "type": "Feature", "properties": { "内容": "アサヒサンクリーン在宅介護センター半田【訪問入浴介護】愛知県半田市青山3-25-10スポット暁1階4号室", "url": "https://www.kaigokensaku.mhlw.go.jp/23/index.php?action_kouhyou_detail_004_kani=true&JigyosyoCd=2372401832-00&ServiceCd=120&Type=search", "url2": "https://www.asahi-sun-clean.co.jp/company/profile.php" }, "geometry": { "type": "Point", "coordinates": [ 136.912369399999989, 34.8758731 ] } },
{ "type": "Feature", "properties": { "内容": "訪問入浴　さくらさくら【訪問入浴介護】愛知県春日井市宮町二丁目３番地１９", "url": "https://www.kaigokensaku.mhlw.go.jp/23/index.php?action_kouhyou_detail_004_kani=true&JigyosyoCd=2372501037-00&ServiceCd=120&Type=search", "url2": "http://" }, "geometry": { "type": "Point", "coordinates": [ 136.943588480812082, 35.252485472914614 ] } },
{ "type": "Feature", "properties": { "内容": "アサヒサンクリーン在宅介護センター春日井【訪問入浴介護】愛知県春日井市高山町3-7-8第17御幸オフィス103号104号", "url": "https://www.kaigokensaku.mhlw.go.jp/23/index.php?action_kouhyou_detail_004_kani=true&JigyosyoCd=2372502761-00&ServiceCd=120&Type=search", "url2": "http://www.asahi-sun-clean.co.jp" }, "geometry": { "type": "Point", "coordinates": [ 136.953051925885944, 35.258678060409146 ] } },
{ "type": "Feature", "properties": { "内容": "あんこころ訪問入浴【訪問入浴介護】愛知県春日井市白山町六丁目3番地2クリスタル藤江103号", "url": "https://www.kaigokensaku.mhlw.go.jp/23/index.php?action_kouhyou_detail_004_kani=true&JigyosyoCd=2372504239-00&ServiceCd=120&Type=search", "url2": "http://www.ancocolo.com" }, "geometry": { "type": "Point", "coordinates": [ 137.031178, 35.271711 ] } },
{ "type": "Feature", "properties": { "内容": "株式会社福祉の里　春日井営業所【訪問入浴介護】愛知県春日井市篠木町8丁目2-22", "url": "https://www.kaigokensaku.mhlw.go.jp/23/index.php?action_kouhyou_detail_004_kani=true&JigyosyoCd=2372500427-00&ServiceCd=120&Type=search", "url2": null }, "geometry": { "type": "Point", "coordinates": [ 136.997218100000026, 35.2600772 ] } },
{ "type": "Feature", "properties": { "内容": "パナソニックエイジフリーケアセンター春日井・訪問入浴【訪問入浴介護】愛知県春日井市鳥居松町4丁目177番地ﾃﾞｻﾞｲﾅｰｽﾞﾏﾝｼｮﾝWill1F", "url": "https://www.kaigokensaku.mhlw.go.jp/23/index.php?action_kouhyou_detail_004_kani=true&JigyosyoCd=2372501029-00&ServiceCd=120&Type=search", "url2": "http://panasonic.co.jp/es/pesaf/" }, "geometry": { "type": "Point", "coordinates": [ 136.97246819999998, 35.244256 ] } },
{ "type": "Feature", "properties": { "内容": "アースサポート豊川【訪問入浴介護】愛知県豊川市中央通五丁目15番地の1", "url": "https://www.kaigokensaku.mhlw.go.jp/23/index.php?action_kouhyou_detail_004_kani=true&JigyosyoCd=2372601639-00&ServiceCd=120&Type=search", "url2": "http://www.earthsupport.co.jp/" }, "geometry": { "type": "Point", "coordinates": [ 137.377617200000032, 34.8250175 ] } },
{ "type": "Feature", "properties": { "内容": "アサヒサンクリーン在宅介護センター豊川【訪問入浴介護】愛知県豊川市新宿町1-13", "url": "https://www.kaigokensaku.mhlw.go.jp/23/index.php?action_kouhyou_detail_004_kani=true&JigyosyoCd=2372600300-00&ServiceCd=120&Type=search", "url2": "http://www.asahi-sun-clean.co.jp" }, "geometry": { "type": "Point", "coordinates": [ 137.392841299999986, 34.8203046 ] } },
{ "type": "Feature", "properties": { "内容": "株式会社ニチイ学館【訪問入浴介護】豊川市西塚町１丁目４７番地ニチイケアセンター豊川", "url": "https://www.kaigokensaku.mhlw.go.jp/23/index.php?action_kouhyou_detail_004_kani=true&JigyosyoCd=2372600391-00&ServiceCd=120&Type=search", "url2": "http://www.nichiigakkan.co.jp" }, "geometry": { "type": "Point", "coordinates": [ 137.370054566270483, 34.815253162457701 ] } },
{ "type": "Feature", "properties": { "内容": "株式会社　福祉の里　豊川【訪問入浴介護】愛知県豊川市大崎町小林190", "url": "https://www.kaigokensaku.mhlw.go.jp/23/index.php?action_kouhyou_detail_004_kani=true&JigyosyoCd=2372600664-00&ServiceCd=120&Type=search", "url2": null }, "geometry": { "type": "Point", "coordinates": [ 137.377977144535862, 34.840518254909874 ] } },
{ "type": "Feature", "properties": { "内容": "みその訪問入浴サービス【訪問入浴介護】愛知県豊川市金沢町弁天下３８－３", "url": "https://www.kaigokensaku.mhlw.go.jp/23/index.php?action_kouhyou_detail_004_kani=true&JigyosyoCd=2376500225-00&ServiceCd=120&Type=search", "url2": "http://www.misono.or.jp" }, "geometry": { "type": "Point", "coordinates": [ 137.450603461376886, 34.855548560764944 ] } },
{ "type": "Feature", "properties": { "内容": "アサヒサンクリーン在宅介護センター津島【訪問入浴介護】愛知県津島市城之越町28　ルミエール寿光　1号室ルミエール寿光　1号室", "url": "https://www.kaigokensaku.mhlw.go.jp/23/index.php?action_kouhyou_detail_004_kani=true&JigyosyoCd=2372700480-00&ServiceCd=120&Type=search", "url2": "https://www.asahi-sun-clean.co.jp/" }, "geometry": { "type": "Point", "coordinates": [ 136.723131066734368, 35.180927157739404 ] } },
{ "type": "Feature", "properties": { "内容": "アースサポート刈谷【訪問入浴介護】愛知県刈谷市板倉町1丁目7番地7", "url": "https://www.kaigokensaku.mhlw.go.jp/23/index.php?action_kouhyou_detail_004_kani=true&JigyosyoCd=2372901732-00&ServiceCd=120&Type=search", "url2": "https://www.earthsupport.co.jp/" }, "geometry": { "type": "Point", "coordinates": [ 137.044536200000039, 34.977652 ] } },
{ "type": "Feature", "properties": { "内容": "アサヒサンクリーン在宅介護センター刈谷【訪問入浴介護】愛知県刈谷市東陽町三丁目68番地東陽町鬼頭ビル1階北側", "url": "https://www.kaigokensaku.mhlw.go.jp/23/index.php?action_kouhyou_detail_004_kani=true&JigyosyoCd=2372900692-00&ServiceCd=120&Type=search", "url2": "http://www.asahi-sun-clean.co.jp" }, "geometry": { "type": "Point", "coordinates": [ 136.999674490169525, 34.988954005139846 ] } },
{ "type": "Feature", "properties": { "内容": "ニチイケアセンター豊田南【訪問入浴介護】愛知県豊田市深田町３丁目２９番地１", "url": "https://www.kaigokensaku.mhlw.go.jp/23/index.php?action_kouhyou_detail_004_kani=true&JigyosyoCd=2373000948-00&ServiceCd=120&Type=search", "url2": "http://www.nichiigakkan.co.jp" }, "geometry": { "type": "Point", "coordinates": [ 137.12274750000006, 35.0649893 ] } },
{ "type": "Feature", "properties": { "内容": "アースサポート豊田【訪問入浴介護】愛知県豊田市元城町四丁目19番地1", "url": "https://www.kaigokensaku.mhlw.go.jp/23/index.php?action_kouhyou_detail_004_kani=true&JigyosyoCd=2373001086-00&ServiceCd=120&Type=search", "url2": "http://www.earthsupport.co.jp/" }, "geometry": { "type": "Point", "coordinates": [ 137.157432299999982, 35.0831058 ] } },
{ "type": "Feature", "properties": { "内容": "アサヒサンクリーン在宅介護センター豊田【訪問入浴介護】愛知県豊田市広川町7-91-11広川町7丁目事務所102号室", "url": "https://www.kaigokensaku.mhlw.go.jp/23/index.php?action_kouhyou_detail_004_kani=true&JigyosyoCd=2373000583-00&ServiceCd=120&Type=search", "url2": "http://www.asahi-sun-clean.co.jp" }, "geometry": { "type": "Point", "coordinates": [ 137.178390789092191, 35.08626533121253 ] } },
{ "type": "Feature", "properties": { "内容": "株式会社福祉の里　豊田営業所【訪問入浴介護】愛知県豊田市衣ヶ原3丁目10番地2衣ビル102号室", "url": "https://www.kaigokensaku.mhlw.go.jp/23/index.php?action_kouhyou_detail_004_kani=true&JigyosyoCd=2373004411-00&ServiceCd=120&Type=search", "url2": "https://www.fukushinosato.co.jp/facility/toyota.html" }, "geometry": { "type": "Point", "coordinates": [ 137.134329799999989, 35.0816478 ] } },
{ "type": "Feature", "properties": { "内容": "日本介護サービス株式会社【訪問入浴介護】愛知県豊田市樹木町5-51", "url": "https://www.kaigokensaku.mhlw.go.jp/23/index.php?action_kouhyou_detail_004_kani=true&JigyosyoCd=2373000351-00&ServiceCd=120&Type=search", "url2": "http://www.n-kaigo.co.jp" }, "geometry": { "type": "Point", "coordinates": [ 137.149905699999977, 35.075523 ] } },
{ "type": "Feature", "properties": { "内容": "アサヒサンクリーン在宅介護センター豊田南【訪問入浴介護】愛知県豊田市吉原町鶴喰68番地吉原貸事事務所2階1号室", "url": "https://www.kaigokensaku.mhlw.go.jp/23/index.php?action_kouhyou_detail_004_kani=true&JigyosyoCd=2373005046-00&ServiceCd=120&Type=search", "url2": "https://www.asahi-sun-clean.co.jp/search/chubu_region/aichi_prefectures/toyota/2724/" }, "geometry": { "type": "Point", "coordinates": [ 137.093864200000013, 35.0193246 ] } },
{ "type": "Feature", "properties": { "内容": "パナソニックエイジフリーケアセンター安城・訪問入浴【訪問入浴介護】愛知県安城市緑町1-13-6", "url": "https://www.kaigokensaku.mhlw.go.jp/23/index.php?action_kouhyou_detail_004_kani=true&JigyosyoCd=2373101498-00&ServiceCd=120&Type=search", "url2": "http://panasonic.co.jp/es/pesasv/" }, "geometry": { "type": "Point", "coordinates": [ 137.04952179999998, 34.9725916 ] } },
{ "type": "Feature", "properties": { "内容": "アサヒサンクリーン在宅介護センター安城【訪問入浴介護】愛知県安城市今池町1-22-4今池貸事務所2階", "url": "https://www.kaigokensaku.mhlw.go.jp/23/index.php?action_kouhyou_detail_004_kani=true&JigyosyoCd=2373101324-00&ServiceCd=120&Type=search", "url2": "http://www.asahi-sun-clean-co.jp" }, "geometry": { "type": "Point", "coordinates": [ 137.082724639286795, 34.987970718662595 ] } },
{ "type": "Feature", "properties": { "内容": "株式会社ライフサポート【訪問入浴介護】愛知県安城市三河安城南町1丁目13番地４", "url": "https://www.kaigokensaku.mhlw.go.jp/23/index.php?action_kouhyou_detail_004_kani=true&JigyosyoCd=2373100185-00&ServiceCd=120&Type=search", "url2": "http://www.kk-life-support.jp/" }, "geometry": { "type": "Point", "coordinates": [ 137.06052909999994, 34.9650206 ] } },
{ "type": "Feature", "properties": { "内容": "アサヒサンクリーン在宅介護センター西尾【訪問入浴介護】愛知県西尾市高畠町4丁目90番地CITY　BUILD地久　1階G号室", "url": "https://www.kaigokensaku.mhlw.go.jp/23/index.php?action_kouhyou_detail_004_kani=true&JigyosyoCd=2373200696-00&ServiceCd=120&Type=search", "url2": "http://www.asahi-sun-clean.co.jp" }, "geometry": { "type": "Point", "coordinates": [ 137.0597583, 34.8618144 ] } },
{ "type": "Feature", "properties": { "内容": "といず訪問入浴サービス【訪問入浴介護】愛知県西尾市長縄町七ツ田３６番地２", "url": "https://www.kaigokensaku.mhlw.go.jp/23/index.php?action_kouhyou_detail_004_kani=true&JigyosyoCd=2373200431-00&ServiceCd=120&Type=search", "url2": "http://" }, "geometry": { "type": "Point", "coordinates": [ 137.041496300000063, 34.843619 ] } },
{ "type": "Feature", "properties": { "内容": "アースサポート小牧【訪問入浴介護】愛知県小牧市小牧二丁目282番地", "url": "https://www.kaigokensaku.mhlw.go.jp/23/index.php?action_kouhyou_detail_004_kani=true&JigyosyoCd=2373801287-00&ServiceCd=120&Type=search", "url2": "http://www.earthsupport.co.jp/" }, "geometry": { "type": "Point", "coordinates": [ 136.927722099999983, 35.2936327 ] } },
{ "type": "Feature", "properties": { "内容": "アサヒサンクリーン在宅介護センター小牧【訪問入浴介護】愛知県小牧市岩崎堤下635-1シャンポール岩崎　1F-西号室", "url": "https://www.kaigokensaku.mhlw.go.jp/23/index.php?action_kouhyou_detail_004_kani=true&JigyosyoCd=2373800560-00&ServiceCd=120&Type=search", "url2": "komaki@asahi-sun-clean.co.jp" }, "geometry": { "type": "Point", "coordinates": [ 136.931848599999967, 35.3139747 ] } },
{ "type": "Feature", "properties": { "内容": "アサヒサンクリーン在宅介護センター稲沢【訪問入浴介護】愛知県稲沢市国府宮二丁目8-10Ｍ・Ｆ国府宮1階", "url": "https://www.kaigokensaku.mhlw.go.jp/23/index.php?action_kouhyou_detail_004_kani=true&JigyosyoCd=2373901665-00&ServiceCd=120&Type=search", "url2": "http:/www.asahi-sun-clean.co.jp" }, "geometry": { "type": "Point", "coordinates": [ 136.804885869940563, 35.253960253371339 ] } },
{ "type": "Feature", "properties": { "内容": "アースサポート東海【訪問入浴介護】愛知県東海市中央町7丁目13番地", "url": "https://www.kaigokensaku.mhlw.go.jp/23/index.php?action_kouhyou_detail_004_kani=true&JigyosyoCd=2374100952-00&ServiceCd=120&Type=search", "url2": "http://www.earthsupport.co.jp/" }, "geometry": { "type": "Point", "coordinates": [ 136.9018413, 35.020604 ] } },
{ "type": "Feature", "properties": { "内容": "アサヒサンクリーン在宅介護センター東海【訪問入浴介護】東海市大田町畑間1010番地畑間ビル1F", "url": "https://www.kaigokensaku.mhlw.go.jp/23/index.php?action_kouhyou_detail_004_kani=true&JigyosyoCd=2374100184-00&ServiceCd=120&Type=search", "url2": "http://www.asahi-sun-clean.co.jp" }, "geometry": { "type": "Point", "coordinates": [ 136.898959712861227, 35.019578857702406 ] } },
{ "type": "Feature", "properties": { "内容": "訪問入浴　なみ　と　かぜ【訪問入浴介護】愛知県尾張旭市桜ヶ丘町3丁目71番地", "url": "https://www.kaigokensaku.mhlw.go.jp/23/index.php?action_kouhyou_detail_004_kani=true&JigyosyoCd=2374501043-00&ServiceCd=120&Type=search", "url2": null }, "geometry": { "type": "Point", "coordinates": [ 137.016892, 35.212918 ] } },
{ "type": "Feature", "properties": { "内容": "アサヒサンクリーン在宅介護センター尾張旭【訪問入浴介護】愛知県尾張旭市瀬戸川町1丁目202", "url": "https://www.kaigokensaku.mhlw.go.jp/23/index.php?action_kouhyou_detail_004_kani=true&JigyosyoCd=2374500219-00&ServiceCd=120&Type=search", "url2": "http://www.asahi-sun-clean.co.jp" }, "geometry": { "type": "Point", "coordinates": [ 137.054938399999969, 35.2105253 ] } },
{ "type": "Feature", "properties": { "内容": "田原入浴サービスセンター【訪問入浴介護】愛知県田原市赤羽根町赤土1", "url": "https://www.kaigokensaku.mhlw.go.jp/23/index.php?action_kouhyou_detail_004_kani=true&JigyosyoCd=2376600181-00&ServiceCd=120&Type=search", "url2": "http://www.fukujuen.or.jp" }, "geometry": { "type": "Point", "coordinates": [ 137.21281534624103, 34.618852529879241 ] } },
{ "type": "Feature", "properties": { "内容": "株式会社福祉の里　佐屋【訪問入浴介護】愛知県愛西市大野町未9番地", "url": "https://www.kaigokensaku.mhlw.go.jp/23/index.php?action_kouhyou_detail_004_kani=true&JigyosyoCd=2377200296-00&ServiceCd=120&Type=search", "url2": null }, "geometry": { "type": "Point", "coordinates": [ 136.764128600000049, 35.1280838 ] } },
{ "type": "Feature", "properties": { "内容": "ニチイケアセンター尾張【訪問入浴介護】愛知県清須市春日落合324", "url": "https://www.kaigokensaku.mhlw.go.jp/23/index.php?action_kouhyou_detail_004_kani=true&JigyosyoCd=2375200835-00&ServiceCd=120&Type=search", "url2": "http://www.nichiigakkan.co.jp" }, "geometry": { "type": "Point", "coordinates": [ 136.836014, 35.2449424 ] } },
{ "type": "Feature", "properties": { "内容": "株式会社福祉の里　尾張営業所【訪問入浴介護】愛知県北名古屋市北野天神１３番地", "url": "https://www.kaigokensaku.mhlw.go.jp/23/index.php?action_kouhyou_detail_004_kani=true&JigyosyoCd=2375200330-00&ServiceCd=120&Type=search", "url2": "https://www.fukushinosato.co.jp/facility/owari.html" }, "geometry": { "type": "Point", "coordinates": [ 136.854081400000041, 35.2535225 ] } },
{ "type": "Feature", "properties": { "内容": "訪問入浴たすけっとYOU湯【訪問入浴介護】愛知県弥富市前ケ須町南本田３６８番地１", "url": "https://www.kaigokensaku.mhlw.go.jp/23/index.php?action_kouhyou_detail_004_kani=true&JigyosyoCd=2375600893-00&ServiceCd=120&Type=search", "url2": "http://www.kainan.jaaikosei.or.jp/" }, "geometry": { "type": "Point", "coordinates": [ 136.723214323594277, 35.107371251472834 ] } },
{ "type": "Feature", "properties": { "内容": "やまゆり荘訪問入浴介護事業所【訪問入浴介護】愛知県北設楽郡東栄町大字中設楽字松久保１番地３", "url": "https://www.kaigokensaku.mhlw.go.jp/23/index.php?action_kouhyou_detail_004_kani=true&JigyosyoCd=2376300063-00&ServiceCd=120&Type=search", "url2": "http://www.meiho-f.com" }, "geometry": { "type": "Point", "coordinates": [ 137.684273800000028, 35.0834882 ] } }
]
}
